{
  "type": "FeatureCollection",
  "features": [
    {
      "id": "301",
      "type": "Feature",
      "properties": {
        "id": null,
        "SOURCE_FILE": "/Users/maples/GitHub/mortalitree_testing/labels/snick_mortalitree_prefire_labels.geojson",
        "SUNETID": "snick",
        "FIRENAME": "SCU LIGHTNING COMPLEX",
        "FIRE_SLUG": "SCU_LIGHTNING_COMPLEX",
        "PREFIRE": 1,
        "PREFIRE_STATUS": "prefire",
        "TILE_Z": 17,
        "TILE_X": 21222,
        "TILE_Y": 50780,
        "TILEXYZ": [
          17,
          21222,
          50780
        ],
        "OUTPUT_FILE": "/Users/maples/GitHub/mortalitree_testing/notebooks/single_tiles/prefire/17/21222/50780.geojson",
        "OUTPUT_STATUS_DIR": "prefire",
        "FEATURE_COUNT": 3
      },
      "geometry": {
        "type": "Polygon",
        "coordinates": [
          [
            [
              -121.71198544728321,
              37.516264191226895
            ],
            [
              -121.71186754313176,
              37.51626290523516
            ],
            [
              -121.71186756324465,
              37.516261735288765
            ],
            [
              -121.71198548950011,
              37.516261735288765
            ],
            [
              -121.71198544728321,
              37.516264191226895
            ]
          ]
        ]
      }
    },
    {
      "id": "313",
      "type": "Feature",
      "properties": {
        "id": null,
        "SOURCE_FILE": "/Users/maples/GitHub/mortalitree_testing/labels/snick_mortalitree_prefire_labels.geojson",
        "SUNETID": "snick",
        "FIRENAME": "SCU LIGHTNING COMPLEX",
        "FIRE_SLUG": "SCU_LIGHTNING_COMPLEX",
        "PREFIRE": 1,
        "PREFIRE_STATUS": "prefire",
        "TILE_Z": 17,
        "TILE_X": 21222,
        "TILE_Y": 50780,
        "TILEXYZ": [
          17,
          21222,
          50780
        ],
        "OUTPUT_FILE": "/Users/maples/GitHub/mortalitree_testing/notebooks/single_tiles/prefire/17/21222/50780.geojson",
        "OUTPUT_STATUS_DIR": "prefire",
        "FEATURE_COUNT": 3
      },
      "geometry": {
        "type": "Polygon",
        "coordinates": [
          [
            [
              -121.71074593911831,
              37.5163387284683
            ],
            [
              -121.7105838208299,
              37.51633695849505
            ],
            [
              -121.71058511530525,
              37.516261735288765
            ],
            [
              -121.71074726388562,
              37.516261735288765
            ],
            [
              -121.71074593911831,
              37.5163387284683
            ]
          ]
        ]
      }
    },
    {
      "id": "316",
      "type": "Feature",
      "properties": {
        "id": null,
        "SOURCE_FILE": "/Users/maples/GitHub/mortalitree_testing/labels/snick_mortalitree_prefire_labels.geojson",
        "SUNETID": "snick",
        "FIRENAME": "SCU LIGHTNING COMPLEX",
        "FIRE_SLUG": "SCU_LIGHTNING_COMPLEX",
        "PREFIRE": 1,
        "PREFIRE_STATUS": "prefire",
        "TILE_Z": 17,
        "TILE_X": 21222,
        "TILE_Y": 50780,
        "TILEXYZ": [
          17,
          21222,
          50780
        ],
        "OUTPUT_FILE": "/Users/maples/GitHub/mortalitree_testing/notebooks/single_tiles/prefire/17/21222/50780.geojson",
        "OUTPUT_STATUS_DIR": "prefire",
        "FEATURE_COUNT": 3
      },
      "geometry": {
        "type": "Polygon",
        "coordinates": [
          [
            [
              -121.70998753722697,
              37.51629522145964
            ],
            [
              -121.70972225299568,
              37.51629232332344
            ],
            [
              -121.70972277972017,
              37.516261735288765
            ],
            [
              -121.70998811373869,
              37.516261735288765
            ],
            [
              -121.70998753722697,
              37.51629522145964
            ]
          ]
        ]
      }
    }
  ],
  "properties": {
    "SOURCE_FILE": "/Users/maples/GitHub/mortalitree_testing/labels/snick_mortalitree_prefire_labels.geojson",
    "SUNETID": "snick",
    "FIRENAME": "SCU LIGHTNING COMPLEX",
    "FIRE_SLUG": "SCU_LIGHTNING_COMPLEX",
    "PREFIRE": 1,
    "PREFIRE_STATUS": "prefire",
    "TILE_Z": 17,
    "TILE_X": 21222,
    "TILE_Y": 50780,
    "TILEXYZ": [
      17,
      21222,
      50780
    ],
    "OUTPUT_FILE": "/Users/maples/GitHub/mortalitree_testing/notebooks/single_tiles/prefire/17/21222/50780.geojson",
    "OUTPUT_STATUS_DIR": "prefire",
    "FEATURE_COUNT": 3
  }
}