{
  "type": "FeatureCollection",
  "features": [
    {
      "id": "2977",
      "type": "Feature",
      "properties": {
        "id": null,
        "SOURCE_FILE": "/Users/maples/GitHub/mortalitree_testing/labels/annayu_mortalitree_prefire_labels.geojson",
        "SUNETID": "annayu",
        "FIRENAME": "CASTLE",
        "FIRE_SLUG": "CASTLE",
        "PREFIRE": 1,
        "PREFIRE_STATUS": "prefire",
        "TILE_Z": 17,
        "TILE_X": 22446,
        "TILE_Y": 51374,
        "TILEXYZ": [
          17,
          22446,
          51374
        ],
        "OUTPUT_FILE": "/Users/maples/GitHub/mortalitree_testing/notebooks/single_tiles/prefire/17/22446/51374.geojson",
        "OUTPUT_STATUS_DIR": "prefire",
        "FEATURE_COUNT": 2
      },
      "geometry": {
        "type": "Polygon",
        "coordinates": [
          [
            [
              -118.34867601067018,
              36.213255233061844
            ],
            [
              -118.3485849742167,
              36.213255233061844
            ],
            [
              -118.34858617581246,
              36.2132349759876
            ],
            [
              -118.34867700238595,
              36.213238513918434
            ],
            [
              -118.34867601067018,
              36.213255233061844
            ]
          ]
        ]
      }
    },
    {
      "id": "2979",
      "type": "Feature",
      "properties": {
        "id": null,
        "SOURCE_FILE": "/Users/maples/GitHub/mortalitree_testing/labels/annayu_mortalitree_prefire_labels.geojson",
        "SUNETID": "annayu",
        "FIRENAME": "CASTLE",
        "FIRE_SLUG": "CASTLE",
        "PREFIRE": 1,
        "PREFIRE_STATUS": "prefire",
        "TILE_Z": 17,
        "TILE_X": 22446,
        "TILE_Y": 51374,
        "TILEXYZ": [
          17,
          22446,
          51374
        ],
        "OUTPUT_FILE": "/Users/maples/GitHub/mortalitree_testing/notebooks/single_tiles/prefire/17/22446/51374.geojson",
        "OUTPUT_STATUS_DIR": "prefire",
        "FEATURE_COUNT": 2
      },
      "geometry": {
        "type": "Polygon",
        "coordinates": [
          [
            [
              -118.34848263156238,
              36.213253996522894
            ],
            [
              -118.34851437559695,
              36.213255233061844
            ],
            [
              -118.34848255821247,
              36.213255233061844
            ],
            [
              -118.34848263156238,
              36.213253996522894
            ]
          ]
        ]
      }
    }
  ],
  "properties": {
    "SOURCE_FILE": "/Users/maples/GitHub/mortalitree_testing/labels/annayu_mortalitree_prefire_labels.geojson",
    "SUNETID": "annayu",
    "FIRENAME": "CASTLE",
    "FIRE_SLUG": "CASTLE",
    "PREFIRE": 1,
    "PREFIRE_STATUS": "prefire",
    "TILE_Z": 17,
    "TILE_X": 22446,
    "TILE_Y": 51374,
    "TILEXYZ": [
      17,
      22446,
      51374
    ],
    "OUTPUT_FILE": "/Users/maples/GitHub/mortalitree_testing/notebooks/single_tiles/prefire/17/22446/51374.geojson",
    "OUTPUT_STATUS_DIR": "prefire",
    "FEATURE_COUNT": 2
  }
}