{
  "type": "FeatureCollection",
  "features": [
    {
      "id": "380",
      "type": "Feature",
      "properties": {
        "id": null,
        "SOURCE_FILE": "/Users/maples/GitHub/mortalitree_testing/labels/annayu_mortalitree_prefire_labels.geojson",
        "SUNETID": "annayu",
        "FIRENAME": "CASTLE",
        "FIRE_SLUG": "CASTLE",
        "PREFIRE": 1,
        "PREFIRE_STATUS": "prefire",
        "TILE_Z": 17,
        "TILE_X": 22331,
        "TILE_Y": 51335,
        "TILEXYZ": [
          17,
          22331,
          51335
        ],
        "OUTPUT_FILE": "/Users/maples/GitHub/mortalitree_testing/notebooks/single_tiles/prefire/17/22331/51335.geojson",
        "OUTPUT_STATUS_DIR": "prefire",
        "FEATURE_COUNT": 2
      },
      "geometry": {
        "type": "Polygon",
        "coordinates": [
          [
            [
              -118.66552231045542,
              36.297450054479086
            ],
            [
              -118.66538644150928,
              36.29744511943992
            ],
            [
              -118.66538793445521,
              36.2974181865081
            ],
            [
              -118.6655240769051,
              36.2974181865081
            ],
            [
              -118.66552231045542,
              36.297450054479086
            ]
          ]
        ]
      }
    },
    {
      "id": "2235",
      "type": "Feature",
      "properties": {
        "id": null,
        "SOURCE_FILE": "/Users/maples/GitHub/mortalitree_testing/labels/annayu_mortalitree_prefire_labels.geojson",
        "SUNETID": "annayu",
        "FIRENAME": "CASTLE",
        "FIRE_SLUG": "CASTLE",
        "PREFIRE": 1,
        "PREFIRE_STATUS": "prefire",
        "TILE_Z": 17,
        "TILE_X": 22331,
        "TILE_Y": 51335,
        "TILEXYZ": [
          17,
          22331,
          51335
        ],
        "OUTPUT_FILE": "/Users/maples/GitHub/mortalitree_testing/notebooks/single_tiles/prefire/17/22331/51335.geojson",
        "OUTPUT_STATUS_DIR": "prefire",
        "FEATURE_COUNT": 2
      },
      "geometry": {
        "type": "Polygon",
        "coordinates": [
          [
            [
              -118.66353707958955,
              36.297446809491376
            ],
            [
              -118.66340121100696,
              36.297441872196615
            ],
            [
              -118.66340252455642,
              36.2974181865081
            ],
            [
              -118.66353866689948,
              36.2974181865081
            ],
            [
              -118.66353707958955,
              36.297446809491376
            ]
          ]
        ]
      }
    }
  ],
  "properties": {
    "SOURCE_FILE": "/Users/maples/GitHub/mortalitree_testing/labels/annayu_mortalitree_prefire_labels.geojson",
    "SUNETID": "annayu",
    "FIRENAME": "CASTLE",
    "FIRE_SLUG": "CASTLE",
    "PREFIRE": 1,
    "PREFIRE_STATUS": "prefire",
    "TILE_Z": 17,
    "TILE_X": 22331,
    "TILE_Y": 51335,
    "TILEXYZ": [
      17,
      22331,
      51335
    ],
    "OUTPUT_FILE": "/Users/maples/GitHub/mortalitree_testing/notebooks/single_tiles/prefire/17/22331/51335.geojson",
    "OUTPUT_STATUS_DIR": "prefire",
    "FEATURE_COUNT": 2
  }
}