{
  "type": "FeatureCollection",
  "features": [
    {
      "id": "696",
      "type": "Feature",
      "properties": {
        "id": null,
        "SOURCE_FILE": "/Users/maples/GitHub/mortalitree_testing/labels/annayu_mortalitree_prefire_labels.geojson",
        "SUNETID": "annayu",
        "FIRENAME": "CASTLE",
        "FIRE_SLUG": "CASTLE",
        "PREFIRE": 1,
        "PREFIRE_STATUS": "prefire",
        "TILE_Z": 17,
        "TILE_X": 22371,
        "TILE_Y": 51404,
        "TILEXYZ": [
          17,
          22371,
          51404
        ],
        "OUTPUT_FILE": "/Users/maples/GitHub/mortalitree_testing/notebooks/single_tiles/prefire/17/22371/51404.geojson",
        "OUTPUT_STATUS_DIR": "prefire",
        "FEATURE_COUNT": 1
      },
      "geometry": {
        "type": "Polygon",
        "coordinates": [
          [
            [
              -118.55620978283069,
              36.1467142816901
            ],
            [
              -118.55621337890625,
              36.146714415390576
            ],
            [
              -118.55621337890625,
              36.146746777814364
            ],
            [
              -118.55620794613952,
              36.146746777814364
            ],
            [
              -118.55620978283069,
              36.1467142816901
            ]
          ]
        ]
      }
    }
  ],
  "properties": {
    "SOURCE_FILE": "/Users/maples/GitHub/mortalitree_testing/labels/annayu_mortalitree_prefire_labels.geojson",
    "SUNETID": "annayu",
    "FIRENAME": "CASTLE",
    "FIRE_SLUG": "CASTLE",
    "PREFIRE": 1,
    "PREFIRE_STATUS": "prefire",
    "TILE_Z": 17,
    "TILE_X": 22371,
    "TILE_Y": 51404,
    "TILEXYZ": [
      17,
      22371,
      51404
    ],
    "OUTPUT_FILE": "/Users/maples/GitHub/mortalitree_testing/notebooks/single_tiles/prefire/17/22371/51404.geojson",
    "OUTPUT_STATUS_DIR": "prefire",
    "FEATURE_COUNT": 1
  }
}