{
  "type": "FeatureCollection",
  "features": [
    {
      "id": "1744",
      "type": "Feature",
      "properties": {
        "id": null,
        "SOURCE_FILE": "/Users/maples/GitHub/mortalitree_testing/labels/annayu_mortalitree_prefire_labels.geojson",
        "SUNETID": "annayu",
        "FIRENAME": "CASTLE",
        "FIRE_SLUG": "CASTLE",
        "PREFIRE": 1,
        "PREFIRE_STATUS": "prefire",
        "TILE_Z": 17,
        "TILE_X": 22311,
        "TILE_Y": 51345,
        "TILEXYZ": [
          17,
          22311,
          51345
        ],
        "OUTPUT_FILE": "/Users/maples/GitHub/mortalitree_testing/notebooks/single_tiles/prefire/17/22311/51345.geojson",
        "OUTPUT_STATUS_DIR": "prefire",
        "FEATURE_COUNT": 1
      },
      "geometry": {
        "type": "Polygon",
        "coordinates": [
          [
            [
              -118.71831876595947,
              36.27749304994347
            ],
            [
              -118.71826171875,
              36.27749304994347
            ],
            [
              -118.71826171875,
              36.27744032245787
            ],
            [
              -118.71832153343128,
              36.27744246802328
            ],
            [
              -118.71831876595947,
              36.27749304994347
            ]
          ]
        ]
      }
    }
  ],
  "properties": {
    "SOURCE_FILE": "/Users/maples/GitHub/mortalitree_testing/labels/annayu_mortalitree_prefire_labels.geojson",
    "SUNETID": "annayu",
    "FIRENAME": "CASTLE",
    "FIRE_SLUG": "CASTLE",
    "PREFIRE": 1,
    "PREFIRE_STATUS": "prefire",
    "TILE_Z": 17,
    "TILE_X": 22311,
    "TILE_Y": 51345,
    "TILEXYZ": [
      17,
      22311,
      51345
    ],
    "OUTPUT_FILE": "/Users/maples/GitHub/mortalitree_testing/notebooks/single_tiles/prefire/17/22311/51345.geojson",
    "OUTPUT_STATUS_DIR": "prefire",
    "FEATURE_COUNT": 1
  }
}