{
  "type": "FeatureCollection",
  "features": [
    {
      "id": "2077",
      "type": "Feature",
      "properties": {
        "id": null,
        "SOURCE_FILE": "/Users/maples/GitHub/mortalitree_testing/labels/annayu_mortalitree_prefire_labels.geojson",
        "SUNETID": "annayu",
        "FIRENAME": "CASTLE",
        "FIRE_SLUG": "CASTLE",
        "PREFIRE": 1,
        "PREFIRE_STATUS": "prefire",
        "TILE_Z": 17,
        "TILE_X": 22331,
        "TILE_Y": 51337,
        "TILEXYZ": [
          17,
          22331,
          51337
        ],
        "OUTPUT_FILE": "/Users/maples/GitHub/mortalitree_testing/notebooks/single_tiles/prefire/17/22331/51337.geojson",
        "OUTPUT_STATUS_DIR": "prefire",
        "FEATURE_COUNT": 2
      },
      "geometry": {
        "type": "Polygon",
        "coordinates": [
          [
            [
              -118.66455766526632,
              36.295204533693536
            ],
            [
              -118.66446690624984,
              36.295204533693536
            ],
            [
              -118.66446724382634,
              36.295198444598505
            ],
            [
              -118.66455782041223,
              36.295201735163644
            ],
            [
              -118.66455766526632,
              36.295204533693536
            ]
          ]
        ]
      }
    },
    {
      "id": "2083",
      "type": "Feature",
      "properties": {
        "id": null,
        "SOURCE_FILE": "/Users/maples/GitHub/mortalitree_testing/labels/annayu_mortalitree_prefire_labels.geojson",
        "SUNETID": "annayu",
        "FIRENAME": "CASTLE",
        "FIRE_SLUG": "CASTLE",
        "PREFIRE": 1,
        "PREFIRE_STATUS": "prefire",
        "TILE_Z": 17,
        "TILE_X": 22331,
        "TILE_Y": 51337,
        "TILEXYZ": [
          17,
          22331,
          51337
        ],
        "OUTPUT_FILE": "/Users/maples/GitHub/mortalitree_testing/notebooks/single_tiles/prefire/17/22331/51337.geojson",
        "OUTPUT_STATUS_DIR": "prefire",
        "FEATURE_COUNT": 2
      },
      "geometry": {
        "type": "Polygon",
        "coordinates": [
          [
            [
              -118.66497175331769,
              36.295204533693536
            ],
            [
              -118.66488099428666,
              36.295204533693536
            ],
            [
              -118.66488278593194,
              36.29517221341626
            ],
            [
              -118.66497336253748,
              36.29517550366456
            ],
            [
              -118.66497175331769,
              36.295204533693536
            ]
          ]
        ]
      }
    }
  ],
  "properties": {
    "SOURCE_FILE": "/Users/maples/GitHub/mortalitree_testing/labels/annayu_mortalitree_prefire_labels.geojson",
    "SUNETID": "annayu",
    "FIRENAME": "CASTLE",
    "FIRE_SLUG": "CASTLE",
    "PREFIRE": 1,
    "PREFIRE_STATUS": "prefire",
    "TILE_Z": 17,
    "TILE_X": 22331,
    "TILE_Y": 51337,
    "TILEXYZ": [
      17,
      22331,
      51337
    ],
    "OUTPUT_FILE": "/Users/maples/GitHub/mortalitree_testing/notebooks/single_tiles/prefire/17/22331/51337.geojson",
    "OUTPUT_STATUS_DIR": "prefire",
    "FEATURE_COUNT": 2
  }
}