{
  "type": "FeatureCollection",
  "features": [
    {
      "id": "1374",
      "type": "Feature",
      "properties": {
        "id": null,
        "SOURCE_FILE": "/Users/maples/GitHub/mortalitree_testing/labels/gwynethb_mortalitree_prefire_labels.geojson",
        "SUNETID": "gwynethb",
        "FIRENAME": "CREEK",
        "FIRE_SLUG": "CREEK",
        "PREFIRE": 1,
        "PREFIRE_STATUS": "prefire",
        "TILE_Z": 17,
        "TILE_X": 22058,
        "TILE_Y": 50853,
        "TILEXYZ": [
          17,
          22058,
          50853
        ],
        "OUTPUT_FILE": "/Users/maples/GitHub/mortalitree_testing/notebooks/single_tiles/prefire/17/22058/50853.geojson",
        "OUTPUT_STATUS_DIR": "prefire",
        "FEATURE_COUNT": 2
      },
      "geometry": {
        "type": "Polygon",
        "coordinates": [
          [
            [
              -119.41361530712209,
              37.357083641798276
            ],
            [
              -119.41348306304819,
              37.35707962700122
            ],
            [
              -119.41348403247949,
              37.357059279793674
            ],
            [
              -119.4136164677934,
              37.357059279793674
            ],
            [
              -119.41361530712209,
              37.357083641798276
            ]
          ]
        ]
      }
    },
    {
      "id": "1401",
      "type": "Feature",
      "properties": {
        "id": null,
        "SOURCE_FILE": "/Users/maples/GitHub/mortalitree_testing/labels/gwynethb_mortalitree_prefire_labels.geojson",
        "SUNETID": "gwynethb",
        "FIRENAME": "CREEK",
        "FIRE_SLUG": "CREEK",
        "PREFIRE": 1,
        "PREFIRE_STATUS": "prefire",
        "TILE_Z": 17,
        "TILE_X": 22058,
        "TILE_Y": 50853,
        "TILEXYZ": [
          17,
          22058,
          50853
        ],
        "OUTPUT_FILE": "/Users/maples/GitHub/mortalitree_testing/notebooks/single_tiles/prefire/17/22058/50853.geojson",
        "OUTPUT_STATUS_DIR": "prefire",
        "FEATURE_COUNT": 2
      },
      "geometry": {
        "type": "Polygon",
        "coordinates": [
          [
            [
              -119.41550630630542,
              37.35710327830046
            ],
            [
              -119.41538035927378,
              37.35709945669928
            ],
            [
              -119.4153822724646,
              37.357059279793674
            ],
            [
              -119.41550840140418,
              37.357059279793674
            ],
            [
              -119.41550630630542,
              37.35710327830046
            ]
          ]
        ]
      }
    }
  ],
  "properties": {
    "SOURCE_FILE": "/Users/maples/GitHub/mortalitree_testing/labels/gwynethb_mortalitree_prefire_labels.geojson",
    "SUNETID": "gwynethb",
    "FIRENAME": "CREEK",
    "FIRE_SLUG": "CREEK",
    "PREFIRE": 1,
    "PREFIRE_STATUS": "prefire",
    "TILE_Z": 17,
    "TILE_X": 22058,
    "TILE_Y": 50853,
    "TILEXYZ": [
      17,
      22058,
      50853
    ],
    "OUTPUT_FILE": "/Users/maples/GitHub/mortalitree_testing/notebooks/single_tiles/prefire/17/22058/50853.geojson",
    "OUTPUT_STATUS_DIR": "prefire",
    "FEATURE_COUNT": 2
  }
}