{
  "type": "FeatureCollection",
  "features": [
    {
      "id": "272",
      "type": "Feature",
      "properties": {
        "id": null,
        "SOURCE_FILE": "/Users/maples/GitHub/mortalitree_testing/labels/snick_mortalitree_prefire_labels.geojson",
        "SUNETID": "snick",
        "FIRENAME": "SCU LIGHTNING COMPLEX",
        "FIRE_SLUG": "SCU_LIGHTNING_COMPLEX",
        "PREFIRE": 1,
        "PREFIRE_STATUS": "prefire",
        "TILE_Z": 17,
        "TILE_X": 21228,
        "TILE_Y": 50845,
        "TILEXYZ": [
          17,
          21228,
          50845
        ],
        "OUTPUT_FILE": "/Users/maples/GitHub/mortalitree_testing/notebooks/single_tiles/prefire/17/21228/50845.geojson",
        "OUTPUT_STATUS_DIR": "prefire",
        "FEATURE_COUNT": 4
      },
      "geometry": {
        "type": "Polygon",
        "coordinates": [
          [
            [
              -121.69400954535045,
              37.374526513271654
            ],
            [
              -121.693714752791,
              37.37452325713307
            ],
            [
              -121.69371476342397,
              37.37452264407724
            ],
            [
              -121.69400961244348,
              37.37452264407724
            ],
            [
              -121.69400954535045,
              37.374526513271654
            ]
          ]
        ]
      }
    },
    {
      "id": "399",
      "type": "Feature",
      "properties": {
        "id": null,
        "SOURCE_FILE": "/Users/maples/GitHub/mortalitree_testing/labels/snick_mortalitree_prefire_labels.geojson",
        "SUNETID": "snick",
        "FIRENAME": "SCU LIGHTNING COMPLEX",
        "FIRE_SLUG": "SCU_LIGHTNING_COMPLEX",
        "PREFIRE": 1,
        "PREFIRE_STATUS": "prefire",
        "TILE_Z": 17,
        "TILE_X": 21228,
        "TILE_Y": 50845,
        "TILEXYZ": [
          17,
          21228,
          50845
        ],
        "OUTPUT_FILE": "/Users/maples/GitHub/mortalitree_testing/notebooks/single_tiles/prefire/17/21228/50845.geojson",
        "OUTPUT_STATUS_DIR": "prefire",
        "FEATURE_COUNT": 4
      },
      "geometry": {
        "type": "Polygon",
        "coordinates": [
          [
            [
              -121.69554165246528,
              37.37459048621913
            ],
            [
              -121.69527633877223,
              37.374587559160155
            ],
            [
              -121.6952774633305,
              37.37452264407724
            ],
            [
              -121.6955428274916,
              37.37452264407724
            ],
            [
              -121.69554165246528,
              37.37459048621913
            ]
          ]
        ]
      }
    },
    {
      "id": "435",
      "type": "Feature",
      "properties": {
        "id": null,
        "SOURCE_FILE": "/Users/maples/GitHub/mortalitree_testing/labels/snick_mortalitree_prefire_labels.geojson",
        "SUNETID": "snick",
        "FIRENAME": "SCU LIGHTNING COMPLEX",
        "FIRE_SLUG": "SCU_LIGHTNING_COMPLEX",
        "PREFIRE": 1,
        "PREFIRE_STATUS": "prefire",
        "TILE_Z": 17,
        "TILE_X": 21228,
        "TILE_Y": 50845,
        "TILEXYZ": [
          17,
          21228,
          50845
        ],
        "OUTPUT_FILE": "/Users/maples/GitHub/mortalitree_testing/notebooks/single_tiles/prefire/17/21228/50845.geojson",
        "OUTPUT_STATUS_DIR": "prefire",
        "FEATURE_COUNT": 4
      },
      "geometry": {
        "type": "Polygon",
        "coordinates": [
          [
            [
              -121.69306549488603,
              37.374557262261405
            ],
            [
              -121.69288861933912,
              37.374555307253196
            ],
            [
              -121.69288918621578,
              37.37452264407724
            ],
            [
              -121.69306609561102,
              37.37452264407724
            ],
            [
              -121.69306549488603,
              37.374557262261405
            ]
          ]
        ]
      }
    },
    {
      "id": "441",
      "type": "Feature",
      "properties": {
        "id": null,
        "SOURCE_FILE": "/Users/maples/GitHub/mortalitree_testing/labels/snick_mortalitree_prefire_labels.geojson",
        "SUNETID": "snick",
        "FIRENAME": "SCU LIGHTNING COMPLEX",
        "FIRE_SLUG": "SCU_LIGHTNING_COMPLEX",
        "PREFIRE": 1,
        "PREFIRE_STATUS": "prefire",
        "TILE_Z": 17,
        "TILE_X": 21228,
        "TILE_Y": 50845,
        "TILEXYZ": [
          17,
          21228,
          50845
        ],
        "OUTPUT_FILE": "/Users/maples/GitHub/mortalitree_testing/notebooks/single_tiles/prefire/17/21228/50845.geojson",
        "OUTPUT_STATUS_DIR": "prefire",
        "FEATURE_COUNT": 4
      },
      "geometry": {
        "type": "Polygon",
        "coordinates": [
          [
            [
              -121.69328658934369,
              37.374559705649794
            ],
            [
              -121.6930802345157,
              37.37455742516682
            ],
            [
              -121.69308083806058,
              37.37452264407724
            ],
            [
              -121.69328723235951,
              37.37452264407724
            ],
            [
              -121.69328658934369,
              37.374559705649794
            ]
          ]
        ]
      }
    }
  ],
  "properties": {
    "SOURCE_FILE": "/Users/maples/GitHub/mortalitree_testing/labels/snick_mortalitree_prefire_labels.geojson",
    "SUNETID": "snick",
    "FIRENAME": "SCU LIGHTNING COMPLEX",
    "FIRE_SLUG": "SCU_LIGHTNING_COMPLEX",
    "PREFIRE": 1,
    "PREFIRE_STATUS": "prefire",
    "TILE_Z": 17,
    "TILE_X": 21228,
    "TILE_Y": 50845,
    "TILEXYZ": [
      17,
      21228,
      50845
    ],
    "OUTPUT_FILE": "/Users/maples/GitHub/mortalitree_testing/notebooks/single_tiles/prefire/17/21228/50845.geojson",
    "OUTPUT_STATUS_DIR": "prefire",
    "FEATURE_COUNT": 4
  }
}