{
  "type": "FeatureCollection",
  "features": [
    {
      "id": "44",
      "type": "Feature",
      "properties": {
        "id": null,
        "tree_id": 46.0,
        "SOURCE_FILE": "/Users/maples/GitHub/mortalitree_testing/labels/aiong05_prefire_labels.geojson",
        "SUNETID": "aiong05",
        "FIRENAME": "CASTLE",
        "FIRE_SLUG": "CASTLE",
        "PREFIRE": 1,
        "PREFIRE_STATUS": "prefire",
        "TILE_Z": 17,
        "TILE_X": 22326,
        "TILE_Y": 51361,
        "TILEXYZ": [
          17,
          22326,
          51361
        ],
        "OUTPUT_FILE": "/Users/maples/GitHub/mortalitree_testing/notebooks/single_tiles/prefire/17/22326/51361.geojson",
        "OUTPUT_STATUS_DIR": "prefire",
        "FEATURE_COUNT": 1
      },
      "geometry": {
        "type": "Polygon",
        "coordinates": [
          [
            [
              -118.67708692638652,
              36.23985152595627
            ],
            [
              -118.67706298828125,
              36.23985563921747
            ],
            [
              -118.67706298828125,
              36.23985209390106
            ],
            [
              -118.67708692638652,
              36.23985152595627
            ]
          ]
        ]
      }
    }
  ],
  "properties": {
    "SOURCE_FILE": "/Users/maples/GitHub/mortalitree_testing/labels/aiong05_prefire_labels.geojson",
    "SUNETID": "aiong05",
    "FIRENAME": "CASTLE",
    "FIRE_SLUG": "CASTLE",
    "PREFIRE": 1,
    "PREFIRE_STATUS": "prefire",
    "TILE_Z": 17,
    "TILE_X": 22326,
    "TILE_Y": 51361,
    "TILEXYZ": [
      17,
      22326,
      51361
    ],
    "OUTPUT_FILE": "/Users/maples/GitHub/mortalitree_testing/notebooks/single_tiles/prefire/17/22326/51361.geojson",
    "OUTPUT_STATUS_DIR": "prefire",
    "FEATURE_COUNT": 1
  }
}