{
  "type": "FeatureCollection",
  "features": [
    {
      "id": "790",
      "type": "Feature",
      "properties": {
        "zxy_val": null,
        "z_val": null,
        "x_val": null,
        "y_val": null,
        "url_suffix": null,
        "upper_left": null,
        "lower_righ": null,
        "centroid": null,
        "SOURCE_FILE": "/Users/maples/GitHub/mortalitree_testing/labels/jjackie_mortalitree_prefire_lables.geojson",
        "SUNETID": "jjackie",
        "FIRENAME": "CZU AUG LIGHTNING",
        "FIRE_SLUG": "CZU_AUG_LIGHTNING",
        "PREFIRE": 1,
        "PREFIRE_STATUS": "prefire",
        "TILE_Z": 17,
        "TILE_X": 21015,
        "TILE_Y": 50918,
        "TILEXYZ": [
          17,
          21015,
          50918
        ],
        "OUTPUT_FILE": "/Users/maples/GitHub/mortalitree_testing/notebooks/single_tiles/prefire/17/21015/50918.geojson",
        "OUTPUT_STATUS_DIR": "prefire",
        "FEATURE_COUNT": 4
      },
      "geometry": {
        "type": "Polygon",
        "coordinates": [
          [
            [
              -122.278492322532,
              37.217206113254974
            ],
            [
              -122.27832697729497,
              37.217206113254974
            ],
            [
              -122.27832707690503,
              37.21719565696923
            ],
            [
              -122.27849241252572,
              37.21719666425367
            ],
            [
              -122.278492322532,
              37.217206113254974
            ]
          ]
        ]
      }
    },
    {
      "id": "800",
      "type": "Feature",
      "properties": {
        "zxy_val": null,
        "z_val": null,
        "x_val": null,
        "y_val": null,
        "url_suffix": null,
        "upper_left": null,
        "lower_righ": null,
        "centroid": null,
        "SOURCE_FILE": "/Users/maples/GitHub/mortalitree_testing/labels/jjackie_mortalitree_prefire_lables.geojson",
        "SUNETID": "jjackie",
        "FIRENAME": "CZU AUG LIGHTNING",
        "FIRE_SLUG": "CZU_AUG_LIGHTNING",
        "PREFIRE": 1,
        "PREFIRE_STATUS": "prefire",
        "TILE_Z": 17,
        "TILE_X": 21015,
        "TILE_Y": 50918,
        "TILEXYZ": [
          17,
          21015,
          50918
        ],
        "OUTPUT_FILE": "/Users/maples/GitHub/mortalitree_testing/notebooks/single_tiles/prefire/17/21015/50918.geojson",
        "OUTPUT_STATUS_DIR": "prefire",
        "FEATURE_COUNT": 4
      },
      "geometry": {
        "type": "Polygon",
        "coordinates": [
          [
            [
              -122.27834642967574,
              37.217206113254974
            ],
            [
              -122.27815676896444,
              37.217206113254974
            ],
            [
              -122.27815684142357,
              37.21719850886151
            ],
            [
              -122.27834649110684,
              37.2171996645292
            ],
            [
              -122.27834642967574,
              37.217206113254974
            ]
          ]
        ]
      }
    },
    {
      "id": "801",
      "type": "Feature",
      "properties": {
        "zxy_val": null,
        "z_val": null,
        "x_val": null,
        "y_val": null,
        "url_suffix": null,
        "upper_left": null,
        "lower_righ": null,
        "centroid": null,
        "SOURCE_FILE": "/Users/maples/GitHub/mortalitree_testing/labels/jjackie_mortalitree_prefire_lables.geojson",
        "SUNETID": "jjackie",
        "FIRENAME": "CZU AUG LIGHTNING",
        "FIRE_SLUG": "CZU_AUG_LIGHTNING",
        "PREFIRE": 1,
        "PREFIRE_STATUS": "prefire",
        "TILE_Z": 17,
        "TILE_X": 21015,
        "TILE_Y": 50918,
        "TILEXYZ": [
          17,
          21015,
          50918
        ],
        "OUTPUT_FILE": "/Users/maples/GitHub/mortalitree_testing/notebooks/single_tiles/prefire/17/21015/50918.geojson",
        "OUTPUT_STATUS_DIR": "prefire",
        "FEATURE_COUNT": 4
      },
      "geometry": {
        "type": "Polygon",
        "coordinates": [
          [
            [
              -122.27930689100293,
              37.217206113254974
            ],
            [
              -122.27911236718539,
              37.217206113254974
            ],
            [
              -122.27911243968049,
              37.217198494992815
            ],
            [
              -122.27930695221721,
              37.21719967871974
            ],
            [
              -122.27930689100293,
              37.217206113254974
            ]
          ]
        ]
      }
    },
    {
      "id": "809",
      "type": "Feature",
      "properties": {
        "zxy_val": null,
        "z_val": null,
        "x_val": null,
        "y_val": null,
        "url_suffix": null,
        "upper_left": null,
        "lower_righ": null,
        "centroid": null,
        "SOURCE_FILE": "/Users/maples/GitHub/mortalitree_testing/labels/jjackie_mortalitree_prefire_lables.geojson",
        "SUNETID": "jjackie",
        "FIRENAME": "CZU AUG LIGHTNING",
        "FIRE_SLUG": "CZU_AUG_LIGHTNING",
        "PREFIRE": 1,
        "PREFIRE_STATUS": "prefire",
        "TILE_Z": 17,
        "TILE_X": 21015,
        "TILE_Y": 50918,
        "TILEXYZ": [
          17,
          21015,
          50918
        ],
        "OUTPUT_FILE": "/Users/maples/GitHub/mortalitree_testing/notebooks/single_tiles/prefire/17/21015/50918.geojson",
        "OUTPUT_STATUS_DIR": "prefire",
        "FEATURE_COUNT": 4
      },
      "geometry": {
        "type": "Polygon",
        "coordinates": [
          [
            [
              -122.27864064693719,
              37.217206113254974
            ],
            [
              -122.27850448027009,
              37.217206113254974
            ],
            [
              -122.27850460659612,
              37.21719284926556
            ],
            [
              -122.27864076534223,
              37.21719367860654
            ],
            [
              -122.27864064693719,
              37.217206113254974
            ]
          ]
        ]
      }
    }
  ],
  "properties": {
    "SOURCE_FILE": "/Users/maples/GitHub/mortalitree_testing/labels/jjackie_mortalitree_prefire_lables.geojson",
    "SUNETID": "jjackie",
    "FIRENAME": "CZU AUG LIGHTNING",
    "FIRE_SLUG": "CZU_AUG_LIGHTNING",
    "PREFIRE": 1,
    "PREFIRE_STATUS": "prefire",
    "TILE_Z": 17,
    "TILE_X": 21015,
    "TILE_Y": 50918,
    "TILEXYZ": [
      17,
      21015,
      50918
    ],
    "OUTPUT_FILE": "/Users/maples/GitHub/mortalitree_testing/notebooks/single_tiles/prefire/17/21015/50918.geojson",
    "OUTPUT_STATUS_DIR": "prefire",
    "FEATURE_COUNT": 4
  }
}