{
  "type": "FeatureCollection",
  "features": [
    {
      "id": "3172",
      "type": "Feature",
      "properties": {
        "id": null,
        "SOURCE_FILE": "/Users/maples/GitHub/mortalitree_testing/labels/annayu_mortalitree_prefire_labels.geojson",
        "SUNETID": "annayu",
        "FIRENAME": "CASTLE",
        "FIRE_SLUG": "CASTLE",
        "PREFIRE": 1,
        "PREFIRE_STATUS": "prefire",
        "TILE_Z": 17,
        "TILE_X": 22370,
        "TILE_Y": 51402,
        "TILEXYZ": [
          17,
          22370,
          51402
        ],
        "OUTPUT_FILE": "/Users/maples/GitHub/mortalitree_testing/notebooks/single_tiles/prefire/17/22370/51402.geojson",
        "OUTPUT_STATUS_DIR": "prefire",
        "FEATURE_COUNT": 2
      },
      "geometry": {
        "type": "Polygon",
        "coordinates": [
          [
            [
              -118.55842499828469,
              36.14897675299751
            ],
            [
              -118.55834646860684,
              36.14897383463899
            ],
            [
              -118.55834698831377,
              36.14896463588831
            ],
            [
              -118.55842568285968,
              36.14896463588831
            ],
            [
              -118.55842499828469,
              36.14897675299751
            ]
          ]
        ]
      }
    },
    {
      "id": "3210",
      "type": "Feature",
      "properties": {
        "id": null,
        "SOURCE_FILE": "/Users/maples/GitHub/mortalitree_testing/labels/annayu_mortalitree_prefire_labels.geojson",
        "SUNETID": "annayu",
        "FIRENAME": "CASTLE",
        "FIRE_SLUG": "CASTLE",
        "PREFIRE": 1,
        "PREFIRE_STATUS": "prefire",
        "TILE_Z": 17,
        "TILE_X": 22370,
        "TILE_Y": 51402,
        "TILEXYZ": [
          17,
          22370,
          51402
        ],
        "OUTPUT_FILE": "/Users/maples/GitHub/mortalitree_testing/notebooks/single_tiles/prefire/17/22370/51402.geojson",
        "OUTPUT_STATUS_DIR": "prefire",
        "FEATURE_COUNT": 2
      },
      "geometry": {
        "type": "Polygon",
        "coordinates": [
          [
            [
              -118.55734844371852,
              36.14897445520141
            ],
            [
              -118.55727705320841,
              36.148971801508694
            ],
            [
              -118.55727745814605,
              36.14896463588831
            ],
            [
              -118.55734899861056,
              36.14896463588831
            ],
            [
              -118.55734844371852,
              36.14897445520141
            ]
          ]
        ]
      }
    }
  ],
  "properties": {
    "SOURCE_FILE": "/Users/maples/GitHub/mortalitree_testing/labels/annayu_mortalitree_prefire_labels.geojson",
    "SUNETID": "annayu",
    "FIRENAME": "CASTLE",
    "FIRE_SLUG": "CASTLE",
    "PREFIRE": 1,
    "PREFIRE_STATUS": "prefire",
    "TILE_Z": 17,
    "TILE_X": 22370,
    "TILE_Y": 51402,
    "TILEXYZ": [
      17,
      22370,
      51402
    ],
    "OUTPUT_FILE": "/Users/maples/GitHub/mortalitree_testing/notebooks/single_tiles/prefire/17/22370/51402.geojson",
    "OUTPUT_STATUS_DIR": "prefire",
    "FEATURE_COUNT": 2
  }
}