{
  "type": "FeatureCollection",
  "features": [
    {
      "id": "490",
      "type": "Feature",
      "properties": {
        "id": null,
        "SOURCE_FILE": "/Users/maples/GitHub/mortalitree_testing/labels/annayu_mortalitree_prefire_labels.geojson",
        "SUNETID": "annayu",
        "FIRENAME": "CASTLE",
        "FIRE_SLUG": "CASTLE",
        "PREFIRE": 1,
        "PREFIRE_STATUS": "prefire",
        "TILE_Z": 17,
        "TILE_X": 22368,
        "TILE_Y": 51425,
        "TILEXYZ": [
          17,
          22368,
          51425
        ],
        "OUTPUT_FILE": "/Users/maples/GitHub/mortalitree_testing/notebooks/single_tiles/prefire/17/22368/51425.geojson",
        "OUTPUT_STATUS_DIR": "prefire",
        "FEATURE_COUNT": 11
      },
      "geometry": {
        "type": "Polygon",
        "coordinates": [
          [
            [
              -118.56170707378432,
              36.0986955202714
            ],
            [
              -118.56170654296875,
              36.098695500570514
            ],
            [
              -118.56170654296875,
              36.0986033543414
            ],
            [
              -118.56171225541702,
              36.09860356635484
            ],
            [
              -118.56170707378432,
              36.0986955202714
            ]
          ]
        ]
      }
    },
    {
      "id": "501",
      "type": "Feature",
      "properties": {
        "id": null,
        "SOURCE_FILE": "/Users/maples/GitHub/mortalitree_testing/labels/annayu_mortalitree_prefire_labels.geojson",
        "SUNETID": "annayu",
        "FIRENAME": "CASTLE",
        "FIRE_SLUG": "CASTLE",
        "PREFIRE": 1,
        "PREFIRE_STATUS": "prefire",
        "TILE_Z": 17,
        "TILE_X": 22368,
        "TILE_Y": 51425,
        "TILEXYZ": [
          17,
          22368,
          51425
        ],
        "OUTPUT_FILE": "/Users/maples/GitHub/mortalitree_testing/notebooks/single_tiles/prefire/17/22368/51425.geojson",
        "OUTPUT_STATUS_DIR": "prefire",
        "FEATURE_COUNT": 11
      },
      "geometry": {
        "type": "Polygon",
        "coordinates": [
          [
            [
              -118.56172076961539,
              36.100064399989556
            ],
            [
              -118.56170654296875,
              36.10006387197153
            ],
            [
              -118.56170654296875,
              36.10000858423981
            ],
            [
              -118.56172387874405,
              36.10000922765144
            ],
            [
              -118.56172076961539,
              36.100064399989556
            ]
          ]
        ]
      }
    },
    {
      "id": "502",
      "type": "Feature",
      "properties": {
        "id": null,
        "SOURCE_FILE": "/Users/maples/GitHub/mortalitree_testing/labels/annayu_mortalitree_prefire_labels.geojson",
        "SUNETID": "annayu",
        "FIRENAME": "CASTLE",
        "FIRE_SLUG": "CASTLE",
        "PREFIRE": 1,
        "PREFIRE_STATUS": "prefire",
        "TILE_Z": 17,
        "TILE_X": 22368,
        "TILE_Y": 51425,
        "TILEXYZ": [
          17,
          22368,
          51425
        ],
        "OUTPUT_FILE": "/Users/maples/GitHub/mortalitree_testing/notebooks/single_tiles/prefire/17/22368/51425.geojson",
        "OUTPUT_STATUS_DIR": "prefire",
        "FEATURE_COUNT": 11
      },
      "geometry": {
        "type": "Polygon",
        "coordinates": [
          [
            [
              -118.5617285770968,
              36.099825109587485
            ],
            [
              -118.56170654296875,
              36.09982429180162
            ],
            [
              -118.56170654296875,
              36.099787433313466
            ],
            [
              -118.56173064982836,
              36.09978832802697
            ],
            [
              -118.5617285770968,
              36.099825109587485
            ]
          ]
        ]
      }
    },
    {
      "id": "516",
      "type": "Feature",
      "properties": {
        "id": null,
        "SOURCE_FILE": "/Users/maples/GitHub/mortalitree_testing/labels/annayu_mortalitree_prefire_labels.geojson",
        "SUNETID": "annayu",
        "FIRENAME": "CASTLE",
        "FIRE_SLUG": "CASTLE",
        "PREFIRE": 1,
        "PREFIRE_STATUS": "prefire",
        "TILE_Z": 17,
        "TILE_X": 22368,
        "TILE_Y": 51425,
        "TILEXYZ": [
          17,
          22368,
          51425
        ],
        "OUTPUT_FILE": "/Users/maples/GitHub/mortalitree_testing/notebooks/single_tiles/prefire/17/22368/51425.geojson",
        "OUTPUT_STATUS_DIR": "prefire",
        "FEATURE_COUNT": 11
      },
      "geometry": {
        "type": "Polygon",
        "coordinates": [
          [
            [
              -118.56170654296875,
              36.09991388122426
            ],
            [
              -118.56170654296875,
              36.09987497222605
            ],
            [
              -118.56170873102916,
              36.09987505343525
            ],
            [
              -118.56170654296875,
              36.09991388122426
            ]
          ]
        ]
      }
    },
    {
      "id": "521",
      "type": "Feature",
      "properties": {
        "id": null,
        "SOURCE_FILE": "/Users/maples/GitHub/mortalitree_testing/labels/annayu_mortalitree_prefire_labels.geojson",
        "SUNETID": "annayu",
        "FIRENAME": "CASTLE",
        "FIRE_SLUG": "CASTLE",
        "PREFIRE": 1,
        "PREFIRE_STATUS": "prefire",
        "TILE_Z": 17,
        "TILE_X": 22368,
        "TILE_Y": 51425,
        "TILEXYZ": [
          17,
          22368,
          51425
        ],
        "OUTPUT_FILE": "/Users/maples/GitHub/mortalitree_testing/notebooks/single_tiles/prefire/17/22368/51425.geojson",
        "OUTPUT_STATUS_DIR": "prefire",
        "FEATURE_COUNT": 11
      },
      "geometry": {
        "type": "Polygon",
        "coordinates": [
          [
            [
              -118.56172961371547,
              36.09829552071937
            ],
            [
              -118.56170654296875,
              36.09829466447464
            ],
            [
              -118.56170654296875,
              36.098220947490766
            ],
            [
              -118.5617337589418,
              36.09822195757911
            ],
            [
              -118.56172961371547,
              36.09829552071937
            ]
          ]
        ]
      }
    },
    {
      "id": "522",
      "type": "Feature",
      "properties": {
        "id": null,
        "SOURCE_FILE": "/Users/maples/GitHub/mortalitree_testing/labels/annayu_mortalitree_prefire_labels.geojson",
        "SUNETID": "annayu",
        "FIRENAME": "CASTLE",
        "FIRE_SLUG": "CASTLE",
        "PREFIRE": 1,
        "PREFIRE_STATUS": "prefire",
        "TILE_Z": 17,
        "TILE_X": 22368,
        "TILE_Y": 51425,
        "TILEXYZ": [
          17,
          22368,
          51425
        ],
        "OUTPUT_FILE": "/Users/maples/GitHub/mortalitree_testing/notebooks/single_tiles/prefire/17/22368/51425.geojson",
        "OUTPUT_STATUS_DIR": "prefire",
        "FEATURE_COUNT": 11
      },
      "geometry": {
        "type": "Polygon",
        "coordinates": [
          [
            [
              -118.56173852637188,
              36.09934631848977
            ],
            [
              -118.56170654296875,
              36.09934513145194
            ],
            [
              -118.56170654296875,
              36.09927141447376
            ],
            [
              -118.56174267174936,
              36.09927275536154
            ],
            [
              -118.56173852637188,
              36.09934631848977
            ]
          ]
        ]
      }
    },
    {
      "id": "523",
      "type": "Feature",
      "properties": {
        "id": null,
        "SOURCE_FILE": "/Users/maples/GitHub/mortalitree_testing/labels/annayu_mortalitree_prefire_labels.geojson",
        "SUNETID": "annayu",
        "FIRENAME": "CASTLE",
        "FIRE_SLUG": "CASTLE",
        "PREFIRE": 1,
        "PREFIRE_STATUS": "prefire",
        "TILE_Z": 17,
        "TILE_X": 22368,
        "TILE_Y": 51425,
        "TILEXYZ": [
          17,
          22368,
          51425
        ],
        "OUTPUT_FILE": "/Users/maples/GitHub/mortalitree_testing/notebooks/single_tiles/prefire/17/22368/51425.geojson",
        "OUTPUT_STATUS_DIR": "prefire",
        "FEATURE_COUNT": 11
      },
      "geometry": {
        "type": "Polygon",
        "coordinates": [
          [
            [
              -118.56177744085386,
              36.09926022383892
            ],
            [
              -118.56170654296875,
              36.099257592534144
            ],
            [
              -118.56170654296875,
              36.09918387555609
            ],
            [
              -118.561781586182,
              36.09918666070574
            ],
            [
              -118.56177744085386,
              36.09926022383892
            ]
          ]
        ]
      }
    },
    {
      "id": "524",
      "type": "Feature",
      "properties": {
        "id": null,
        "SOURCE_FILE": "/Users/maples/GitHub/mortalitree_testing/labels/annayu_mortalitree_prefire_labels.geojson",
        "SUNETID": "annayu",
        "FIRENAME": "CASTLE",
        "FIRE_SLUG": "CASTLE",
        "PREFIRE": 1,
        "PREFIRE_STATUS": "prefire",
        "TILE_Z": 17,
        "TILE_X": 22368,
        "TILE_Y": 51425,
        "TILEXYZ": [
          17,
          22368,
          51425
        ],
        "OUTPUT_FILE": "/Users/maples/GitHub/mortalitree_testing/notebooks/single_tiles/prefire/17/22368/51425.geojson",
        "OUTPUT_STATUS_DIR": "prefire",
        "FEATURE_COUNT": 11
      },
      "geometry": {
        "type": "Polygon",
        "coordinates": [
          [
            [
              -118.56172068390921,
              36.099562199907425
            ],
            [
              -118.56170654296875,
              36.09956167507462
            ],
            [
              -118.56170654296875,
              36.09948795809688
            ],
            [
              -118.5617248293361,
              36.09948863678361
            ],
            [
              -118.56172068390921,
              36.099562199907425
            ]
          ]
        ]
      }
    },
    {
      "id": "3378",
      "type": "Feature",
      "properties": {
        "id": null,
        "SOURCE_FILE": "/Users/maples/GitHub/mortalitree_testing/labels/annayu_mortalitree_prefire_labels.geojson",
        "SUNETID": "annayu",
        "FIRENAME": "CASTLE",
        "FIRE_SLUG": "CASTLE",
        "PREFIRE": 1,
        "PREFIRE_STATUS": "prefire",
        "TILE_Z": 17,
        "TILE_X": 22368,
        "TILE_Y": 51425,
        "TILEXYZ": [
          17,
          22368,
          51425
        ],
        "OUTPUT_FILE": "/Users/maples/GitHub/mortalitree_testing/notebooks/single_tiles/prefire/17/22368/51425.geojson",
        "OUTPUT_STATUS_DIR": "prefire",
        "FEATURE_COUNT": 11
      },
      "geometry": {
        "type": "Polygon",
        "coordinates": [
          [
            [
              -118.56175173971018,
              36.09911183601391
            ],
            [
              -118.56170654296875,
              36.09911015858322
            ],
            [
              -118.56170654296875,
              36.09905487084907
            ],
            [
              -118.56175484870874,
              36.099056663664705
            ],
            [
              -118.56175173971018,
              36.09911183601391
            ]
          ]
        ]
      }
    },
    {
      "id": "3588",
      "type": "Feature",
      "properties": {
        "id": null,
        "SOURCE_FILE": "/Users/maples/GitHub/mortalitree_testing/labels/annayu_mortalitree_prefire_labels.geojson",
        "SUNETID": "annayu",
        "FIRENAME": "CASTLE",
        "FIRE_SLUG": "CASTLE",
        "PREFIRE": 1,
        "PREFIRE_STATUS": "prefire",
        "TILE_Z": 17,
        "TILE_X": 22368,
        "TILE_Y": 51425,
        "TILEXYZ": [
          17,
          22368,
          51425
        ],
        "OUTPUT_FILE": "/Users/maples/GitHub/mortalitree_testing/notebooks/single_tiles/prefire/17/22368/51425.geojson",
        "OUTPUT_STATUS_DIR": "prefire",
        "FEATURE_COUNT": 11
      },
      "geometry": {
        "type": "Polygon",
        "coordinates": [
          [
            [
              -118.56172318726955,
              36.09882012952326
            ],
            [
              -118.56170654296875,
              36.09881951178284
            ],
            [
              -118.56170654296875,
              36.09872873064543
            ],
            [
              -118.56172829214447,
              36.09872953784762
            ],
            [
              -118.56172318726955,
              36.09882012952326
            ]
          ]
        ]
      }
    },
    {
      "id": "3589",
      "type": "Feature",
      "properties": {
        "id": null,
        "SOURCE_FILE": "/Users/maples/GitHub/mortalitree_testing/labels/annayu_mortalitree_prefire_labels.geojson",
        "SUNETID": "annayu",
        "FIRENAME": "CASTLE",
        "FIRE_SLUG": "CASTLE",
        "PREFIRE": 1,
        "PREFIRE_STATUS": "prefire",
        "TILE_Z": 17,
        "TILE_X": 22368,
        "TILE_Y": 51425,
        "TILEXYZ": [
          17,
          22368,
          51425
        ],
        "OUTPUT_FILE": "/Users/maples/GitHub/mortalitree_testing/notebooks/single_tiles/prefire/17/22368/51425.geojson",
        "OUTPUT_STATUS_DIR": "prefire",
        "FEATURE_COUNT": 11
      },
      "geometry": {
        "type": "Polygon",
        "coordinates": [
          [
            [
              -118.56171869493156,
              36.09860208806601
            ],
            [
              -118.56170654296875,
              36.09860163705589
            ],
            [
              -118.56170654296875,
              36.098519934030875
            ],
            [
              -118.56172328928798,
              36.09852055555555
            ],
            [
              -118.56171869493156,
              36.09860208806601
            ]
          ]
        ]
      }
    }
  ],
  "properties": {
    "SOURCE_FILE": "/Users/maples/GitHub/mortalitree_testing/labels/annayu_mortalitree_prefire_labels.geojson",
    "SUNETID": "annayu",
    "FIRENAME": "CASTLE",
    "FIRE_SLUG": "CASTLE",
    "PREFIRE": 1,
    "PREFIRE_STATUS": "prefire",
    "TILE_Z": 17,
    "TILE_X": 22368,
    "TILE_Y": 51425,
    "TILEXYZ": [
      17,
      22368,
      51425
    ],
    "OUTPUT_FILE": "/Users/maples/GitHub/mortalitree_testing/notebooks/single_tiles/prefire/17/22368/51425.geojson",
    "OUTPUT_STATUS_DIR": "prefire",
    "FEATURE_COUNT": 11
  }
}