{
  "type": "FeatureCollection",
  "features": [
    {
      "id": "1395",
      "type": "Feature",
      "properties": {
        "id": null,
        "SOURCE_FILE": "/Users/maples/GitHub/mortalitree_testing/labels/gwynethb_mortalitree_prefire_labels.geojson",
        "SUNETID": "gwynethb",
        "FIRENAME": "CREEK",
        "FIRE_SLUG": "CREEK",
        "PREFIRE": 1,
        "PREFIRE_STATUS": "prefire",
        "TILE_Z": 17,
        "TILE_X": 22059,
        "TILE_Y": 50854,
        "TILEXYZ": [
          17,
          22059,
          50854
        ],
        "OUTPUT_FILE": "/Users/maples/GitHub/mortalitree_testing/notebooks/single_tiles/prefire/17/22059/50854.geojson",
        "OUTPUT_STATUS_DIR": "prefire",
        "FEATURE_COUNT": 2
      },
      "geometry": {
        "type": "Polygon",
        "coordinates": [
          [
            [
              -119.4131391853772,
              37.356487742784005
            ],
            [
              -119.41314373626395,
              37.35639223220162
            ],
            [
              -119.41314697265625,
              37.35639233046444
            ],
            [
              -119.41314697265625,
              37.35648797922062
            ],
            [
              -119.4131391853772,
              37.356487742784005
            ]
          ]
        ]
      }
    },
    {
      "id": "1396",
      "type": "Feature",
      "properties": {
        "id": null,
        "SOURCE_FILE": "/Users/maples/GitHub/mortalitree_testing/labels/gwynethb_mortalitree_prefire_labels.geojson",
        "SUNETID": "gwynethb",
        "FIRENAME": "CREEK",
        "FIRE_SLUG": "CREEK",
        "PREFIRE": 1,
        "PREFIRE_STATUS": "prefire",
        "TILE_Z": 17,
        "TILE_X": 22059,
        "TILE_Y": 50854,
        "TILEXYZ": [
          17,
          22059,
          50854
        ],
        "OUTPUT_FILE": "/Users/maples/GitHub/mortalitree_testing/notebooks/single_tiles/prefire/17/22059/50854.geojson",
        "OUTPUT_STATUS_DIR": "prefire",
        "FEATURE_COUNT": 2
      },
      "geometry": {
        "type": "Polygon",
        "coordinates": [
          [
            [
              -119.41311023354045,
              37.3566982978266
            ],
            [
              -119.41311478449852,
              37.35660278725065
            ],
            [
              -119.41314697265625,
              37.35660376455126
            ],
            [
              -119.41314697265625,
              37.356699413306345
            ],
            [
              -119.41311023354045,
              37.3566982978266
            ]
          ]
        ]
      }
    }
  ],
  "properties": {
    "SOURCE_FILE": "/Users/maples/GitHub/mortalitree_testing/labels/gwynethb_mortalitree_prefire_labels.geojson",
    "SUNETID": "gwynethb",
    "FIRENAME": "CREEK",
    "FIRE_SLUG": "CREEK",
    "PREFIRE": 1,
    "PREFIRE_STATUS": "prefire",
    "TILE_Z": 17,
    "TILE_X": 22059,
    "TILE_Y": 50854,
    "TILEXYZ": [
      17,
      22059,
      50854
    ],
    "OUTPUT_FILE": "/Users/maples/GitHub/mortalitree_testing/notebooks/single_tiles/prefire/17/22059/50854.geojson",
    "OUTPUT_STATUS_DIR": "prefire",
    "FEATURE_COUNT": 2
  }
}