{
  "type": "FeatureCollection",
  "features": [
    {
      "id": "1652",
      "type": "Feature",
      "properties": {
        "id": null,
        "SOURCE_FILE": "/Users/maples/GitHub/mortalitree_testing/labels/annayu_mortalitree_prefire_labels.geojson",
        "SUNETID": "annayu",
        "FIRENAME": "CASTLE",
        "FIRE_SLUG": "CASTLE",
        "PREFIRE": 1,
        "PREFIRE_STATUS": "prefire",
        "TILE_Z": 17,
        "TILE_X": 22312,
        "TILE_Y": 51343,
        "TILEXYZ": [
          17,
          22312,
          51343
        ],
        "OUTPUT_FILE": "/Users/maples/GitHub/mortalitree_testing/notebooks/single_tiles/prefire/17/22312/51343.geojson",
        "OUTPUT_STATUS_DIR": "prefire",
        "FEATURE_COUNT": 1
      },
      "geometry": {
        "type": "Polygon",
        "coordinates": [
          [
            [
              -118.71628370804183,
              36.2797558840776
            ],
            [
              -118.71613658920964,
              36.279750604241706
            ],
            [
              -118.71613896508913,
              36.27970720524017
            ],
            [
              -118.71628637287472,
              36.27970720524017
            ],
            [
              -118.71628370804183,
              36.2797558840776
            ]
          ]
        ]
      }
    }
  ],
  "properties": {
    "SOURCE_FILE": "/Users/maples/GitHub/mortalitree_testing/labels/annayu_mortalitree_prefire_labels.geojson",
    "SUNETID": "annayu",
    "FIRENAME": "CASTLE",
    "FIRE_SLUG": "CASTLE",
    "PREFIRE": 1,
    "PREFIRE_STATUS": "prefire",
    "TILE_Z": 17,
    "TILE_X": 22312,
    "TILE_Y": 51343,
    "TILEXYZ": [
      17,
      22312,
      51343
    ],
    "OUTPUT_FILE": "/Users/maples/GitHub/mortalitree_testing/notebooks/single_tiles/prefire/17/22312/51343.geojson",
    "OUTPUT_STATUS_DIR": "prefire",
    "FEATURE_COUNT": 1
  }
}