{
  "type": "FeatureCollection",
  "features": [
    {
      "id": "240",
      "type": "Feature",
      "properties": {
        "zxy_val": null,
        "z_val": null,
        "x_val": null,
        "y_val": null,
        "url_suffix": null,
        "upper_left": null,
        "lower_righ": null,
        "centroid": null,
        "FID": 187.0,
        "layer": "hcdemars_mortalitree_prefire_labels2",
        "path": "C:\\ESS144\\Lab 7\\hcdemars_mortalitree_prefire_labels2.shp",
        "SOURCE_FILE": "/Users/maples/GitHub/mortalitree_testing/labels/hcdemars_mortalitree_prefire_labels-1.geojson",
        "SUNETID": "hcdemars",
        "FIRENAME": "CREEK",
        "FIRE_SLUG": "CREEK",
        "PREFIRE": 1,
        "PREFIRE_STATUS": "prefire",
        "TILE_Z": 17,
        "TILE_X": 22128,
        "TILE_Y": 50748,
        "TILEXYZ": [
          17,
          22128,
          50748
        ],
        "OUTPUT_FILE": "/Users/maples/GitHub/mortalitree_testing/notebooks/single_tiles/prefire/17/22128/50748.geojson",
        "OUTPUT_STATUS_DIR": "prefire",
        "FEATURE_COUNT": 9
      },
      "geometry": {
        "type": "Polygon",
        "coordinates": [
          [
            [
              -119.22347862301346,
              37.58723861255998
            ],
            [
              -119.22332346672032,
              37.58723364111895
            ],
            [
              -119.22332776179216,
              37.587148755409586
            ],
            [
              -119.2234829179099,
              37.58715372683548
            ],
            [
              -119.22347862301346,
              37.58723861255998
            ]
          ]
        ]
      }
    },
    {
      "id": "241",
      "type": "Feature",
      "properties": {
        "zxy_val": null,
        "z_val": null,
        "x_val": null,
        "y_val": null,
        "url_suffix": null,
        "upper_left": null,
        "lower_righ": null,
        "centroid": null,
        "FID": 188.0,
        "layer": "hcdemars_mortalitree_prefire_labels2",
        "path": "C:\\ESS144\\Lab 7\\hcdemars_mortalitree_prefire_labels2.shp",
        "SOURCE_FILE": "/Users/maples/GitHub/mortalitree_testing/labels/hcdemars_mortalitree_prefire_labels-1.geojson",
        "SUNETID": "hcdemars",
        "FIRENAME": "CREEK",
        "FIRE_SLUG": "CREEK",
        "PREFIRE": 1,
        "PREFIRE_STATUS": "prefire",
        "TILE_Z": 17,
        "TILE_X": 22128,
        "TILE_Y": 50748,
        "TILEXYZ": [
          17,
          22128,
          50748
        ],
        "OUTPUT_FILE": "/Users/maples/GitHub/mortalitree_testing/notebooks/single_tiles/prefire/17/22128/50748.geojson",
        "OUTPUT_STATUS_DIR": "prefire",
        "FEATURE_COUNT": 9
      },
      "geometry": {
        "type": "Polygon",
        "coordinates": [
          [
            [
              -119.2222018309274,
              37.58790107071953
            ],
            [
              -119.22205637082685,
              37.58789640835659
            ],
            [
              -119.22206574523301,
              37.587711203462355
            ],
            [
              -119.22221120497468,
              37.587715865794316
            ],
            [
              -119.2222018309274,
              37.58790107071953
            ]
          ]
        ]
      }
    },
    {
      "id": "527",
      "type": "Feature",
      "properties": {
        "zxy_val": null,
        "z_val": null,
        "x_val": null,
        "y_val": null,
        "url_suffix": null,
        "upper_left": null,
        "lower_righ": null,
        "centroid": null,
        "FID": null,
        "layer": null,
        "path": null,
        "SOURCE_FILE": "/Users/maples/GitHub/mortalitree_testing/labels/hcdemars_mortalitree_prefire_labels-1.geojson",
        "SUNETID": "hcdemars",
        "FIRENAME": "CREEK",
        "FIRE_SLUG": "CREEK",
        "PREFIRE": 1,
        "PREFIRE_STATUS": "prefire",
        "TILE_Z": 17,
        "TILE_X": 22128,
        "TILE_Y": 50748,
        "TILEXYZ": [
          17,
          22128,
          50748
        ],
        "OUTPUT_FILE": "/Users/maples/GitHub/mortalitree_testing/notebooks/single_tiles/prefire/17/22128/50748.geojson",
        "OUTPUT_STATUS_DIR": "prefire",
        "FEATURE_COUNT": 9
      },
      "geometry": {
        "type": "Polygon",
        "coordinates": [
          [
            [
              -119.22229396956288,
              37.58622722087466
            ],
            [
              -119.2221621540067,
              37.58622299602928
            ],
            [
              -119.22216713126414,
              37.58612465463029
            ],
            [
              -119.22229894664767,
              37.586128879460766
            ],
            [
              -119.22229396956288,
              37.58622722087466
            ]
          ]
        ]
      }
    },
    {
      "id": "528",
      "type": "Feature",
      "properties": {
        "zxy_val": null,
        "z_val": null,
        "x_val": null,
        "y_val": null,
        "url_suffix": null,
        "upper_left": null,
        "lower_righ": null,
        "centroid": null,
        "FID": null,
        "layer": null,
        "path": null,
        "SOURCE_FILE": "/Users/maples/GitHub/mortalitree_testing/labels/hcdemars_mortalitree_prefire_labels-1.geojson",
        "SUNETID": "hcdemars",
        "FIRENAME": "CREEK",
        "FIRE_SLUG": "CREEK",
        "PREFIRE": 1,
        "PREFIRE_STATUS": "prefire",
        "TILE_Z": 17,
        "TILE_X": 22128,
        "TILE_Y": 50748,
        "TILEXYZ": [
          17,
          22128,
          50748
        ],
        "OUTPUT_FILE": "/Users/maples/GitHub/mortalitree_testing/notebooks/single_tiles/prefire/17/22128/50748.geojson",
        "OUTPUT_STATUS_DIR": "prefire",
        "FEATURE_COUNT": 9
      },
      "geometry": {
        "type": "Polygon",
        "coordinates": [
          [
            [
              -119.22144525084099,
              37.58709965742667
            ],
            [
              -119.22134638811436,
              37.58709648803333
            ],
            [
              -119.22134904331065,
              37.58704403934468
            ],
            [
              -119.2214479059682,
              37.58704720873205
            ],
            [
              -119.22144525084099,
              37.58709965742667
            ]
          ]
        ]
      }
    },
    {
      "id": "529",
      "type": "Feature",
      "properties": {
        "zxy_val": null,
        "z_val": null,
        "x_val": null,
        "y_val": null,
        "url_suffix": null,
        "upper_left": null,
        "lower_righ": null,
        "centroid": null,
        "FID": null,
        "layer": null,
        "path": null,
        "SOURCE_FILE": "/Users/maples/GitHub/mortalitree_testing/labels/hcdemars_mortalitree_prefire_labels-1.geojson",
        "SUNETID": "hcdemars",
        "FIRENAME": "CREEK",
        "FIRE_SLUG": "CREEK",
        "PREFIRE": 1,
        "PREFIRE_STATUS": "prefire",
        "TILE_Z": 17,
        "TILE_X": 22128,
        "TILE_Y": 50748,
        "TILEXYZ": [
          17,
          22128,
          50748
        ],
        "OUTPUT_FILE": "/Users/maples/GitHub/mortalitree_testing/notebooks/single_tiles/prefire/17/22128/50748.geojson",
        "OUTPUT_STATUS_DIR": "prefire",
        "FEATURE_COUNT": 9
      },
      "geometry": {
        "type": "Polygon",
        "coordinates": [
          [
            [
              -119.22151153995097,
              37.5874202687525
            ],
            [
              -119.22137972241006,
              37.587416042919905
            ],
            [
              -119.22138503281022,
              37.58731114554363
            ],
            [
              -119.22151685016692,
              37.587315371360326
            ],
            [
              -119.22151153995097,
              37.5874202687525
            ]
          ]
        ]
      }
    },
    {
      "id": "530",
      "type": "Feature",
      "properties": {
        "zxy_val": null,
        "z_val": null,
        "x_val": null,
        "y_val": null,
        "url_suffix": null,
        "upper_left": null,
        "lower_righ": null,
        "centroid": null,
        "FID": null,
        "layer": null,
        "path": null,
        "SOURCE_FILE": "/Users/maples/GitHub/mortalitree_testing/labels/hcdemars_mortalitree_prefire_labels-1.geojson",
        "SUNETID": "hcdemars",
        "FIRENAME": "CREEK",
        "FIRE_SLUG": "CREEK",
        "PREFIRE": 1,
        "PREFIRE_STATUS": "prefire",
        "TILE_Z": 17,
        "TILE_X": 22128,
        "TILE_Y": 50748,
        "TILEXYZ": [
          17,
          22128,
          50748
        ],
        "OUTPUT_FILE": "/Users/maples/GitHub/mortalitree_testing/notebooks/single_tiles/prefire/17/22128/50748.geojson",
        "OUTPUT_STATUS_DIR": "prefire",
        "FEATURE_COUNT": 9
      },
      "geometry": {
        "type": "Polygon",
        "coordinates": [
          [
            [
              -119.22118159913865,
              37.58668406793149
            ],
            [
              -119.22109097550344,
              37.586681162482165
            ],
            [
              -119.22109396275572,
              37.58662215772065
            ],
            [
              -119.2211845863197,
              37.58662506316382
            ],
            [
              -119.22118159913865,
              37.58668406793149
            ]
          ]
        ]
      }
    },
    {
      "id": "531",
      "type": "Feature",
      "properties": {
        "zxy_val": null,
        "z_val": null,
        "x_val": null,
        "y_val": null,
        "url_suffix": null,
        "upper_left": null,
        "lower_righ": null,
        "centroid": null,
        "FID": null,
        "layer": null,
        "path": null,
        "SOURCE_FILE": "/Users/maples/GitHub/mortalitree_testing/labels/hcdemars_mortalitree_prefire_labels-1.geojson",
        "SUNETID": "hcdemars",
        "FIRENAME": "CREEK",
        "FIRE_SLUG": "CREEK",
        "PREFIRE": 1,
        "PREFIRE_STATUS": "prefire",
        "TILE_Z": 17,
        "TILE_X": 22128,
        "TILE_Y": 50748,
        "TILEXYZ": [
          17,
          22128,
          50748
        ],
        "OUTPUT_FILE": "/Users/maples/GitHub/mortalitree_testing/notebooks/single_tiles/prefire/17/22128/50748.geojson",
        "OUTPUT_STATUS_DIR": "prefire",
        "FEATURE_COUNT": 9
      },
      "geometry": {
        "type": "Polygon",
        "coordinates": [
          [
            [
              -119.22138659296083,
              37.58801383525549
            ],
            [
              -119.2212712517118,
              37.58801013748851
            ],
            [
              -119.22127556663011,
              37.58792490838974
            ],
            [
              -119.2213909077482,
              37.587928606145404
            ],
            [
              -119.22138659296083,
              37.58801383525549
            ]
          ]
        ]
      }
    },
    {
      "id": "532",
      "type": "Feature",
      "properties": {
        "zxy_val": null,
        "z_val": null,
        "x_val": null,
        "y_val": null,
        "url_suffix": null,
        "upper_left": null,
        "lower_righ": null,
        "centroid": null,
        "FID": null,
        "layer": null,
        "path": null,
        "SOURCE_FILE": "/Users/maples/GitHub/mortalitree_testing/labels/hcdemars_mortalitree_prefire_labels-1.geojson",
        "SUNETID": "hcdemars",
        "FIRENAME": "CREEK",
        "FIRE_SLUG": "CREEK",
        "PREFIRE": 1,
        "PREFIRE_STATUS": "prefire",
        "TILE_Z": 17,
        "TILE_X": 22128,
        "TILE_Y": 50748,
        "TILEXYZ": [
          17,
          22128,
          50748
        ],
        "OUTPUT_FILE": "/Users/maples/GitHub/mortalitree_testing/notebooks/single_tiles/prefire/17/22128/50748.geojson",
        "OUTPUT_STATUS_DIR": "prefire",
        "FEATURE_COUNT": 9
      },
      "geometry": {
        "type": "Polygon",
        "coordinates": [
          [
            [
              -119.22147077560979,
              37.58806250110859
            ],
            [
              -119.22137191160672,
              37.58805933166795
            ],
            [
              -119.22137489878564,
              37.58800032690106
            ],
            [
              -119.22147376271099,
              37.58800349633499
            ],
            [
              -119.22147077560979,
              37.58806250110859
            ]
          ]
        ]
      }
    },
    {
      "id": "533",
      "type": "Feature",
      "properties": {
        "zxy_val": null,
        "z_val": null,
        "x_val": null,
        "y_val": null,
        "url_suffix": null,
        "upper_left": null,
        "lower_righ": null,
        "centroid": null,
        "FID": null,
        "layer": null,
        "path": null,
        "SOURCE_FILE": "/Users/maples/GitHub/mortalitree_testing/labels/hcdemars_mortalitree_prefire_labels-1.geojson",
        "SUNETID": "hcdemars",
        "FIRENAME": "CREEK",
        "FIRE_SLUG": "CREEK",
        "PREFIRE": 1,
        "PREFIRE_STATUS": "prefire",
        "TILE_Z": 17,
        "TILE_X": 22128,
        "TILE_Y": 50748,
        "TILEXYZ": [
          17,
          22128,
          50748
        ],
        "OUTPUT_FILE": "/Users/maples/GitHub/mortalitree_testing/notebooks/single_tiles/prefire/17/22128/50748.geojson",
        "OUTPUT_STATUS_DIR": "prefire",
        "FEATURE_COUNT": 9
      },
      "geometry": {
        "type": "Polygon",
        "coordinates": [
          [
            [
              -119.22097002656672,
              37.587603192992546
            ],
            [
              -119.22088764045039,
              37.58760055147554
            ],
            [
              -119.22089129185251,
              37.587528434572874
            ],
            [
              -119.2209736778897,
              37.58753107608305
            ],
            [
              -119.22097002656672,
              37.587603192992546
            ]
          ]
        ]
      }
    }
  ],
  "properties": {
    "SOURCE_FILE": "/Users/maples/GitHub/mortalitree_testing/labels/hcdemars_mortalitree_prefire_labels-1.geojson",
    "SUNETID": "hcdemars",
    "FIRENAME": "CREEK",
    "FIRE_SLUG": "CREEK",
    "PREFIRE": 1,
    "PREFIRE_STATUS": "prefire",
    "TILE_Z": 17,
    "TILE_X": 22128,
    "TILE_Y": 50748,
    "TILEXYZ": [
      17,
      22128,
      50748
    ],
    "OUTPUT_FILE": "/Users/maples/GitHub/mortalitree_testing/notebooks/single_tiles/prefire/17/22128/50748.geojson",
    "OUTPUT_STATUS_DIR": "prefire",
    "FEATURE_COUNT": 9
  }
}