{
  "type": "FeatureCollection",
  "features": [
    {
      "id": "190",
      "type": "Feature",
      "properties": {
        "zxy_val": null,
        "z_val": null,
        "x_val": null,
        "y_val": null,
        "url_suffix": null,
        "upper_left": null,
        "lower_righ": null,
        "centroid": null,
        "SOURCE_FILE": "/Users/maples/GitHub/mortalitree_testing/labels/jjackie_mortalitree_prefire_lables.geojson",
        "SUNETID": "jjackie",
        "FIRENAME": "CZU AUG LIGHTNING",
        "FIRE_SLUG": "CZU_AUG_LIGHTNING",
        "PREFIRE": 1,
        "PREFIRE_STATUS": "prefire",
        "TILE_Z": 17,
        "TILE_X": 21007,
        "TILE_Y": 50918,
        "TILEXYZ": [
          17,
          21007,
          50918
        ],
        "OUTPUT_FILE": "/Users/maples/GitHub/mortalitree_testing/notebooks/single_tiles/prefire/17/21007/50918.geojson",
        "OUTPUT_STATUS_DIR": "prefire",
        "FEATURE_COUNT": 1
      },
      "geometry": {
        "type": "Polygon",
        "coordinates": [
          [
            [
              -122.29981383564366,
              37.217206113254974
            ],
            [
              -122.2998046875,
              37.217206113254974
            ],
            [
              -122.2998046875,
              37.21719768820345
            ],
            [
              -122.29981391300952,
              37.217197742745974
            ],
            [
              -122.29981383564366,
              37.217206113254974
            ]
          ]
        ]
      }
    }
  ],
  "properties": {
    "SOURCE_FILE": "/Users/maples/GitHub/mortalitree_testing/labels/jjackie_mortalitree_prefire_lables.geojson",
    "SUNETID": "jjackie",
    "FIRENAME": "CZU AUG LIGHTNING",
    "FIRE_SLUG": "CZU_AUG_LIGHTNING",
    "PREFIRE": 1,
    "PREFIRE_STATUS": "prefire",
    "TILE_Z": 17,
    "TILE_X": 21007,
    "TILE_Y": 50918,
    "TILEXYZ": [
      17,
      21007,
      50918
    ],
    "OUTPUT_FILE": "/Users/maples/GitHub/mortalitree_testing/notebooks/single_tiles/prefire/17/21007/50918.geojson",
    "OUTPUT_STATUS_DIR": "prefire",
    "FEATURE_COUNT": 1
  }
}