{
  "type": "FeatureCollection",
  "features": [
    {
      "id": "14",
      "type": "Feature",
      "properties": {
        "id": null,
        "SOURCE_FILE": "/Users/maples/GitHub/mortalitree_testing/labels/ajones16_mortalitree_prefire_labels.geojson",
        "SUNETID": "ajones16",
        "FIRENAME": "CASTLE",
        "FIRE_SLUG": "CASTLE",
        "PREFIRE": 1,
        "PREFIRE_STATUS": "prefire",
        "TILE_Z": 17,
        "TILE_X": 22299,
        "TILE_Y": 51324,
        "TILEXYZ": [
          17,
          22299,
          51324
        ],
        "OUTPUT_FILE": "/Users/maples/GitHub/mortalitree_testing/notebooks/single_tiles/prefire/17/22299/51324.geojson",
        "OUTPUT_STATUS_DIR": "prefire",
        "FEATURE_COUNT": 6
      },
      "geometry": {
        "type": "Polygon",
        "coordinates": [
          [
            [
              -118.751220703125,
              36.32244166685766
            ],
            [
              -118.751220703125,
              36.32240299296261
            ],
            [
              -118.75122280215453,
              36.32240306770999
            ],
            [
              -118.751220703125,
              36.32244166685766
            ]
          ]
        ]
      }
    },
    {
      "id": "35",
      "type": "Feature",
      "properties": {
        "id": null,
        "SOURCE_FILE": "/Users/maples/GitHub/mortalitree_testing/labels/ajones16_mortalitree_prefire_labels.geojson",
        "SUNETID": "ajones16",
        "FIRENAME": "CASTLE",
        "FIRE_SLUG": "CASTLE",
        "PREFIRE": 1,
        "PREFIRE_STATUS": "prefire",
        "TILE_Z": 17,
        "TILE_X": 22299,
        "TILE_Y": 51324,
        "TILEXYZ": [
          17,
          22299,
          51324
        ],
        "OUTPUT_FILE": "/Users/maples/GitHub/mortalitree_testing/notebooks/single_tiles/prefire/17/22299/51324.geojson",
        "OUTPUT_STATUS_DIR": "prefire",
        "FEATURE_COUNT": 6
      },
      "geometry": {
        "type": "Polygon",
        "coordinates": [
          [
            [
              -118.75123856769422,
              36.32397712011262
            ],
            [
              -118.751220703125,
              36.32397712011262
            ],
            [
              -118.751220703125,
              36.32393681758185
            ],
            [
              -118.75124072070133,
              36.32393753043138
            ],
            [
              -118.75123856769422,
              36.32397712011262
            ]
          ]
        ]
      }
    },
    {
      "id": "113",
      "type": "Feature",
      "properties": {
        "id": null,
        "SOURCE_FILE": "/Users/maples/GitHub/mortalitree_testing/labels/ajones16_mortalitree_prefire_labels.geojson",
        "SUNETID": "ajones16",
        "FIRENAME": "CASTLE",
        "FIRE_SLUG": "CASTLE",
        "PREFIRE": 1,
        "PREFIRE_STATUS": "prefire",
        "TILE_Z": 17,
        "TILE_X": 22299,
        "TILE_Y": 51324,
        "TILEXYZ": [
          17,
          22299,
          51324
        ],
        "OUTPUT_FILE": "/Users/maples/GitHub/mortalitree_testing/notebooks/single_tiles/prefire/17/22299/51324.geojson",
        "OUTPUT_STATUS_DIR": "prefire",
        "FEATURE_COUNT": 6
      },
      "geometry": {
        "type": "Polygon",
        "coordinates": [
          [
            [
              -118.751232170626,
              36.322033858010656
            ],
            [
              -118.751220703125,
              36.32203344964614
            ],
            [
              -118.751220703125,
              36.321968337480605
            ],
            [
              -118.75123570452895,
              36.321968871688675
            ],
            [
              -118.751232170626,
              36.322033858010656
            ]
          ]
        ]
      }
    },
    {
      "id": "115",
      "type": "Feature",
      "properties": {
        "id": null,
        "SOURCE_FILE": "/Users/maples/GitHub/mortalitree_testing/labels/ajones16_mortalitree_prefire_labels.geojson",
        "SUNETID": "ajones16",
        "FIRENAME": "CASTLE",
        "FIRE_SLUG": "CASTLE",
        "PREFIRE": 1,
        "PREFIRE_STATUS": "prefire",
        "TILE_Z": 17,
        "TILE_X": 22299,
        "TILE_Y": 51324,
        "TILEXYZ": [
          17,
          22299,
          51324
        ],
        "OUTPUT_FILE": "/Users/maples/GitHub/mortalitree_testing/notebooks/single_tiles/prefire/17/22299/51324.geojson",
        "OUTPUT_STATUS_DIR": "prefire",
        "FEATURE_COUNT": 6
      },
      "geometry": {
        "type": "Polygon",
        "coordinates": [
          [
            [
              -118.75122543752992,
              36.321840607185834
            ],
            [
              -118.751220703125,
              36.321840438592545
            ],
            [
              -118.751220703125,
              36.32177532642705
            ],
            [
              -118.75122897141354,
              36.321775620862326
            ],
            [
              -118.75122543752992,
              36.321840607185834
            ]
          ]
        ]
      }
    },
    {
      "id": "132",
      "type": "Feature",
      "properties": {
        "id": null,
        "SOURCE_FILE": "/Users/maples/GitHub/mortalitree_testing/labels/ajones16_mortalitree_prefire_labels.geojson",
        "SUNETID": "ajones16",
        "FIRENAME": "CASTLE",
        "FIRE_SLUG": "CASTLE",
        "PREFIRE": 1,
        "PREFIRE_STATUS": "prefire",
        "TILE_Z": 17,
        "TILE_X": 22299,
        "TILE_Y": 51324,
        "TILEXYZ": [
          17,
          22299,
          51324
        ],
        "OUTPUT_FILE": "/Users/maples/GitHub/mortalitree_testing/notebooks/single_tiles/prefire/17/22299/51324.geojson",
        "OUTPUT_STATUS_DIR": "prefire",
        "FEATURE_COUNT": 6
      },
      "geometry": {
        "type": "Polygon",
        "coordinates": [
          [
            [
              -118.75122314894985,
              36.32267535663368
            ],
            [
              -118.751220703125,
              36.32267526953638
            ],
            [
              -118.751220703125,
              36.322619459112204
            ],
            [
              -118.7512261780876,
              36.322619654078665
            ],
            [
              -118.75122314894985,
              36.32267535663368
            ]
          ]
        ]
      }
    },
    {
      "id": "202",
      "type": "Feature",
      "properties": {
        "id": null,
        "SOURCE_FILE": "/Users/maples/GitHub/mortalitree_testing/labels/ajones16_mortalitree_prefire_labels.geojson",
        "SUNETID": "ajones16",
        "FIRENAME": "CASTLE",
        "FIRE_SLUG": "CASTLE",
        "PREFIRE": 1,
        "PREFIRE_STATUS": "prefire",
        "TILE_Z": 17,
        "TILE_X": 22299,
        "TILE_Y": 51324,
        "TILEXYZ": [
          17,
          22299,
          51324
        ],
        "OUTPUT_FILE": "/Users/maples/GitHub/mortalitree_testing/notebooks/single_tiles/prefire/17/22299/51324.geojson",
        "OUTPUT_STATUS_DIR": "prefire",
        "FEATURE_COUNT": 6
      },
      "geometry": {
        "type": "Polygon",
        "coordinates": [
          [
            [
              -118.75123040624514,
              36.322541902594395
            ],
            [
              -118.751220703125,
              36.32254155706176
            ],
            [
              -118.751220703125,
              36.322483421202925
            ],
            [
              -118.75123356157604,
              36.32248387909773
            ],
            [
              -118.75123040624514,
              36.322541902594395
            ]
          ]
        ]
      }
    }
  ],
  "properties": {
    "SOURCE_FILE": "/Users/maples/GitHub/mortalitree_testing/labels/ajones16_mortalitree_prefire_labels.geojson",
    "SUNETID": "ajones16",
    "FIRENAME": "CASTLE",
    "FIRE_SLUG": "CASTLE",
    "PREFIRE": 1,
    "PREFIRE_STATUS": "prefire",
    "TILE_Z": 17,
    "TILE_X": 22299,
    "TILE_Y": 51324,
    "TILEXYZ": [
      17,
      22299,
      51324
    ],
    "OUTPUT_FILE": "/Users/maples/GitHub/mortalitree_testing/notebooks/single_tiles/prefire/17/22299/51324.geojson",
    "OUTPUT_STATUS_DIR": "prefire",
    "FEATURE_COUNT": 6
  }
}