{
  "type": "FeatureCollection",
  "features": [
    {
      "id": "809",
      "type": "Feature",
      "properties": {
        "id": null,
        "SOURCE_FILE": "/Users/maples/GitHub/mortalitree_testing/labels/izzyip_mortalitree_prefire_labels.geojson",
        "SUNETID": "izzyip",
        "FIRENAME": "CZU AUG LIGHTNING",
        "FIRE_SLUG": "CZU_AUG_LIGHTNING",
        "PREFIRE": 1,
        "PREFIRE_STATUS": "prefire",
        "TILE_Z": 17,
        "TILE_X": 21041,
        "TILE_Y": 50982,
        "TILEXYZ": [
          17,
          21041,
          50982
        ],
        "OUTPUT_FILE": "/Users/maples/GitHub/mortalitree_testing/notebooks/single_tiles/prefire/17/21041/50982.geojson",
        "OUTPUT_STATUS_DIR": "prefire",
        "FEATURE_COUNT": 1
      },
      "geometry": {
        "type": "Polygon",
        "coordinates": [
          [
            [
              -122.20912497691917,
              37.076577088096926
            ],
            [
              -122.20912588731832,
              37.076489437025465
            ],
            [
              -122.20916748046875,
              37.07648971435644
            ],
            [
              -122.20916748046875,
              37.07657737149875
            ],
            [
              -122.20912497691917,
              37.076577088096926
            ]
          ]
        ]
      }
    }
  ],
  "properties": {
    "SOURCE_FILE": "/Users/maples/GitHub/mortalitree_testing/labels/izzyip_mortalitree_prefire_labels.geojson",
    "SUNETID": "izzyip",
    "FIRENAME": "CZU AUG LIGHTNING",
    "FIRE_SLUG": "CZU_AUG_LIGHTNING",
    "PREFIRE": 1,
    "PREFIRE_STATUS": "prefire",
    "TILE_Z": 17,
    "TILE_X": 21041,
    "TILE_Y": 50982,
    "TILEXYZ": [
      17,
      21041,
      50982
    ],
    "OUTPUT_FILE": "/Users/maples/GitHub/mortalitree_testing/notebooks/single_tiles/prefire/17/21041/50982.geojson",
    "OUTPUT_STATUS_DIR": "prefire",
    "FEATURE_COUNT": 1
  }
}