{
  "type": "FeatureCollection",
  "features": [
    {
      "id": "2054",
      "type": "Feature",
      "properties": {
        "id": null,
        "SOURCE_FILE": "/Users/maples/GitHub/mortalitree_testing/labels/annayu_mortalitree_prefire_labels.geojson",
        "SUNETID": "annayu",
        "FIRENAME": "CASTLE",
        "FIRE_SLUG": "CASTLE",
        "PREFIRE": 1,
        "PREFIRE_STATUS": "prefire",
        "TILE_Z": 17,
        "TILE_X": 22330,
        "TILE_Y": 51336,
        "TILEXYZ": [
          17,
          22330,
          51336
        ],
        "OUTPUT_FILE": "/Users/maples/GitHub/mortalitree_testing/notebooks/single_tiles/prefire/17/22330/51336.geojson",
        "OUTPUT_STATUS_DIR": "prefire",
        "FEATURE_COUNT": 2
      },
      "geometry": {
        "type": "Polygon",
        "coordinates": [
          [
            [
              -118.66607666015625,
              36.29614772544247
            ],
            [
              -118.66607666015625,
              36.29608803286208
            ],
            [
              -118.6660799617107,
              36.29608815276343
            ],
            [
              -118.66607666015625,
              36.29614772544247
            ]
          ]
        ]
      }
    },
    {
      "id": "2065",
      "type": "Feature",
      "properties": {
        "id": null,
        "SOURCE_FILE": "/Users/maples/GitHub/mortalitree_testing/labels/annayu_mortalitree_prefire_labels.geojson",
        "SUNETID": "annayu",
        "FIRENAME": "CASTLE",
        "FIRE_SLUG": "CASTLE",
        "PREFIRE": 1,
        "PREFIRE_STATUS": "prefire",
        "TILE_Z": 17,
        "TILE_X": 22330,
        "TILE_Y": 51336,
        "TILEXYZ": [
          17,
          22330,
          51336
        ],
        "OUTPUT_FILE": "/Users/maples/GitHub/mortalitree_testing/notebooks/single_tiles/prefire/17/22330/51336.geojson",
        "OUTPUT_STATUS_DIR": "prefire",
        "FEATURE_COUNT": 2
      },
      "geometry": {
        "type": "Polygon",
        "coordinates": [
          [
            [
              -118.6661527616371,
              36.29641222800913
            ],
            [
              -118.66607666015625,
              36.29640946429257
            ],
            [
              -118.66607666015625,
              36.29631762674094
            ],
            [
              -118.66615784106058,
              36.296320574916464
            ],
            [
              -118.6661527616371,
              36.29641222800913
            ]
          ]
        ]
      }
    }
  ],
  "properties": {
    "SOURCE_FILE": "/Users/maples/GitHub/mortalitree_testing/labels/annayu_mortalitree_prefire_labels.geojson",
    "SUNETID": "annayu",
    "FIRENAME": "CASTLE",
    "FIRE_SLUG": "CASTLE",
    "PREFIRE": 1,
    "PREFIRE_STATUS": "prefire",
    "TILE_Z": 17,
    "TILE_X": 22330,
    "TILE_Y": 51336,
    "TILEXYZ": [
      17,
      22330,
      51336
    ],
    "OUTPUT_FILE": "/Users/maples/GitHub/mortalitree_testing/notebooks/single_tiles/prefire/17/22330/51336.geojson",
    "OUTPUT_STATUS_DIR": "prefire",
    "FEATURE_COUNT": 2
  }
}