{
  "type": "FeatureCollection",
  "features": [
    {
      "id": "23",
      "type": "Feature",
      "properties": {
        "id": null,
        "tree_id": 25.0,
        "SOURCE_FILE": "/Users/maples/GitHub/mortalitree_testing/labels/aiong05_prefire_labels.geojson",
        "SUNETID": "aiong05",
        "FIRENAME": "CASTLE",
        "FIRE_SLUG": "CASTLE",
        "PREFIRE": 1,
        "PREFIRE_STATUS": "prefire",
        "TILE_Z": 17,
        "TILE_X": 22316,
        "TILE_Y": 51378,
        "TILEXYZ": [
          17,
          22316,
          51378
        ],
        "OUTPUT_FILE": "/Users/maples/GitHub/mortalitree_testing/notebooks/single_tiles/prefire/17/22316/51378.geojson",
        "OUTPUT_STATUS_DIR": "prefire",
        "FEATURE_COUNT": 12
      },
      "geometry": {
        "type": "Polygon",
        "coordinates": [
          [
            [
              -118.70614445715233,
              36.20415970170858
            ],
            [
              -118.70610080429782,
              36.204173041477226
            ],
            [
              -118.706047625972,
              36.20413634284024
            ],
            [
              -118.70603674344804,
              36.20411110367515
            ],
            [
              -118.70601974113406,
              36.20408564453805
            ],
            [
              -118.70605224001314,
              36.20405202547793
            ],
            [
              -118.70615546229742,
              36.20407064445509
            ],
            [
              -118.70615941083624,
              36.204110543184015
            ],
            [
              -118.70614744264591,
              36.20410514340881
            ],
            [
              -118.70614445715233,
              36.20415970170858
            ]
          ]
        ]
      }
    },
    {
      "id": "24",
      "type": "Feature",
      "properties": {
        "id": null,
        "tree_id": 26.0,
        "SOURCE_FILE": "/Users/maples/GitHub/mortalitree_testing/labels/aiong05_prefire_labels.geojson",
        "SUNETID": "aiong05",
        "FIRENAME": "CASTLE",
        "FIRE_SLUG": "CASTLE",
        "PREFIRE": 1,
        "PREFIRE_STATUS": "prefire",
        "TILE_Z": 17,
        "TILE_X": 22316,
        "TILE_Y": 51378,
        "TILEXYZ": [
          17,
          22316,
          51378
        ],
        "OUTPUT_FILE": "/Users/maples/GitHub/mortalitree_testing/notebooks/single_tiles/prefire/17/22316/51378.geojson",
        "OUTPUT_STATUS_DIR": "prefire",
        "FEATURE_COUNT": 12
      },
      "geometry": {
        "type": "Polygon",
        "coordinates": [
          [
            [
              -118.70618709405,
              36.20360463890818
            ],
            [
              -118.70609231218033,
              36.20365589776606
            ],
            [
              -118.7060430826651,
              36.20365909787624
            ],
            [
              -118.7059892131936,
              36.20352298236837
            ],
            [
              -118.70599587576963,
              36.203513282648494
            ],
            [
              -118.70603979966786,
              36.20349498304851
            ],
            [
              -118.7060831807348,
              36.20348660312207
            ],
            [
              -118.70614383543486,
              36.2034987224505
            ],
            [
              -118.70619062225312,
              36.20354016090784
            ],
            [
              -118.70618709405,
              36.20360463890818
            ]
          ]
        ]
      }
    },
    {
      "id": "25",
      "type": "Feature",
      "properties": {
        "id": null,
        "tree_id": 27.0,
        "SOURCE_FILE": "/Users/maples/GitHub/mortalitree_testing/labels/aiong05_prefire_labels.geojson",
        "SUNETID": "aiong05",
        "FIRENAME": "CASTLE",
        "FIRE_SLUG": "CASTLE",
        "PREFIRE": 1,
        "PREFIRE_STATUS": "prefire",
        "TILE_Z": 17,
        "TILE_X": 22316,
        "TILE_Y": 51378,
        "TILEXYZ": [
          17,
          22316,
          51378
        ],
        "OUTPUT_FILE": "/Users/maples/GitHub/mortalitree_testing/notebooks/single_tiles/prefire/17/22316/51378.geojson",
        "OUTPUT_STATUS_DIR": "prefire",
        "FEATURE_COUNT": 12
      },
      "geometry": {
        "type": "Polygon",
        "coordinates": [
          [
            [
              -118.7068545126799,
              36.20328572328282
            ],
            [
              -118.70685179912255,
              36.203335321790085
            ],
            [
              -118.7068615964114,
              36.20338040029646
            ],
            [
              -118.70681685866445,
              36.2034135797678
            ],
            [
              -118.70677456313699,
              36.20340212056869
            ],
            [
              -118.70674613529825,
              36.20336134211801
            ],
            [
              -118.70670914545985,
              36.20336498237816
            ],
            [
              -118.70667676886096,
              36.2032843051843
            ],
            [
              -118.70667200595592,
              36.203259286002464
            ],
            [
              -118.70666805715297,
              36.20321938727182
            ],
            [
              -118.70669307881943,
              36.20321034730545
            ],
            [
              -118.70680691154794,
              36.20325916462279
            ],
            [
              -118.70682309990497,
              36.20329950320695
            ],
            [
              -118.70682894828934,
              36.20330468298376
            ],
            [
              -118.70685219191371,
              36.20321606544736
            ],
            [
              -118.7068545126799,
              36.20328572328282
            ]
          ]
        ]
      }
    },
    {
      "id": "26",
      "type": "Feature",
      "properties": {
        "id": null,
        "tree_id": 28.0,
        "SOURCE_FILE": "/Users/maples/GitHub/mortalitree_testing/labels/aiong05_prefire_labels.geojson",
        "SUNETID": "aiong05",
        "FIRENAME": "CASTLE",
        "FIRE_SLUG": "CASTLE",
        "PREFIRE": 1,
        "PREFIRE_STATUS": "prefire",
        "TILE_Z": 17,
        "TILE_X": 22316,
        "TILE_Y": 51378,
        "TILEXYZ": [
          17,
          22316,
          51378
        ],
        "OUTPUT_FILE": "/Users/maples/GitHub/mortalitree_testing/notebooks/single_tiles/prefire/17/22316/51378.geojson",
        "OUTPUT_STATUS_DIR": "prefire",
        "FEATURE_COUNT": 12
      },
      "geometry": {
        "type": "Polygon",
        "coordinates": [
          [
            [
              -118.70546094102896,
              36.2028678840599
            ],
            [
              -118.7054167459417,
              36.20289114330425
            ],
            [
              -118.70530523413453,
              36.202911982527304
            ],
            [
              -118.70525790525733,
              36.20288046345737
            ],
            [
              -118.70524090343416,
              36.20285500424031
            ],
            [
              -118.70525450008266,
              36.20283064504621
            ],
            [
              -118.70527952175328,
              36.20282160537866
            ],
            [
              -118.70533405608955,
              36.20283350507403
            ],
            [
              -118.70536546889117,
              36.20281972554642
            ],
            [
              -118.70537825116396,
              36.20281024585963
            ],
            [
              -118.70542748014132,
              36.20280704598966
            ],
            [
              -118.70545060171312,
              36.20283272517795
            ],
            [
              -118.70546419829428,
              36.20280836595524
            ],
            [
              -118.70546094102896,
              36.2028678840599
            ]
          ]
        ]
      }
    },
    {
      "id": "27",
      "type": "Feature",
      "properties": {
        "id": null,
        "tree_id": 29.0,
        "SOURCE_FILE": "/Users/maples/GitHub/mortalitree_testing/labels/aiong05_prefire_labels.geojson",
        "SUNETID": "aiong05",
        "FIRENAME": "CASTLE",
        "FIRE_SLUG": "CASTLE",
        "PREFIRE": 1,
        "PREFIRE_STATUS": "prefire",
        "TILE_Z": 17,
        "TILE_X": 22316,
        "TILE_Y": 51378,
        "TILEXYZ": [
          17,
          22316,
          51378
        ],
        "OUTPUT_FILE": "/Users/maples/GitHub/mortalitree_testing/notebooks/single_tiles/prefire/17/22316/51378.geojson",
        "OUTPUT_STATUS_DIR": "prefire",
        "FEATURE_COUNT": 12
      },
      "geometry": {
        "type": "Polygon",
        "coordinates": [
          [
            [
              -118.70569711884146,
              36.20370629728522
            ],
            [
              -118.70568379357935,
              36.20372569668349
            ],
            [
              -118.70564544637057,
              36.20375413581163
            ],
            [
              -118.70560899920574,
              36.203747856029835
            ],
            [
              -118.70557445213186,
              36.20370685734302
            ],
            [
              -118.7055822005336,
              36.203677318282494
            ],
            [
              -118.70560722245382,
              36.20366827856268
            ],
            [
              -118.7056383641287,
              36.20365945882623
            ],
            [
              -118.7056984760036,
              36.20368149807083
            ],
            [
              -118.70570405290196,
              36.20369163774242
            ],
            [
              -118.70568623647931,
              36.2036810580984
            ],
            [
              -118.70569711884146,
              36.20370629728522
            ]
          ]
        ]
      }
    },
    {
      "id": "28",
      "type": "Feature",
      "properties": {
        "id": null,
        "tree_id": 30.0,
        "SOURCE_FILE": "/Users/maples/GitHub/mortalitree_testing/labels/aiong05_prefire_labels.geojson",
        "SUNETID": "aiong05",
        "FIRENAME": "CASTLE",
        "FIRE_SLUG": "CASTLE",
        "PREFIRE": 1,
        "PREFIRE_STATUS": "prefire",
        "TILE_Z": 17,
        "TILE_X": 22316,
        "TILE_Y": 51378,
        "TILEXYZ": [
          17,
          22316,
          51378
        ],
        "OUTPUT_FILE": "/Users/maples/GitHub/mortalitree_testing/notebooks/single_tiles/prefire/17/22316/51378.geojson",
        "OUTPUT_STATUS_DIR": "prefire",
        "FEATURE_COUNT": 12
      },
      "geometry": {
        "type": "Polygon",
        "coordinates": [
          [
            [
              -118.70712182335615,
              36.202882852257666
            ],
            [
              -118.70716167668381,
              36.20293894999659
            ],
            [
              -118.70715148696571,
              36.20301312788364
            ],
            [
              -118.70708281333744,
              36.203035508137766
            ],
            [
              -118.7070043423168,
              36.2030128098509
            ],
            [
              -118.706962589657,
              36.202991431026994
            ],
            [
              -118.70689880029866,
              36.20292453384681
            ],
            [
              -118.706906276754,
              36.20289995451025
            ],
            [
              -118.70694992876979,
              36.20288661438802
            ],
            [
              -118.7069682879013,
              36.202887274139925
            ],
            [
              -118.70702417932151,
              36.2028743738222
            ],
            [
              -118.70712182335615,
              36.202882852257666
            ]
          ]
        ]
      }
    },
    {
      "id": "29",
      "type": "Feature",
      "properties": {
        "id": null,
        "tree_id": 31.0,
        "SOURCE_FILE": "/Users/maples/GitHub/mortalitree_testing/labels/aiong05_prefire_labels.geojson",
        "SUNETID": "aiong05",
        "FIRENAME": "CASTLE",
        "FIRE_SLUG": "CASTLE",
        "PREFIRE": 1,
        "PREFIRE_STATUS": "prefire",
        "TILE_Z": 17,
        "TILE_X": 22316,
        "TILE_Y": 51378,
        "TILEXYZ": [
          17,
          22316,
          51378
        ],
        "OUTPUT_FILE": "/Users/maples/GitHub/mortalitree_testing/notebooks/single_tiles/prefire/17/22316/51378.geojson",
        "OUTPUT_STATUS_DIR": "prefire",
        "FEATURE_COUNT": 12
      },
      "geometry": {
        "type": "Polygon",
        "coordinates": [
          [
            [
              -118.70710108441928,
              36.202365268282804
            ],
            [
              -118.70717153588525,
              36.2024224655375
            ],
            [
              -118.7071733143296,
              36.202502043097844
            ],
            [
              -118.70717114370736,
              36.20254172192552
            ],
            [
              -118.70716366737909,
              36.20256630128762
            ],
            [
              -118.70714368033718,
              36.202595400690065
            ],
            [
              -118.70713008430253,
              36.20261976014233
            ],
            [
              -118.70711621692627,
              36.20264907944541
            ],
            [
              -118.70704618693328,
              36.20269625896347
            ],
            [
              -118.70698948162207,
              36.20272403885684
            ],
            [
              -118.70690775478033,
              36.20276085874929
            ],
            [
              -118.70682072222118,
              36.20278257910379
            ],
            [
              -118.70678032650835,
              36.202736400973016
            ],
            [
              -118.70674074491163,
              36.20267534327995
            ],
            [
              -118.70672455669438,
              36.202635004693065
            ],
            [
              -118.70670550509925,
              36.20253492797167
            ],
            [
              -118.70676383847344,
              36.20247738910538
            ],
            [
              -118.70691288149068,
              36.20244298840478
            ],
            [
              -118.70692035788032,
              36.20241840906254
            ],
            [
              -118.70692252861932,
              36.202378730247126
            ],
            [
              -118.70692361398724,
              36.20235889083927
            ],
            [
              -118.70694251567612,
              36.202349630882786
            ],
            [
              -118.70695978932386,
              36.20237013003626
            ],
            [
              -118.70710108441928,
              36.202365268282804
            ]
          ]
        ]
      }
    },
    {
      "id": "30",
      "type": "Feature",
      "properties": {
        "id": null,
        "tree_id": 32.0,
        "SOURCE_FILE": "/Users/maples/GitHub/mortalitree_testing/labels/aiong05_prefire_labels.geojson",
        "SUNETID": "aiong05",
        "FIRENAME": "CASTLE",
        "FIRE_SLUG": "CASTLE",
        "PREFIRE": 1,
        "PREFIRE_STATUS": "prefire",
        "TILE_Z": 17,
        "TILE_X": 22316,
        "TILE_Y": 51378,
        "TILEXYZ": [
          17,
          22316,
          51378
        ],
        "OUTPUT_FILE": "/Users/maples/GitHub/mortalitree_testing/notebooks/single_tiles/prefire/17/22316/51378.geojson",
        "OUTPUT_STATUS_DIR": "prefire",
        "FEATURE_COUNT": 12
      },
      "geometry": {
        "type": "Polygon",
        "coordinates": [
          [
            [
              -118.70631989738906,
              36.20308263439627
            ],
            [
              -118.70628073655928,
              36.203125953309225
            ],
            [
              -118.70623069319934,
              36.20314403306067
            ],
            [
              -118.7061697673533,
              36.203136873639814
            ],
            [
              -118.70613386321085,
              36.20312067434186
            ],
            [
              -118.70607538002099,
              36.203068876260865
            ],
            [
              -118.70608816225935,
              36.20305939649523
            ],
            [
              -118.706107064211,
              36.20305013668986
            ],
            [
              -118.70613901978422,
              36.20302643726309
            ],
            [
              -118.70615180200815,
              36.2030169574896
            ],
            [
              -118.70615792172232,
              36.2030171774487
            ],
            [
              -118.70623584966106,
              36.20304979597025
            ],
            [
              -118.70624196937845,
              36.20305001592524
            ],
            [
              -118.70625366603142,
              36.20306037552831
            ],
            [
              -118.70631989738906,
              36.20308263439627
            ]
          ]
        ]
      }
    },
    {
      "id": "31",
      "type": "Feature",
      "properties": {
        "id": null,
        "tree_id": 33.0,
        "SOURCE_FILE": "/Users/maples/GitHub/mortalitree_testing/labels/aiong05_prefire_labels.geojson",
        "SUNETID": "aiong05",
        "FIRENAME": "CASTLE",
        "FIRE_SLUG": "CASTLE",
        "PREFIRE": 1,
        "PREFIRE_STATUS": "prefire",
        "TILE_Z": 17,
        "TILE_X": 22316,
        "TILE_Y": 51378,
        "TILEXYZ": [
          17,
          22316,
          51378
        ],
        "OUTPUT_FILE": "/Users/maples/GitHub/mortalitree_testing/notebooks/single_tiles/prefire/17/22316/51378.geojson",
        "OUTPUT_STATUS_DIR": "prefire",
        "FEATURE_COUNT": 12
      },
      "geometry": {
        "type": "Polygon",
        "coordinates": [
          [
            [
              -118.70670093853914,
              36.204075340518585
            ],
            [
              -118.70669346187086,
              36.204099919826966
            ],
            [
              -118.70668489969921,
              36.204144338530305
            ],
            [
              -118.70665526431607,
              36.204237695902094
            ],
            [
              -118.7065634671255,
              36.20423439676897
            ],
            [
              -118.7065217139846,
              36.20421301775826
            ],
            [
              -118.70651164545313,
              36.2041728990824
            ],
            [
              -118.70651993634165,
              36.20413344024632
            ],
            [
              -118.70652795583584,
              36.20409894125689
            ],
            [
              -118.70656126866177,
              36.204050442499465
            ],
            [
              -118.70664191154513,
              36.20403346234628
            ],
            [
              -118.70663470624096,
              36.20405308180144
            ],
            [
              -118.70670093853914,
              36.204075340518585
            ]
          ]
        ]
      }
    },
    {
      "id": "32",
      "type": "Feature",
      "properties": {
        "id": null,
        "tree_id": 34.0,
        "SOURCE_FILE": "/Users/maples/GitHub/mortalitree_testing/labels/aiong05_prefire_labels.geojson",
        "SUNETID": "aiong05",
        "FIRENAME": "CASTLE",
        "FIRE_SLUG": "CASTLE",
        "PREFIRE": 1,
        "PREFIRE_STATUS": "prefire",
        "TILE_Z": 17,
        "TILE_X": 22316,
        "TILE_Y": 51378,
        "TILEXYZ": [
          17,
          22316,
          51378
        ],
        "OUTPUT_FILE": "/Users/maples/GitHub/mortalitree_testing/notebooks/single_tiles/prefire/17/22316/51378.geojson",
        "OUTPUT_STATUS_DIR": "prefire",
        "FEATURE_COUNT": 12
      },
      "geometry": {
        "type": "Polygon",
        "coordinates": [
          [
            [
              -118.70551342695946,
              36.2040376267752
            ],
            [
              -118.70551900385362,
              36.2040477664551
            ],
            [
              -118.70554022565828,
              36.20410816453904
            ],
            [
              -118.70554444532814,
              36.204143103425785
            ],
            [
              -118.70550718365006,
              36.20415170312563
            ],
            [
              -118.7055007924034,
              36.20415644296857
            ],
            [
              -118.70548134720799,
              36.204175622336045
            ],
            [
              -118.70538234460506,
              36.204191941664654
            ],
            [
              -118.70535255998615,
              36.20417596211651
            ],
            [
              -118.70531162163249,
              36.204139703185945
            ],
            [
              -118.70530182519826,
              36.20409462460975
            ],
            [
              -118.70532289917115,
              36.20404568623221
            ],
            [
              -118.70535458393975,
              36.2040269469019
            ],
            [
              -118.70538572578305,
              36.20401812724325
            ],
            [
              -118.70541605325995,
              36.20402418709834
            ],
            [
              -118.70551342695946,
              36.2040376267752
            ]
          ]
        ]
      }
    },
    {
      "id": "33",
      "type": "Feature",
      "properties": {
        "id": null,
        "tree_id": 35.0,
        "SOURCE_FILE": "/Users/maples/GitHub/mortalitree_testing/labels/aiong05_prefire_labels.geojson",
        "SUNETID": "aiong05",
        "FIRENAME": "CASTLE",
        "FIRE_SLUG": "CASTLE",
        "PREFIRE": 1,
        "PREFIRE_STATUS": "prefire",
        "TILE_Z": 17,
        "TILE_X": 22316,
        "TILE_Y": 51378,
        "TILEXYZ": [
          17,
          22316,
          51378
        ],
        "OUTPUT_FILE": "/Users/maples/GitHub/mortalitree_testing/notebooks/single_tiles/prefire/17/22316/51378.geojson",
        "OUTPUT_STATUS_DIR": "prefire",
        "FEATURE_COUNT": 12
      },
      "geometry": {
        "type": "Polygon",
        "coordinates": [
          [
            [
              -118.70481019471023,
              36.20400240536033
            ],
            [
              -118.70483304489004,
              36.20403304451165
            ],
            [
              -118.70481781891858,
              36.20408716265237
            ],
            [
              -118.70479306827889,
              36.20409124235438
            ],
            [
              -118.70472547913013,
              36.204093781794136
            ],
            [
              -118.70468957491232,
              36.204077582053806
            ],
            [
              -118.70469120391019,
              36.20404782303778
            ],
            [
              -118.70470534396469,
              36.20401354426293
            ],
            [
              -118.70471839801702,
              36.20399910483042
            ],
            [
              -118.70474342012504,
              36.203990065305774
            ],
            [
              -118.70478625857652,
              36.20399160555252
            ],
            [
              -118.70481019471023,
              36.20400240536033
            ]
          ]
        ]
      }
    },
    {
      "id": "34",
      "type": "Feature",
      "properties": {
        "id": null,
        "tree_id": 36.0,
        "SOURCE_FILE": "/Users/maples/GitHub/mortalitree_testing/labels/aiong05_prefire_labels.geojson",
        "SUNETID": "aiong05",
        "FIRENAME": "CASTLE",
        "FIRE_SLUG": "CASTLE",
        "PREFIRE": 1,
        "PREFIRE_STATUS": "prefire",
        "TILE_Z": 17,
        "TILE_X": 22316,
        "TILE_Y": 51378,
        "TILEXYZ": [
          17,
          22316,
          51378
        ],
        "OUTPUT_FILE": "/Users/maples/GitHub/mortalitree_testing/notebooks/single_tiles/prefire/17/22316/51378.geojson",
        "OUTPUT_STATUS_DIR": "prefire",
        "FEATURE_COUNT": 12
      },
      "geometry": {
        "type": "Polygon",
        "coordinates": [
          [
            [
              -118.70507655644202,
              36.203505082863956
            ],
            [
              -118.70509464420414,
              36.203510702751984
            ],
            [
              -118.70516428063429,
              36.203582780673585
            ],
            [
              -118.70513205308136,
              36.203611439641854
            ],
            [
              -118.70511954210899,
              36.203615959451426
            ],
            [
              -118.70508785746681,
              36.2036346987276
            ],
            [
              -118.70506868379142,
              36.20364891819202
            ],
            [
              -118.70495159402864,
              36.20365961730925
            ],
            [
              -118.70488563414929,
              36.203632397838575
            ],
            [
              -118.70489338279602,
              36.203602858839474
            ],
            [
              -118.70488834897655,
              36.20358279946194
            ],
            [
              -118.70488358664164,
              36.20355778024665
            ],
            [
              -118.70490384624745,
              36.20352372146123
            ],
            [
              -118.70494165062344,
              36.20350520225748
            ],
            [
              -118.70500393394788,
              36.20348756312462
            ],
            [
              -118.70501590195765,
              36.20349296300339
            ],
            [
              -118.70503929503815,
              36.20351368243514
            ],
            [
              -118.70507655644202,
              36.203505082863956
            ]
          ]
        ]
      }
    }
  ],
  "properties": {
    "SOURCE_FILE": "/Users/maples/GitHub/mortalitree_testing/labels/aiong05_prefire_labels.geojson",
    "SUNETID": "aiong05",
    "FIRENAME": "CASTLE",
    "FIRE_SLUG": "CASTLE",
    "PREFIRE": 1,
    "PREFIRE_STATUS": "prefire",
    "TILE_Z": 17,
    "TILE_X": 22316,
    "TILE_Y": 51378,
    "TILEXYZ": [
      17,
      22316,
      51378
    ],
    "OUTPUT_FILE": "/Users/maples/GitHub/mortalitree_testing/notebooks/single_tiles/prefire/17/22316/51378.geojson",
    "OUTPUT_STATUS_DIR": "prefire",
    "FEATURE_COUNT": 12
  }
}