{
"type": "FeatureCollection",
"name": "aiong05_prefire_labels",
"crs": { "type": "name", "properties": { "name": "urn:ogc:def:crs:OGC:1.3:CRS84" } },
"features": [
{ "type": "Feature", "properties": { "id": null, "tree_id": 1 }, "geometry": { "type": "MultiPolygon", "coordinates": [ [ [ [ -118.605436452635004, 36.206197291241786 ], [ -118.605437008200767, 36.206187372882582 ], [ -118.605396118709223, 36.206151082740909 ], [ -118.605416420609771, 36.206117043865163 ], [ -118.605464540356962, 36.20613372240426 ], [ -118.605480675532505, 36.206174071213816 ], [ -118.605436452635004, 36.206197291241786 ] ] ] ] } },
{ "type": "Feature", "properties": { "id": null, "tree_id": 2 }, "geometry": { "type": "MultiPolygon", "coordinates": [ [ [ [ -118.605582462477372, 36.205998917524134 ], [ -118.605518493442204, 36.206046258140859 ], [ -118.605478437311902, 36.205995090488898 ], [ -118.605510699603485, 36.205966461015223 ], [ -118.605558263739297, 36.205993057872782 ], [ -118.605582462477372, 36.205998917524134 ] ] ] ] } },
{ "type": "Feature", "properties": { "id": null, "tree_id": 3 }, "geometry": { "type": "MultiPolygon", "coordinates": [ [ [ [ -118.605260918990041, 36.205828067031391 ], [ -118.605189997427914, 36.205890059871187 ], [ -118.605098758793332, 36.205767437383201 ], [ -118.605150211811718, 36.20572460589527 ], [ -118.605239498248295, 36.205772615533839 ], [ -118.605255077668673, 36.205822882719936 ], [ -118.605260918990041, 36.205828067031391 ] ] ] ] } },
{ "type": "Feature", "properties": { "id": null, "tree_id": 4 }, "geometry": { "type": "MultiPolygon", "coordinates": [ [ [ [ -118.60542473818046, 36.205749614316339 ], [ -118.605384690155987, 36.205807773723258 ], [ -118.605233934723557, 36.205762472043077 ], [ -118.605310141872252, 36.205715581832926 ], [ -118.605395809330162, 36.205718733615157 ], [ -118.605419174632146, 36.205739470832647 ], [ -118.60542473818046, 36.205749614316339 ] ] ] ] } },
{ "type": "Feature", "properties": { "id": null, "tree_id": 5 }, "geometry": { "type": "MultiPolygon", "coordinates": [ [ [ [ -118.604684354318422, 36.206159680087005 ], [ -118.604647924168361, 36.206262696925187 ], [ -118.604503843231043, 36.206207701111822 ], [ -118.604429580072164, 36.20621987652801 ], [ -118.604357539704708, 36.206192378517279 ], [ -118.604363652409447, 36.206083276722879 ], [ -118.604494098926935, 36.20605329121684 ], [ -118.604651806998262, 36.206083941482078 ], [ -118.604727466078927, 36.206156297051386 ], [ -118.604684354318422, 36.206159680087005 ] ] ] ] } },
{ "type": "Feature", "properties": { "id": null, "tree_id": 6 }, "geometry": { "type": "MultiPolygon", "coordinates": [ [ [ [ -118.604999945202778, 36.204685442150179 ], [ -118.604767151842722, 36.204791172818787 ], [ -118.604757976887427, 36.204845498604804 ], [ -118.604568286947043, 36.20483851870965 ], [ -118.604586081455111, 36.204739785532993 ], [ -118.604775486138806, 36.204642397527074 ], [ -118.604909826700705, 36.204652309953211 ], [ -118.604993826181897, 36.204685217010166 ], [ -118.604999945202778, 36.204685442150179 ] ] ] ] } },
{ "type": "Feature", "properties": { "id": null, "tree_id": 7 }, "geometry": { "type": "MultiPolygon", "coordinates": [ [ [ [ -118.604117800262316, 36.206531413760501 ], [ -118.60413949820888, 36.206581906243777 ], [ -118.604046877171015, 36.2065934058094 ], [ -118.603933114047564, 36.206544494453539 ], [ -118.603972329898284, 36.206501213147796 ], [ -118.604117800262316, 36.206531413760501 ] ] ] ] } },
{ "type": "Feature", "properties": { "id": 8, "tree_id": null }, "geometry": { "type": "MultiPolygon", "coordinates": [ [ [ [ -118.603637705659111, 36.206126131680215 ], [ -118.603686658636079, 36.206127933407693 ], [ -118.603684713386016, 36.20616264758344 ], [ -118.603649949328428, 36.206235909020066 ], [ -118.603585139996724, 36.206188799107622 ], [ -118.603637705659111, 36.206126131680215 ] ] ] ] } },
{ "type": "Feature", "properties": { "id": null, "tree_id": 9 }, "geometry": { "type": "MultiPolygon", "coordinates": [ [ [ [ -118.60309173291968, 36.206568189339016 ], [ -118.603062248907378, 36.206547226444016 ], [ -118.603061688477311, 36.206447817925259 ], [ -118.603136507840645, 36.206425725062736 ], [ -118.603236086458054, 36.206508900807918 ], [ -118.60309173291968, 36.206568189339016 ] ] ] ] } },
{ "type": "Feature", "properties": { "id": null, "tree_id": 10 }, "geometry": { "type": "MultiPolygon", "coordinates": [ [ [ [ -118.603076414321194, 36.206075655396951 ], [ -118.60300354536902, 36.206172360945331 ], [ -118.602959039428669, 36.206091212326797 ], [ -118.602985739374233, 36.206052440024308 ], [ -118.603039699642622, 36.206074303917703 ], [ -118.603076414321194, 36.206075655396951 ] ] ] ] } },
{ "type": "Feature", "properties": { "id": null, "tree_id": 11 }, "geometry": { "type": "MultiPolygon", "coordinates": [ [ [ [ -118.603200400170707, 36.204629155896654 ], [ -118.603177596609456, 36.204707826853536 ], [ -118.603057995646381, 36.20465373047854 ], [ -118.603098600465856, 36.204585653592623 ], [ -118.603200400170707, 36.204629155896654 ] ] ] ] } },
{ "type": "Feature", "properties": { "id": null, "tree_id": 12 }, "geometry": { "type": "MultiPolygon", "coordinates": [ [ [ [ -118.605340689982739, 36.205060745007955 ], [ -118.605298142276681, 36.205163537027275 ], [ -118.605208023095827, 36.205130405011211 ], [ -118.605155451690166, 36.205083746206725 ], [ -118.605102880346692, 36.205037087383083 ], [ -118.605107047222148, 36.204962699707366 ], [ -118.60512679330192, 36.204938579220709 ], [ -118.605205507494929, 36.204956383482994 ], [ -118.605283943948578, 36.204979146875331 ], [ -118.605305642343581, 36.205029639177674 ], [ -118.605340967760171, 36.205055785828044 ], [ -118.605340689982739, 36.205060745007955 ] ] ] ] } },
{ "type": "Feature", "properties": { "id": null, "tree_id": 13 }, "geometry": { "type": "MultiPolygon", "coordinates": [ [ [ [ -118.630844558874827, 36.170708210998512 ], [ -118.630790937121219, 36.170790731300919 ], [ -118.630685575828394, 36.170811726233524 ], [ -118.630565726459906, 36.170762618845202 ], [ -118.630598791961873, 36.170719102719012 ], [ -118.630642711426773, 36.170700830761881 ], [ -118.630736391056814, 36.170669469815898 ], [ -118.630809790100287, 36.17067215351809 ], [ -118.63080730768506, 36.170716787918003 ], [ -118.630844558874827, 36.170708210998512 ] ] ] ] } },
{ "type": "Feature", "properties": { "id": null, "tree_id": 14 }, "geometry": { "type": "MultiPolygon", "coordinates": [ [ [ [ -118.631263698489349, 36.170445245128519 ], [ -118.631204236583756, 36.170522582664873 ], [ -118.63113640261615, 36.17053004159677 ], [ -118.631035730475574, 36.17046672741543 ], [ -118.631044880920911, 36.170412397867715 ], [ -118.631058493085447, 36.17038804822198 ], [ -118.631188319998287, 36.170367947391838 ], [ -118.631199725743983, 36.170383272771168 ], [ -118.631263146903763, 36.170455163890487 ], [ -118.631263698489349, 36.170445245128519 ] ] ] ] } },
{ "type": "Feature", "properties": { "id": null, "tree_id": 15 }, "geometry": { "type": "MultiPolygon", "coordinates": [ [ [ [ -118.631119965454005, 36.169833715763055 ], [ -118.631048270880072, 36.169910606008465 ], [ -118.63096208785214, 36.169917394004145 ], [ -118.630903404845327, 36.169870523295096 ], [ -118.630917292749075, 36.16984121428132 ], [ -118.630902252888774, 36.169781030840333 ], [ -118.630935041936866, 36.169742473954159 ], [ -118.630984525674563, 36.169734344213985 ], [ -118.631069881106157, 36.169742434328967 ], [ -118.631109111385697, 36.169808471620648 ], [ -118.631108559793475, 36.169818390381621 ], [ -118.631119965454005, 36.169833715763055 ] ] ] ] } },
{ "type": "Feature", "properties": { "id": null, "tree_id": 16 }, "geometry": { "type": "MultiPolygon", "coordinates": [ [ [ [ -118.631414188195478, 36.169392250912303 ], [ -118.631391977877854, 36.169461011461742 ], [ -118.631322765949704, 36.169493267476227 ], [ -118.63129857573135, 36.169487413661606 ], [ -118.63122126753079, 36.169444831669651 ], [ -118.631217081533649, 36.169409892386405 ], [ -118.631225404302782, 36.169370440945904 ], [ -118.631342996501729, 36.16934989260281 ], [ -118.63137385472217, 36.169346051244965 ], [ -118.631389997998738, 36.169386397117819 ], [ -118.631414188195478, 36.169392250912303 ] ] ] ] } },
{ "type": "Feature", "properties": { "id": null, "tree_id": 17 }, "geometry": { "type": "MultiPolygon", "coordinates": [ [ [ [ -118.63215802030092, 36.16968282275581 ], [ -118.632167496061541, 36.16973286376296 ], [ -118.632103849215596, 36.169775262575264 ], [ -118.632033483991293, 36.169718026470079 ], [ -118.632027367468112, 36.169717802897509 ], [ -118.631988462411655, 36.169756136546717 ], [ -118.631981518664119, 36.169770791130617 ], [ -118.631929227362761, 36.169719185080105 ], [ -118.631918648782161, 36.169688981608346 ], [ -118.631950334350265, 36.169670261950372 ], [ -118.63200119667151, 36.16963733484593 ], [ -118.632068478359173, 36.169639794137076 ], [ -118.632096303624039, 36.169690505855911 ], [ -118.63215802030092, 36.16968282275581 ] ] ] ] } },
{ "type": "Feature", "properties": { "id": null, "tree_id": 18 }, "geometry": { "type": "MultiPolygon", "coordinates": [ [ [ [ -118.632644565148894, 36.170301910995398 ], [ -118.632617893206429, 36.170340691936396 ], [ -118.632560638341161, 36.170378355128477 ], [ -118.632543667161471, 36.170352887532424 ], [ -118.63251584140589, 36.170302175886142 ], [ -118.632487739969903, 36.170256423624778 ], [ -118.632441013153766, 36.170214960086611 ], [ -118.632443770312591, 36.170165366196414 ], [ -118.632457106293998, 36.170145975746884 ], [ -118.632501576485041, 36.170117784273792 ], [ -118.632594703391931, 36.170096340547573 ], [ -118.632674770041973, 36.170089327834681 ], [ -118.632723426805498, 36.170096075548621 ], [ -118.632893863402984, 36.170117212699537 ], [ -118.63284911764832, 36.170150363720296 ], [ -118.632726510694425, 36.170150852388275 ], [ -118.632719842735867, 36.170160547630616 ], [ -118.632716810052628, 36.170215100929944 ], [ -118.632691240981373, 36.170234044329497 ], [ -118.632665947600245, 36.170248028332239 ], [ -118.632608141415048, 36.170295610334044 ], [ -118.632594254024738, 36.170324919580793 ], [ -118.632644565148894, 36.170301910995398 ] ] ] ] } },
{ "type": "Feature", "properties": { "id": null, "tree_id": 19 }, "geometry": { "type": "MultiPolygon", "coordinates": [ [ [ [ -118.631903733050081, 36.170508398131297 ], [ -118.631899045238782, 36.17059270767858 ], [ -118.631835949033473, 36.170625187516471 ], [ -118.631817047738068, 36.17063443552216 ], [ -118.631709706744218, 36.170580817043792 ], [ -118.631710809807629, 36.170560979508394 ], [ -118.631756935063507, 36.170503032044159 ], [ -118.631775836331727, 36.170493784046165 ], [ -118.631831988596531, 36.170475958801838 ], [ -118.631893705911295, 36.170468275883195 ], [ -118.631896237698612, 36.170532971473556 ], [ -118.631903733050081, 36.170508398131297 ] ] ] ] } },
{ "type": "Feature", "properties": { "id": null, "tree_id": 21 }, "geometry": { "type": "MultiPolygon", "coordinates": [ [ [ [ -118.631228623268228, 36.170965756480037 ], [ -118.63121528683682, 36.17098514676006 ], [ -118.631149983606832, 36.171057301231883 ], [ -118.631089644838838, 36.171040186831839 ], [ -118.631055703247071, 36.170989251269084 ], [ -118.631100450205622, 36.170956101008919 ], [ -118.631182172588083, 36.170919333088634 ], [ -118.631213583038857, 36.170905573055272 ], [ -118.631242787089832, 36.170931488056674 ], [ -118.631234739881862, 36.170965980100007 ], [ -118.631228623268228, 36.170965756480037 ] ] ] ] } },
{ "type": "Feature", "properties": { "id": null, "tree_id": 22 }, "geometry": { "type": "MultiPolygon", "coordinates": [ [ [ [ -118.632389468523641, 36.169378205853647 ], [ -118.632448152156798, 36.169425075869775 ], [ -118.632427045552618, 36.169473999114743 ], [ -118.632401752389441, 36.169487983076245 ], [ -118.632362847629039, 36.16952631686889 ], [ -118.632327853608274, 36.16960454931283 ], [ -118.632175492162361, 36.16958904152078 ], [ -118.632140998906749, 36.169548025028121 ], [ -118.632124855208588, 36.169507679228992 ], [ -118.632139845503019, 36.169458532485727 ], [ -118.632177371703321, 36.169444995710137 ], [ -118.632251321187212, 36.169437759674359 ], [ -118.632289674514794, 36.169409344695701 ], [ -118.632321359884642, 36.169390624924795 ], [ -118.632341087955993, 36.169366498646234 ], [ -118.632420051023146, 36.169379323611871 ], [ -118.632389468523641, 36.169378205853647 ] ] ] ] } },
{ "type": "Feature", "properties": { "id": 23, "tree_id": null }, "geometry": { "type": "MultiPolygon", "coordinates": [ [ [ [ -118.630649351295688, 36.169369257567986 ], [ -118.63080953181489, 36.169464564588118 ], [ -118.630757290089903, 36.169522288050594 ], [ -118.63060492932118, 36.169506778284301 ], [ -118.630551260007962, 36.169479968587993 ], [ -118.630515940203566, 36.16945382981698 ], [ -118.63041361489536, 36.16942027148977 ], [ -118.630417476591958, 36.169350840222336 ], [ -118.630505038145017, 36.16931925569601 ], [ -118.630627091931729, 36.169328687979039 ], [ -118.630673817235447, 36.169370152130597 ], [ -118.630649351295688, 36.169369257567986 ] ] ] ] } },
{ "type": "Feature", "properties": { "id": null, "tree_id": 24 }, "geometry": { "type": "MultiPolygon", "coordinates": [ [ [ [ -118.632194296054578, 36.170573683025651 ], [ -118.632288852763821, 36.170636772737502 ], [ -118.632249120124726, 36.170689984607421 ], [ -118.632191864828215, 36.170727647591406 ], [ -118.632064794905418, 36.17069815562926 ], [ -118.632060608520419, 36.170663216350583 ], [ -118.632061987243134, 36.170638419420008 ], [ -118.632090038274839, 36.17057484169861 ], [ -118.632128392254444, 36.170546426817651 ], [ -118.632194296054578, 36.170573683025651 ] ] ] ] } },
{ "type": "Feature", "properties": { "id": null, "tree_id": 25 }, "geometry": { "type": "MultiPolygon", "coordinates": [ [ [ [ -118.706147442645914, 36.20410514340881 ], [ -118.706144457152334, 36.204159701708583 ], [ -118.706100804297819, 36.204173041477226 ], [ -118.706047625972005, 36.204136342840243 ], [ -118.706036743448038, 36.204111103675153 ], [ -118.706019741134057, 36.204085644538047 ], [ -118.706052240013136, 36.204052025477928 ], [ -118.706155462297417, 36.204070644455093 ], [ -118.706159410836236, 36.204110543184015 ], [ -118.706147442645914, 36.20410514340881 ] ] ] ] } },
{ "type": "Feature", "properties": { "id": null, "tree_id": 26 }, "geometry": { "type": "MultiPolygon", "coordinates": [ [ [ [ -118.706190622253118, 36.203540160907842 ], [ -118.706187094049994, 36.203604638908182 ], [ -118.706092312180331, 36.203655897766062 ], [ -118.706043082665104, 36.20365909787624 ], [ -118.705989213193604, 36.203522982368369 ], [ -118.705995875769631, 36.203513282648494 ], [ -118.706039799667863, 36.203494983048508 ], [ -118.706083180734794, 36.203486603122073 ], [ -118.706143835434858, 36.203498722450497 ], [ -118.706190622253118, 36.203540160907842 ] ] ] ] } },
{ "type": "Feature", "properties": { "id": null, "tree_id": 27 }, "geometry": { "type": "MultiPolygon", "coordinates": [ [ [ [ -118.706852191913711, 36.203216065447357 ], [ -118.706854512679897, 36.203285723282818 ], [ -118.706851799122546, 36.203335321790085 ], [ -118.7068615964114, 36.20338040029646 ], [ -118.706816858664453, 36.203413579767798 ], [ -118.706774563136989, 36.20340212056869 ], [ -118.706746135298246, 36.203361342118008 ], [ -118.706709145459854, 36.203364982378162 ], [ -118.706676768860959, 36.203284305184297 ], [ -118.706672005955923, 36.203259286002464 ], [ -118.706668057152967, 36.203219387271822 ], [ -118.706693078819427, 36.203210347305451 ], [ -118.706806911547943, 36.203259164622793 ], [ -118.706823099904966, 36.203299503206949 ], [ -118.706828948289342, 36.203304682983763 ], [ -118.706852191913711, 36.203216065447357 ] ] ] ] } },
{ "type": "Feature", "properties": { "id": null, "tree_id": 28 }, "geometry": { "type": "MultiPolygon", "coordinates": [ [ [ [ -118.70546419829428, 36.202808365955242 ], [ -118.70546094102896, 36.202867884059899 ], [ -118.705416745941704, 36.20289114330425 ], [ -118.705305234134528, 36.202911982527304 ], [ -118.705257905257326, 36.202880463457369 ], [ -118.705240903434159, 36.202855004240313 ], [ -118.70525450008266, 36.202830645046213 ], [ -118.705279521753283, 36.202821605378659 ], [ -118.705334056089555, 36.202833505074032 ], [ -118.705365468891173, 36.202819725546419 ], [ -118.705378251163964, 36.202810245859631 ], [ -118.705427480141324, 36.202807045989658 ], [ -118.705450601713125, 36.202832725177949 ], [ -118.70546419829428, 36.202808365955242 ] ] ] ] } },
{ "type": "Feature", "properties": { "id": null, "tree_id": 29 }, "geometry": { "type": "MultiPolygon", "coordinates": [ [ [ [ -118.705686236479309, 36.203681058098397 ], [ -118.705686236479309, 36.203681058098397 ], [ -118.705697118841456, 36.203706297285223 ], [ -118.705683793579354, 36.203725696683492 ], [ -118.705645446370568, 36.203754135811629 ], [ -118.705608999205737, 36.203747856029835 ], [ -118.705574452131856, 36.203706857343022 ], [ -118.705582200533598, 36.203677318282494 ], [ -118.705607222453821, 36.203668278562681 ], [ -118.705638364128703, 36.20365945882623 ], [ -118.705698476003604, 36.203681498070829 ], [ -118.705704052901964, 36.203691637742423 ], [ -118.705686236479309, 36.203681058098397 ] ] ] ] } },
{ "type": "Feature", "properties": { "id": null, "tree_id": 30 }, "geometry": { "type": "MultiPolygon", "coordinates": [ [ [ [ -118.707024179321508, 36.202874373822198 ], [ -118.707121823356147, 36.202882852257666 ], [ -118.70716167668381, 36.202938949996593 ], [ -118.707151486965714, 36.203013127883636 ], [ -118.707082813337436, 36.203035508137766 ], [ -118.707004342316793, 36.203012809850897 ], [ -118.706962589656996, 36.202991431026994 ], [ -118.70689880029866, 36.202924533846812 ], [ -118.706906276753998, 36.202899954510251 ], [ -118.706949928769788, 36.202886614388021 ], [ -118.706968287901304, 36.202887274139925 ], [ -118.707024179321508, 36.202874373822198 ] ] ] ] } },
{ "type": "Feature", "properties": { "id": null, "tree_id": 31 }, "geometry": { "type": "MultiPolygon", "coordinates": [ [ [ [ -118.706959789323861, 36.202370130036257 ], [ -118.707101084419278, 36.202365268282804 ], [ -118.707171535885252, 36.202422465537502 ], [ -118.707173314329594, 36.202502043097844 ], [ -118.707171143707356, 36.20254172192552 ], [ -118.707163667379092, 36.202566301287618 ], [ -118.707143680337182, 36.202595400690065 ], [ -118.707130084302534, 36.202619760142333 ], [ -118.707116216926266, 36.202649079445408 ], [ -118.707046186933283, 36.202696258963471 ], [ -118.706989481622074, 36.202724038856843 ], [ -118.706907754780332, 36.202760858749294 ], [ -118.706820722221181, 36.20278257910379 ], [ -118.706780326508351, 36.202736400973016 ], [ -118.706740744911627, 36.20267534327995 ], [ -118.706724556694382, 36.202635004693065 ], [ -118.706705505099251, 36.202534927971669 ], [ -118.706763838473435, 36.202477389105383 ], [ -118.70691288149068, 36.202442988404783 ], [ -118.706920357880321, 36.202418409062538 ], [ -118.706922528619316, 36.202378730247126 ], [ -118.706923613987243, 36.202358890839271 ], [ -118.706942515676118, 36.202349630882786 ], [ -118.706959789323861, 36.202370130036257 ] ] ] ] } },
{ "type": "Feature", "properties": { "id": null, "tree_id": 32 }, "geometry": { "type": "MultiPolygon", "coordinates": [ [ [ [ -118.706253666031415, 36.20306037552831 ], [ -118.706319897389065, 36.203082634396267 ], [ -118.706280736559279, 36.203125953309225 ], [ -118.706230693199345, 36.203144033060667 ], [ -118.706169767353302, 36.203136873639814 ], [ -118.706133863210852, 36.203120674341861 ], [ -118.706075380020991, 36.203068876260865 ], [ -118.706088162259348, 36.203059396495227 ], [ -118.706088162259348, 36.203059396495227 ], [ -118.706107064210997, 36.20305013668986 ], [ -118.706139019784217, 36.203026437263091 ], [ -118.706151802008151, 36.203016957489602 ], [ -118.706157921722323, 36.2030171774487 ], [ -118.706235849661056, 36.203049795970252 ], [ -118.706241969378453, 36.203050015925243 ], [ -118.706253666031415, 36.20306037552831 ] ] ] ] } },
{ "type": "Feature", "properties": { "id": null, "tree_id": 33 }, "geometry": { "type": "MultiPolygon", "coordinates": [ [ [ [ -118.706634706240962, 36.20405308180144 ], [ -118.706700938539143, 36.204075340518585 ], [ -118.706693461870856, 36.204099919826966 ], [ -118.706684899699212, 36.204144338530305 ], [ -118.706655264316069, 36.204237695902094 ], [ -118.706563467125505, 36.204234396768967 ], [ -118.7065217139846, 36.204213017758264 ], [ -118.706511645453133, 36.204172899082401 ], [ -118.70651993634165, 36.204133440246324 ], [ -118.706527955835838, 36.204098941256888 ], [ -118.706561268661773, 36.204050442499465 ], [ -118.706641911545134, 36.204033462346281 ], [ -118.706634706240962, 36.20405308180144 ] ] ] ] } },
{ "type": "Feature", "properties": { "id": null, "tree_id": 34 }, "geometry": { "type": "MultiPolygon", "coordinates": [ [ [ [ -118.705416053259952, 36.204024187098341 ], [ -118.705513426959456, 36.204037626775197 ], [ -118.705519003853624, 36.204047766455098 ], [ -118.705540225658282, 36.204108164539043 ], [ -118.705544445328144, 36.204143103425785 ], [ -118.705507183650056, 36.204151703125632 ], [ -118.705500792403399, 36.204156442968568 ], [ -118.705481347207993, 36.204175622336045 ], [ -118.705382344605056, 36.204191941664654 ], [ -118.705352559986153, 36.204175962116508 ], [ -118.70531162163249, 36.204139703185945 ], [ -118.705301825198262, 36.204094624609752 ], [ -118.705322899171151, 36.204045686232213 ], [ -118.705354583939751, 36.204026946901898 ], [ -118.705385725783046, 36.204018127243252 ], [ -118.705385725783046, 36.204018127243252 ], [ -118.705416053259952, 36.204024187098341 ] ] ] ] } },
{ "type": "Feature", "properties": { "id": null, "tree_id": 35 }, "geometry": { "type": "MultiPolygon", "coordinates": [ [ [ [ -118.704786258576519, 36.203991605552517 ], [ -118.704810194710234, 36.204002405360328 ], [ -118.704833044890037, 36.204033044511647 ], [ -118.704817818918585, 36.204087162652371 ], [ -118.704793068278889, 36.20409124235438 ], [ -118.704725479130133, 36.204093781794136 ], [ -118.704689574912322, 36.204077582053806 ], [ -118.704691203910187, 36.204047823037783 ], [ -118.70470534396469, 36.204013544262928 ], [ -118.704718398017022, 36.203999104830423 ], [ -118.704743420125041, 36.203990065305774 ], [ -118.704786258576519, 36.203991605552517 ] ] ] ] } },
{ "type": "Feature", "properties": { "id": null, "tree_id": 36 }, "geometry": { "type": "MultiPolygon", "coordinates": [ [ [ [ -118.705039295038148, 36.203513682435137 ], [ -118.705076556442023, 36.203505082863956 ], [ -118.705094644204138, 36.203510702751984 ], [ -118.705164280634293, 36.203582780673585 ], [ -118.705132053081357, 36.203611439641854 ], [ -118.705119542108989, 36.203615959451426 ], [ -118.705087857466808, 36.203634698727598 ], [ -118.705068683791424, 36.203648918192023 ], [ -118.704951594028643, 36.203659617309249 ], [ -118.704885634149292, 36.203632397838575 ], [ -118.704893382796016, 36.203602858839474 ], [ -118.704888348976553, 36.203582799461941 ], [ -118.704883586641643, 36.203557780246648 ], [ -118.704903846247447, 36.203523721461231 ], [ -118.704941650623439, 36.203505202257482 ], [ -118.705003933947879, 36.203487563124618 ], [ -118.705015901957651, 36.203492963003391 ], [ -118.705039295038148, 36.203513682435137 ] ] ] ] } },
{ "type": "Feature", "properties": { "id": null, "tree_id": 37 }, "geometry": { "type": "MultiPolygon", "coordinates": [ [ [ [ -118.674460840558496, 36.241416250045539 ], [ -118.674529282617925, 36.241398851187164 ], [ -118.674589412025568, 36.24142090737832 ], [ -118.674673209983098, 36.241458729450791 ], [ -118.674660517081549, 36.241577538284275 ], [ -118.674653299537596, 36.241597154945978 ], [ -118.674596280932008, 36.241629876240083 ], [ -118.674551780997319, 36.241658081451916 ], [ -118.674520347312296, 36.241671851382122 ], [ -118.674458848827285, 36.241674593180306 ], [ -118.674417360465441, 36.241648242661469 ], [ -118.674387021914399, 36.241642174128629 ], [ -118.674352203638634, 36.24160612616253 ], [ -118.674286499297438, 36.241573928844467 ], [ -118.674302029721474, 36.241514857152275 ], [ -118.674310342504199, 36.24147540209227 ], [ -118.674336201262747, 36.241451491213972 ], [ -118.674424105859018, 36.241414919353758 ], [ -118.674442473208444, 36.241415584701052 ], [ -118.674460840558496, 36.241416250045539 ] ] ] ] } },
{ "type": "Feature", "properties": { "id": null, "tree_id": 38 }, "geometry": { "type": "MultiPolygon", "coordinates": [ [ [ [ -118.676045118231201, 36.24172210513909 ], [ -118.676080758428398, 36.241743273813313 ], [ -118.676078295293649, 36.24178791037162 ], [ -118.676070804389028, 36.241812486758811 ], [ -118.676031058887176, 36.241865712338338 ], [ -118.675980163083125, 36.24189865602208 ], [ -118.675780684990059, 36.241956036278118 ], [ -118.675716074525354, 36.241904001229166 ], [ -118.675694321604496, 36.241853518199697 ], [ -118.675703181160102, 36.241804143769151 ], [ -118.675722643449745, 36.241784970465318 ], [ -118.675729587050554, 36.24177031333771 ], [ -118.675755719215445, 36.24174144251424 ], [ -118.675787973844493, 36.241712793398449 ], [ -118.675887575755979, 36.241686583094882 ], [ -118.675924036963039, 36.241692872962496 ], [ -118.675990289539499, 36.241715150195411 ], [ -118.676045118231201, 36.24172210513909 ] ] ] ] } },
{ "type": "Feature", "properties": { "id": null, "tree_id": 39 }, "geometry": { "type": "MultiPolygon", "coordinates": [ [ [ [ -118.675765280642338, 36.24034535155355 ], [ -118.675977100817079, 36.240397747728132 ], [ -118.675954354850589, 36.240476436518584 ], [ -118.675946043043254, 36.240515891760928 ], [ -118.675917448281893, 36.240589399220404 ], [ -118.675852666413789, 36.240651657205099 ], [ -118.675728302542623, 36.240681940340231 ], [ -118.675617551897403, 36.240687868698899 ], [ -118.675462475093383, 36.240607709708186 ], [ -118.675444655328405, 36.24059712530142 ], [ -118.675452967397888, 36.240557670112011 ], [ -118.675479372914779, 36.240523839709923 ], [ -118.675523871863248, 36.240495634082002 ], [ -118.675574493165442, 36.240467650154422 ], [ -118.675632605298617, 36.240415089840162 ], [ -118.675739422689276, 36.240369262799071 ], [ -118.675758610889744, 36.240355049078055 ], [ -118.675765280642338, 36.24034535155355 ] ] ] ] } },
{ "type": "Feature", "properties": { "id": null, "tree_id": 40 }, "geometry": { "type": "MultiPolygon", "coordinates": [ [ [ [ -118.674817807607042, 36.240728477262223 ], [ -118.674941350580369, 36.240713073938977 ], [ -118.67498420737617, 36.240714626200585 ], [ -118.675131144986707, 36.24071994812428 ], [ -118.675142568598062, 36.240735270446713 ], [ -118.67519274312555, 36.240826539144003 ], [ -118.675176118632436, 36.240905449461124 ], [ -118.675168353832234, 36.24093498539311 ], [ -118.675135825610141, 36.240968593962272 ], [ -118.675097448672574, 36.240997021162585 ], [ -118.67496696160309, 36.241027081698917 ], [ -118.674787221291538, 36.241060327605837 ], [ -118.674749391708104, 36.24107883546322 ], [ -118.674615793417814, 36.241054118134585 ], [ -118.674571194347493, 36.240972990222247 ], [ -118.674587271929141, 36.240903999249213 ], [ -118.674626744043962, 36.240855733787043 ], [ -118.67463423527056, 36.240831157512197 ], [ -118.674673707316657, 36.240782892029635 ], [ -118.674761063487622, 36.240756239075928 ], [ -118.674817807607042, 36.240728477262223 ] ] ] ] } },
{ "type": "Feature", "properties": { "id": null, "tree_id": 41 }, "geometry": { "type": "MultiPolygon", "coordinates": [ [ [ [ -118.676461075868801, 36.24074326091737 ], [ -118.6765442245987, 36.240681667588277 ], [ -118.676599873564612, 36.240673743366855 ], [ -118.67672286902895, 36.240668257412416 ], [ -118.676747187616371, 36.240783437040875 ], [ -118.676738602524196, 36.240827851984491 ], [ -118.676699405290236, 36.240871158612435 ], [ -118.676668519526871, 36.240875009912685 ], [ -118.676511251995919, 36.240834529163443 ], [ -118.676472054640016, 36.240877835707884 ], [ -118.676445649394722, 36.240911666349298 ], [ -118.676414216305361, 36.240925436822849 ], [ -118.676334351094255, 36.240927514596045 ], [ -118.676223224602708, 36.240829069804704 ], [ -118.676231536321666, 36.240789614537334 ], [ -118.67625099821268, 36.240770441119196 ], [ -118.6762893746495, 36.240742013510982 ], [ -118.676364211869284, 36.240719875593975 ], [ -118.676400399035956, 36.240731124909303 ], [ -118.676473867989543, 36.240733785024986 ], [ -118.676511697045825, 36.240715276580801 ], [ -118.67651918767433, 36.240690700146303 ], [ -118.676461075868801, 36.24074326091737 ] ] ] ] } },
{ "type": "Feature", "properties": { "id": null, "tree_id": 42 }, "geometry": { "type": "MultiPolygon", "coordinates": [ [ [ [ -118.676823837653856, 36.241506793890004 ], [ -118.676881402597843, 36.241464152214839 ], [ -118.67689474205315, 36.241444757036241 ], [ -118.677011069034307, 36.241448968455693 ], [ -118.677015823410613, 36.24147398822619 ], [ -118.677015549791037, 36.241478947850169 ], [ -118.677025605789467, 36.241519068142985 ], [ -118.677030086553074, 36.241549047537312 ], [ -118.677016199868291, 36.241578361979641 ], [ -118.677003407658646, 36.241587837924435 ], [ -118.676897410040837, 36.241618787160249 ], [ -118.676892655698794, 36.241593767387435 ], [ -118.67688150524836, 36.241573485579799 ], [ -118.676863685062983, 36.241562901358662 ], [ -118.676840563296665, 36.241537216607071 ], [ -118.676823837653856, 36.241506793890004 ] ] ] ] } },
{ "type": "Feature", "properties": { "id": null, "tree_id": 43 }, "geometry": { "type": "MultiPolygon", "coordinates": [ [ [ [ -118.676563887945747, 36.241770706368264 ], [ -118.676628396659183, 36.241713407650856 ], [ -118.676660650980182, 36.241684758276541 ], [ -118.6767474603854, 36.24166802313578 ], [ -118.676839297717052, 36.241671348080601 ], [ -118.676912767593208, 36.241674007985878 ], [ -118.676948681657279, 36.24169021679176 ], [ -118.676960926640703, 36.241690660101426 ], [ -118.67699547260716, 36.241731667012154 ], [ -118.677006075860618, 36.241761868059619 ], [ -118.67699191549687, 36.241796142118844 ], [ -118.676902369677762, 36.241862473660717 ], [ -118.676883454900292, 36.241871727929613 ], [ -118.676816928254581, 36.241854410789884 ], [ -118.67678741028945, 36.241833463983575 ], [ -118.676731760496423, 36.241841388237205 ], [ -118.676644677245903, 36.241863082974213 ], [ -118.676591216625724, 36.241831330191822 ], [ -118.67656973678983, 36.241775887664154 ], [ -118.676629764890549, 36.241688609544624 ], [ -118.676563887945747, 36.241770706368264 ] ] ] ] } },
{ "type": "Feature", "properties": { "id": null, "tree_id": 44 }, "geometry": { "type": "MultiPolygon", "coordinates": [ [ [ [ -118.675100131759905, 36.240281506556464 ], [ -118.675190872377286, 36.24030467110871 ], [ -118.675196447300976, 36.240314812072384 ], [ -118.67523044431384, 36.240365738624476 ], [ -118.67522240588616, 36.240400234180001 ], [ -118.675214367449911, 36.240434729734353 ], [ -118.675187961858484, 36.240468560072401 ], [ -118.675162651150742, 36.240482551952446 ], [ -118.675144284002087, 36.240481886730393 ], [ -118.67511421954849, 36.24047085879608 ], [ -118.675083881372487, 36.240464790466859 ], [ -118.675059391849175, 36.24046390348775 ], [ -118.674998441782463, 36.240456726406528 ], [ -118.674986470760885, 36.240451323297407 ], [ -118.674957501301733, 36.240420456880251 ], [ -118.674935201719038, 36.240379892986567 ], [ -118.674925146897465, 36.240339772593956 ], [ -118.674944882702448, 36.240315639790758 ], [ -118.674970467124353, 36.240296688344159 ], [ -118.67505197402258, 36.240264853771329 ], [ -118.675076737213502, 36.240260781135525 ], [ -118.675100131759905, 36.240281506556464 ] ] ] ] } },
{ "type": "Feature", "properties": { "id": null, "tree_id": 45 }, "geometry": { "type": "MultiPolygon", "coordinates": [ [ [ [ -118.676809642806816, 36.240318562409001 ], [ -118.676908969025632, 36.240297310729041 ], [ -118.676939854552501, 36.240293459350085 ], [ -118.677000257555761, 36.24031055469181 ], [ -118.677015067802827, 36.240375694750199 ], [ -118.676992596479764, 36.24044942418498 ], [ -118.676935032394425, 36.240492065973335 ], [ -118.6768562620842, 36.240474305631366 ], [ -118.67680225501428, 36.240452472243511 ], [ -118.676772737544042, 36.240431525465915 ], [ -118.676730701682615, 36.240415094986467 ], [ -118.676666638961819, 36.240353141240831 ], [ -118.676681072767195, 36.240313907583612 ], [ -118.676737542336568, 36.240291104410069 ], [ -118.676872781964292, 36.240286061576128 ], [ -118.676879177962149, 36.240281323603561 ], [ -118.676809642806816, 36.240318562409001 ] ] ] ] } },
{ "type": "Feature", "properties": { "id": null, "tree_id": 46 }, "geometry": { "type": "MultiPolygon", "coordinates": [ [ [ [ -118.676919707711704, 36.239880258977507 ], [ -118.676955347384293, 36.239901427354354 ], [ -118.677033569954276, 36.239929106845516 ], [ -118.677037777089311, 36.239964045864667 ], [ -118.677003608430667, 36.240027412779803 ], [ -118.676984420522359, 36.24004162672243 ], [ -118.676959383851781, 36.240050659390796 ], [ -118.676850002160265, 36.240031790839886 ], [ -118.676752318006493, 36.240023284752397 ], [ -118.676722253454216, 36.240012257219668 ], [ -118.676675189969188, 36.239975766585445 ], [ -118.676684048578835, 36.239926392014922 ], [ -118.676741612340649, 36.239883750326058 ], [ -118.676798081571917, 36.239860947100567 ], [ -118.676921075759395, 36.239855460854109 ], [ -118.677086926386522, 36.239851525956269 ], [ -118.676919707711704, 36.239880258977507 ] ] ] ] } },
{ "type": "Feature", "properties": { "id": null, "tree_id": 47 }, "geometry": { "type": "MultiPolygon", "coordinates": [ [ [ [ -118.675428622098892, 36.240109530997842 ], [ -118.675453658932824, 36.240100498664233 ], [ -118.675472025999767, 36.240101163832797 ], [ -118.675507117927879, 36.240132251852721 ], [ -118.675536908622107, 36.240148239298726 ], [ -118.675541388784737, 36.240178218710227 ], [ -118.675539472884807, 36.240212936017677 ], [ -118.675525585947753, 36.240242250269418 ], [ -118.675499180557352, 36.240276080690634 ], [ -118.67534420534524, 36.240305254843207 ], [ -118.675308018554119, 36.240294005230133 ], [ -118.6752723792099, 36.240272836379702 ], [ -118.675267899149716, 36.240242856965011 ], [ -118.675258391600707, 36.240192817362498 ], [ -118.675265882548047, 36.240168241028364 ], [ -118.675285344489396, 36.240149067771995 ], [ -118.675354880120267, 36.240111829893763 ], [ -118.675361276186393, 36.24010709200779 ], [ -118.675428622098892, 36.240109530997842 ] ] ] ] } },
{ "type": "Feature", "properties": { "id": null, "tree_id": 48 }, "geometry": { "type": "MultiPolygon", "coordinates": [ [ [ [ -118.676301308044359, 36.241304002323851 ], [ -118.676318580765511, 36.241324505859339 ], [ -118.676296655763494, 36.241388315853243 ], [ -118.676234062797931, 36.241410897062885 ], [ -118.676117735992804, 36.2414066848917 ], [ -118.676119378045428, 36.241376927182777 ], [ -118.676120472745808, 36.241357088710025 ], [ -118.676127689902586, 36.241337471932674 ], [ -118.676159396879839, 36.241318741931444 ], [ -118.676190282832195, 36.241314890776813 ], [ -118.676264299642583, 36.241307631819893 ], [ -118.676263752311669, 36.241317551058252 ], [ -118.676301308044359, 36.241304002323851 ] ] ] ] } },
{ "type": "Feature", "properties": { "id": null, "tree_id": 49 }, "geometry": { "type": "MultiPolygon", "coordinates": [ [ [ [ -118.675585629401127, 36.241377476912888 ], [ -118.675646580261343, 36.241384653744973 ], [ -118.6756454854401, 36.241404492205191 ], [ -118.675623833579962, 36.241463342421376 ], [ -118.675586003962536, 36.241481850543593 ], [ -118.675506685646639, 36.241474008493853 ], [ -118.67548913940557, 36.241458464467144 ], [ -118.675460716837875, 36.24141767890977 ], [ -118.675455689249603, 36.241397618724598 ], [ -118.675487943825516, 36.241368969686683 ], [ -118.675519103526199, 36.241360159095386 ], [ -118.675518829813186, 36.241365118709638 ], [ -118.675585629401127, 36.241377476912888 ] ] ] ] } },
{ "type": "Feature", "properties": { "id": null, "tree_id": 50 }, "geometry": { "type": "MultiPolygon", "coordinates": [ [ [ [ -118.674665644003156, 36.241706931646242 ], [ -118.674682642579839, 36.241732395003346 ], [ -118.674695808398113, 36.24182729287768 ], [ -118.674620422172396, 36.241859348856948 ], [ -118.674504368733281, 36.241850175464918 ], [ -118.674468181397117, 36.241838925558966 ], [ -118.674495682935103, 36.241785257009369 ], [ -118.674516514396899, 36.241741285885588 ], [ -118.674541551858127, 36.241732253787589 ], [ -118.674579381815903, 36.241713746022221 ], [ -118.674616664209765, 36.24170515745967 ], [ -118.674665644003156, 36.241706931646242 ] ] ] ] } }
]
}
