{
"type": "FeatureCollection",
"name": "aiong05_postfire_labels",
"crs": { "type": "name", "properties": { "name": "urn:ogc:def:crs:OGC:1.3:CRS84" } },
"features": [
{ "type": "Feature", "properties": { "id": 1, "tree_id": null }, "geometry": { "type": "MultiPolygon", "coordinates": [ [ [ [ -118.631199431777503, 36.171024838510064 ], [ -118.631053986762879, 36.171049473956806 ], [ -118.631053126160296, 36.170998522448414 ], [ -118.631091157165542, 36.170978945814973 ], [ -118.631108896417132, 36.170925679029743 ], [ -118.631146594895682, 36.170912080813224 ], [ -118.631178944259915, 36.170928239990388 ], [ -118.631199538981946, 36.170890054069254 ], [ -118.631216975202008, 36.170908663312204 ], [ -118.631199402264272, 36.170958940899588 ], [ -118.631139084667282, 36.170980698064952 ], [ -118.631173458405712, 36.171026884224432 ], [ -118.631191393359728, 36.171036525814827 ], [ -118.631199431777503, 36.171024838510064 ] ] ] ] } },
{ "type": "Feature", "properties": { "id": null, "tree_id": 2 }, "geometry": { "type": "MultiPolygon", "coordinates": [ [ [ [ -118.630980359675647, 36.17091199370838 ], [ -118.630950396428673, 36.17098578061718 ], [ -118.630893432987477, 36.171013650881982 ], [ -118.630870452113768, 36.170961890605788 ], [ -118.630908483139848, 36.170942314032416 ], [ -118.630921039551211, 36.170915815452084 ], [ -118.630967108977032, 36.170884551572172 ], [ -118.630986569415853, 36.170933187822335 ], [ -118.630980359675647, 36.17091199370838 ] ] ] ] } },
{ "type": "Feature", "properties": { "id": null, "tree_id": 3 }, "geometry": { "type": "MultiPolygon", "coordinates": [ [ [ [ -118.63091751907173, 36.17091269143959 ], [ -118.630889521494211, 36.170884710118393 ], [ -118.630925528219976, 36.170835106559252 ], [ -118.630963559169359, 36.17081552996288 ], [ -118.63096641466673, 36.170830610847688 ], [ -118.630968438939306, 36.170860637824696 ], [ -118.630966443995305, 36.170896508445857 ], [ -118.63092505877249, 36.170909971809756 ], [ -118.63091751907173, 36.17091269143959 ] ] ] ] } },
{ "type": "Feature", "properties": { "id": null, "tree_id": 4 }, "geometry": { "type": "MultiPolygon", "coordinates": [ [ [ [ -118.631058445917617, 36.170902867448547 ], [ -118.631014537682503, 36.170895271523712 ], [ -118.630990393042936, 36.170864435796773 ], [ -118.631024737269144, 36.170844724388893 ], [ -118.631061105786841, 36.170855039947803 ], [ -118.631058944643584, 36.170893899792212 ], [ -118.631058445917617, 36.170902867448547 ] ] ] ] } },
{ "type": "Feature", "properties": { "id": null, "tree_id": 5 }, "geometry": { "type": "MultiPolygon", "coordinates": [ [ [ [ -118.631288400703866, 36.170620730761591 ], [ -118.631252560542038, 36.170667345234264 ], [ -118.631240004287577, 36.170693843860661 ], [ -118.631221238228122, 36.170699148379811 ], [ -118.631196594849214, 36.170677280350908 ], [ -118.631288400703866, 36.170620730761591 ] ] ] ] } },
{ "type": "Feature", "properties": { "id": null, "tree_id": 6 }, "geometry": { "type": "MultiPolygon", "coordinates": [ [ [ [ -118.631059687610289, 36.170681260885836 ], [ -118.631023182318927, 36.17073983215316 ], [ -118.630956987622028, 36.170734416686962 ], [ -118.630925166427886, 36.170775187399563 ], [ -118.630865680159204, 36.170781998340857 ], [ -118.630827815455916, 36.170798585687614 ], [ -118.630841203112851, 36.170757141025717 ], [ -118.630855255747832, 36.1707037394889 ], [ -118.630906204797355, 36.17071758348898 ], [ -118.630959481292066, 36.170689578409863 ], [ -118.630977582387445, 36.170696230807181 ], [ -118.630982266566164, 36.170678430287424 ], [ -118.631018106885975, 36.170631815907342 ], [ -118.631116455033037, 36.170590482130535 ], [ -118.631082306629878, 36.170673101962095 ], [ -118.631059687610289, 36.170681260885836 ] ] ] ] } },
{ "type": "Feature", "properties": { "id": null, "tree_id": 7 }, "geometry": { "type": "MultiPolygon", "coordinates": [ [ [ [ -118.630665071903294, 36.170735724592284 ], [ -118.630661081753502, 36.170807465806647 ], [ -118.630629426638066, 36.170845247210288 ], [ -118.63057226794659, 36.1708102089625 ], [ -118.630585988256527, 36.170762785904785 ], [ -118.63063943114004, 36.170731791761568 ], [ -118.630665071903294, 36.170735724592284 ] ] ] ] } },
{ "type": "Feature", "properties": { "id": null, "tree_id": 8 }, "geometry": { "type": "MultiPolygon", "coordinates": [ [ [ [ -118.631817203162868, 36.17047831590979 ], [ -118.631837162699171, 36.170517984386457 ], [ -118.631800658052555, 36.170576555937743 ], [ -118.631757913390317, 36.170548035741199 ], [ -118.631779172570646, 36.170497892804846 ], [ -118.631765423000473, 36.170479418407176 ], [ -118.631802290108396, 36.1704807660699 ], [ -118.631817203162868, 36.17047831590979 ] ] ] ] } },
{ "type": "Feature", "properties": { "id": null, "tree_id": 9 }, "geometry": { "type": "MultiPolygon", "coordinates": [ [ [ [ -118.631378045466406, 36.170603040955022 ], [ -118.631345892080859, 36.170649790239317 ], [ -118.631300292004255, 36.17060618900755 ], [ -118.631359611893998, 36.170602367057811 ], [ -118.631378045466406, 36.170603040955022 ] ] ] ] } },
{ "type": "Feature", "properties": { "id": null, "tree_id": 10 }, "geometry": { "type": "MultiPolygon", "coordinates": [ [ [ [ -118.630919367527952, 36.1705473328376 ], [ -118.630900630785561, 36.170618534903895 ], [ -118.630793520663275, 36.170551717460384 ], [ -118.630911827863201, 36.170550052469544 ], [ -118.630919367527952, 36.1705473328376 ] ] ] ] } },
{ "type": "Feature", "properties": { "id": null, "tree_id": 11 }, "geometry": { "type": "MultiPolygon", "coordinates": [ [ [ [ -118.630788503952516, 36.170575496406308 ], [ -118.630788865655063, 36.170635415560625 ], [ -118.630745622612295, 36.170615862677636 ], [ -118.630747950140133, 36.170574013630002 ], [ -118.630788503952516, 36.170575496406308 ] ] ] ] } },
{ "type": "Feature", "properties": { "id": null, "tree_id": 12 }, "geometry": { "type": "MultiPolygon", "coordinates": [ [ [ [ -118.630670196724225, 36.170577161272007 ], [ -118.630667536644467, 36.170624988749985 ], [ -118.630634356236797, 36.170623775535446 ], [ -118.630595298728565, 36.170595389751583 ], [ -118.630629809173683, 36.170572689238362 ], [ -118.630670196724225, 36.170577161272007 ] ] ] ] } },
{ "type": "Feature", "properties": { "id": null, "tree_id": 13 }, "geometry": { "type": "MultiPolygon", "coordinates": [ [ [ [ -118.60504100861283, 36.206511154878228 ], [ -118.604567724566579, 36.206507951514396 ], [ -118.604528475002752, 36.20637386644421 ], [ -118.604755969525627, 36.206382237590368 ], [ -118.604989569088545, 36.206490313525492 ], [ -118.60504100861283, 36.206511154878228 ] ] ] ] } },
{ "type": "Feature", "properties": { "id": null, "tree_id": 14 }, "geometry": { "type": "MultiPolygon", "coordinates": [ [ [ [ -118.604477016912654, 36.206040370961198 ], [ -118.604386870786882, 36.206084425395787 ], [ -118.604238922596764, 36.206116878292818 ], [ -118.60408142701985, 36.20611108228583 ], [ -118.603949383277879, 36.20606832541975 ], [ -118.603892905888586, 36.206033086694774 ], [ -118.603916762761727, 36.205920272643567 ], [ -118.603817599165737, 36.205916623079943 ], [ -118.603817599165737, 36.205916623079943 ], [ -118.603861874848505, 36.205856669390215 ], [ -118.604025203018935, 36.205862680323591 ], [ -118.604153532329647, 36.205867403044053 ], [ -118.604263567605443, 36.205885663914856 ], [ -118.604329592467408, 36.205959151169047 ], [ -118.604420539278692, 36.206005132471155 ], [ -118.604477281770542, 36.206035643537298 ], [ -118.604477016912654, 36.206040370961198 ] ] ] ] } },
{ "type": "Feature", "properties": { "id": null, "tree_id": 15 }, "geometry": { "type": "MultiPolygon", "coordinates": [ [ [ [ -118.605592733811292, 36.205948781492488 ], [ -118.605511606724278, 36.206040540327585 ], [ -118.60535596466498, 36.206001653999422 ], [ -118.60521410761433, 36.205925377279627 ], [ -118.60508285788525, 36.205868439362582 ], [ -118.604990844471828, 36.205737150231847 ], [ -118.604937544706942, 36.205645182857914 ], [ -118.605135871530777, 36.205652480000509 ], [ -118.605281435317366, 36.205662572766997 ], [ -118.605422497598042, 36.205753031671286 ], [ -118.605468376076459, 36.205873148851808 ], [ -118.605587959803472, 36.205929657171936 ], [ -118.605592733811292, 36.205948781492488 ] ] ] ] } },
{ "type": "Feature", "properties": { "id": null, "tree_id": 16 }, "geometry": { "type": "MultiPolygon", "coordinates": [ [ [ [ -118.605531170346651, 36.20527383813927 ], [ -118.60526125816709, 36.205292331008067 ], [ -118.605125514866501, 36.205419977539904 ], [ -118.604992941918695, 36.20538667672291 ], [ -118.604960591410801, 36.205338114707025 ], [ -118.605005388417112, 36.20516448761559 ], [ -118.604991059807247, 36.205002896581533 ], [ -118.604931655485132, 36.204811224005972 ], [ -118.604727762592276, 36.204798984611358 ], [ -118.604631785010781, 36.204842824712294 ], [ -118.604327146965375, 36.204959518276809 ], [ -118.6040959425697, 36.204913112554721 ], [ -118.604101769693074, 36.204809109261561 ], [ -118.603825485071312, 36.204628403280154 ], [ -118.603691584224421, 36.204514520321219 ], [ -118.603791270204198, 36.204404497093009 ], [ -118.604533920624533, 36.204398666710119 ], [ -118.605001094056661, 36.204406382146367 ], [ -118.605487885183194, 36.204376920087746 ], [ -118.605564781923221, 36.204465018145278 ], [ -118.605574080949268, 36.204716430402335 ], [ -118.605593979088312, 36.204882963473466 ], [ -118.605457964533514, 36.204911119827685 ], [ -118.605342104717295, 36.204996863597991 ], [ -118.605413168716467, 36.205084747173103 ], [ -118.605500665268039, 36.20508796615065 ], [ -118.605640659779382, 36.205093116382166 ], [ -118.60561786485485, 36.205187021249628 ], [ -118.605566963410112, 36.205260943414892 ], [ -118.605531170346651, 36.20527383813927 ] ] ] ] } },
{ "type": "Feature", "properties": { "id": null, "tree_id": 17 }, "geometry": { "type": "MultiPolygon", "coordinates": [ [ [ [ -118.603219680368824, 36.205425636223545 ], [ -118.603256803189666, 36.205493323013854 ], [ -118.603158439624423, 36.205579708555234 ], [ -118.603019239537176, 36.205560373115894 ], [ -118.602909735015274, 36.20553265631856 ], [ -118.602915563840028, 36.205428653202183 ], [ -118.602930144451406, 36.205377081089843 ], [ -118.603052374736549, 36.205386317628481 ], [ -118.603183092124453, 36.20545271245971 ], [ -118.603219680368824, 36.205425636223545 ] ] ] ] } },
{ "type": "Feature", "properties": { "id": null, "tree_id": 18 }, "geometry": { "type": "MultiPolygon", "coordinates": [ [ [ [ -118.603400746852131, 36.204906475210834 ], [ -118.603365488458437, 36.205014132325203 ], [ -118.603219126821571, 36.20491400169324 ], [ -118.603271089793282, 36.20482117099516 ], [ -118.603444757277586, 36.204851249069741 ], [ -118.603411883178111, 36.204916359441896 ], [ -118.603400746852131, 36.204906475210834 ] ] ] ] } },
{ "type": "Feature", "properties": { "id": null, "tree_id": 19 }, "geometry": { "type": "MultiPolygon", "coordinates": [ [ [ [ -118.603216728153555, 36.204643894813046 ], [ -118.603200028539689, 36.204733286321776 ], [ -118.603176696302057, 36.204732427492686 ], [ -118.603090525062456, 36.204705569762723 ], [ -118.60309184970356, 36.204681932682028 ], [ -118.603124194090086, 36.204626277240642 ], [ -118.603200023758191, 36.204629068444838 ], [ -118.603216728153555, 36.204643894813046 ] ] ] ] } },
{ "type": "Feature", "properties": { "id": null, "tree_id": 20 }, "geometry": { "type": "MultiPolygon", "coordinates": [ [ [ [ -118.60352888575909, 36.206479194329276 ], [ -118.603564949590705, 36.206565790738196 ], [ -118.603448020710772, 36.206566224133809 ], [ -118.603420444282861, 36.206536786110036 ], [ -118.60343449500084, 36.206494668767853 ], [ -118.603522522728241, 36.206488434464518 ], [ -118.60352888575909, 36.206479194329276 ] ] ] ] } },
{ "type": "Feature", "properties": { "id": null, "tree_id": 21 }, "geometry": { "type": "MultiPolygon", "coordinates": [ [ [ [ -118.603514565222781, 36.20642182122014 ], [ -118.603498925038465, 36.206492303079933 ], [ -118.603446426309375, 36.206490370758772 ], [ -118.603398166415758, 36.206412799747611 ], [ -118.603508996955355, 36.206416879102591 ], [ -118.603514565222781, 36.20642182122014 ] ] ] ] } },
{ "type": "Feature", "properties": { "id": null, "tree_id": 22 }, "geometry": { "type": "MultiPolygon", "coordinates": [ [ [ [ -118.674928755770537, 36.240843574748283 ], [ -118.674804671842622, 36.240935487900131 ], [ -118.674636948219742, 36.240988740355611 ], [ -118.674550078080557, 36.240904018057265 ], [ -118.674591526157613, 36.240816527862712 ], [ -118.674640476387339, 36.240758973255147 ], [ -118.674706065201036, 36.240731685166082 ], [ -118.674781198871884, 36.24069732680136 ], [ -118.674889201420598, 36.240730902601136 ], [ -118.674930389795904, 36.240813970071216 ], [ -118.674928755770537, 36.240843574748283 ] ] ] ] } },
{ "type": "Feature", "properties": { "id": null, "tree_id": 23 }, "geometry": { "type": "MultiPolygon", "coordinates": [ [ [ [ -118.67584942930722, 36.241744586286899 ], [ -118.67584207748385, 36.241877807473301 ], [ -118.675636172365628, 36.241959342497459 ], [ -118.675536337080501, 36.241777743765688 ], [ -118.675681704453339, 36.241797840138481 ], [ -118.675632195239373, 36.241699639625274 ], [ -118.675799103029078, 36.241661188184345 ], [ -118.67584942930722, 36.241744586286899 ] ] ] ] } },
{ "type": "Feature", "properties": { "id": null, "tree_id": 24 }, "geometry": { "type": "MultiPolygon", "coordinates": [ [ [ [ -118.675816318662314, 36.240519752563785 ], [ -118.67580309809226, 36.24059343349451 ], [ -118.675672329738774, 36.240640609732004 ], [ -118.675526147595662, 36.240635315840649 ], [ -118.675530232060325, 36.240561304086498 ], [ -118.675594186683298, 36.240563620179628 ], [ -118.675595003562435, 36.24054881782741 ], [ -118.675580815219647, 36.240474144330179 ], [ -118.675546720417998, 36.240428413796707 ], [ -118.675611491806166, 36.240415927520857 ], [ -118.675558715862593, 36.240376936435354 ], [ -118.675660441047398, 36.240358372424247 ], [ -118.675733531869341, 36.240361019292791 ], [ -118.675733531869341, 36.240361019292791 ], [ -118.675767626760361, 36.240406749778593 ], [ -118.675783857380353, 36.240444417374967 ], [ -118.675816318662314, 36.240519752563785 ] ] ] ] } },
{ "type": "Feature", "properties": { "id": null, "tree_id": 25 }, "geometry": { "type": "MultiPolygon", "coordinates": [ [ [ [ -118.676882264875204, 36.24177456758828 ], [ -118.676669674545678, 36.241811366595513 ], [ -118.676545438406535, 36.241740124733269 ], [ -118.676463209699705, 36.241737147463994 ], [ -118.67650220601881, 36.241694063600391 ], [ -118.676634200864768, 36.241624682988338 ], [ -118.676748075356812, 36.241717797521815 ], [ -118.676850618816232, 36.241684430222946 ], [ -118.676882264875204, 36.24177456758828 ] ] ] ] } },
{ "type": "Feature", "properties": { "id": null, "tree_id": 26 }, "geometry": { "type": "MultiPolygon", "coordinates": [ [ [ [ -118.676080806514463, 36.24136733449582 ], [ -118.676058041073304, 36.241448085796044 ], [ -118.675938858376455, 36.241451186002045 ], [ -118.675837948645878, 36.241454947802396 ], [ -118.675870259211308, 36.241367126235581 ], [ -118.675935848197113, 36.241339837477206 ], [ -118.676037166191875, 36.241328674404137 ], [ -118.676080806514463, 36.24136733449582 ] ] ] ] } },
{ "type": "Feature", "properties": { "id": null, "tree_id": 27 }, "geometry": { "type": "MultiPolygon", "coordinates": [ [ [ [ -118.67678707176033, 36.240347254795829 ], [ -118.676653037615068, 36.240453641675174 ], [ -118.676546667906536, 36.240390462704859 ], [ -118.67656902408892, 36.240317112432429 ], [ -118.676754201244776, 36.240279320999548 ], [ -118.676797024770948, 36.240332783194376 ], [ -118.67678707176033, 36.240347254795829 ] ] ] ] } },
{ "type": "Feature", "properties": { "id": null, "tree_id": 28 }, "geometry": { "type": "MultiPolygon", "coordinates": [ [ [ [ -118.675038352468249, 36.240350674587226 ], [ -118.674931316703322, 36.240465453265756 ], [ -118.674826731689492, 36.240535824813989 ], [ -118.674766045290596, 36.24047429896774 ], [ -118.674773807076477, 36.240333676771492 ], [ -118.67487880034686, 36.240255904083547 ], [ -118.674994713215753, 36.240312014182024 ], [ -118.675038352468249, 36.240350674587226 ] ] ] ] } },
{ "type": "Feature", "properties": { "id": null, "tree_id": 29 }, "geometry": { "type": "MultiPolygon", "coordinates": [ [ [ [ -118.674840549476158, 36.241114770584211 ], [ -118.674807420869485, 36.241217394138936 ], [ -118.674661646357038, 36.241204697952377 ], [ -118.674676502289998, 36.241101412567318 ], [ -118.674734180553259, 36.241051590039433 ], [ -118.674840549476158, 36.241114770584211 ] ] ] ] } },
{ "type": "Feature", "properties": { "id": null, "tree_id": 30 }, "geometry": { "type": "MultiPolygon", "coordinates": [ [ [ [ -118.674722779222279, 36.241755693686777 ], [ -118.674711748596792, 36.241955525166411 ], [ -118.674482370246423, 36.241798897056775 ], [ -118.674433271154953, 36.241693294983413 ], [ -118.674635091123605, 36.241685773725791 ], [ -118.674700272208867, 36.241665886861135 ], [ -118.674722779222279, 36.241755693686777 ] ] ] ] } },
{ "type": "Feature", "properties": { "id": null, "tree_id": 31 }, "geometry": { "type": "MultiPolygon", "coordinates": [ [ [ [ -118.70658527221363, 36.204225682076377 ], [ -118.706582986499754, 36.204185738557811 ], [ -118.706582481769757, 36.204113245197838 ], [ -118.706639900243573, 36.20412618006123 ], [ -118.706667179883752, 36.204199635685569 ], [ -118.70658527221363, 36.204225682076377 ] ] ] ] } },
{ "type": "Feature", "properties": { "id": null, "tree_id": 32 }, "geometry": { "type": "MultiPolygon", "coordinates": [ [ [ [ -118.705974889557282, 36.203678072332657 ], [ -118.705970766253344, 36.203753421612838 ], [ -118.705914175391001, 36.203751387466603 ], [ -118.705857486467536, 36.203677134781174 ], [ -118.705884249552881, 36.203632141797058 ], [ -118.705955933475039, 36.203654413467611 ], [ -118.705974889557282, 36.203678072332657 ] ] ] ] } },
{ "type": "Feature", "properties": { "id": null, "tree_id": 33 }, "geometry": { "type": "MultiPolygon", "coordinates": [ [ [ [ -118.706531736724003, 36.203789996622831 ], [ -118.706520605023385, 36.203845399055261 ], [ -118.70643976078307, 36.20384249348897 ], [ -118.706441911846468, 36.203803180797593 ], [ -118.706376420924016, 36.203741741994492 ], [ -118.706449897657919, 36.203731252808083 ], [ -118.706512242685022, 36.203776166007408 ], [ -118.706531736724003, 36.203789996622831 ] ] ] ] } },
{ "type": "Feature", "properties": { "id": null, "tree_id": 34 }, "geometry": { "type": "MultiPolygon", "coordinates": [ [ [ [ -118.706066639738097, 36.203999772678145 ], [ -118.70602370772643, 36.204044184523219 ], [ -118.70595112705027, 36.204038293146247 ], [ -118.70595274054304, 36.204008808647615 ], [ -118.705936473556889, 36.20393600894463 ], [ -118.706017317839922, 36.203938914857311 ], [ -118.706063135336777, 36.203989799217567 ], [ -118.706066639738097, 36.203999772678145 ] ] ] ] } },
{ "type": "Feature", "properties": { "id": null, "tree_id": 35 }, "geometry": { "type": "MultiPolygon", "coordinates": [ [ [ [ -118.705649867813705, 36.20421456650238 ], [ -118.70561942072186, 36.204252861991961 ], [ -118.70558132925828, 36.204208820199298 ], [ -118.705533181139572, 36.20420052436338 ], [ -118.7055500672205, 36.204188001394087 ], [ -118.705611059179759, 36.204183628934764 ], [ -118.705649867813705, 36.20421456650238 ] ] ] ] } },
{ "type": "Feature", "properties": { "id": null, "tree_id": 36 }, "geometry": { "type": "MultiPolygon", "coordinates": [ [ [ [ -118.705608190153129, 36.203421986012096 ], [ -118.705602811519498, 36.203520267638488 ], [ -118.705565877580597, 36.203381074985529 ], [ -118.705522228514326, 36.203438590872821 ], [ -118.70549877409178, 36.203349120252383 ], [ -118.705584197770335, 36.203342343564735 ], [ -118.705608190153129, 36.203421986012096 ] ] ] ] } },
{ "type": "Feature", "properties": { "id": null, "tree_id": 37 }, "geometry": { "type": "MultiPolygon", "coordinates": [ [ [ [ -118.70604982957417, 36.203122741030597 ], [ -118.706029358451687, 36.203200785217241 ], [ -118.70596557998536, 36.203182080259005 ], [ -118.705972131947874, 36.203136360768951 ], [ -118.70604982957417, 36.203122741030597 ] ] ] ] } },
{ "type": "Feature", "properties": { "id": null, "tree_id": 38 }, "geometry": { "type": "MultiPolygon", "coordinates": [ [ [ [ -118.706032526370549, 36.204179083984187 ], [ -118.705981689051399, 36.204219929160068 ], [ -118.70593640932691, 36.204159216598661 ], [ -118.706005485713106, 36.20415513452987 ], [ -118.706061897599625, 36.204160444708187 ], [ -118.706032526370549, 36.204179083984187 ] ] ] ] } },
{ "type": "Feature", "properties": { "id": null, "tree_id": 39 }, "geometry": { "type": "MultiPolygon", "coordinates": [ [ [ [ -118.706772495476585, 36.203979186744021 ], [ -118.706729026117856, 36.204033427047136 ], [ -118.706589618794283, 36.204064524408949 ], [ -118.70652888678157, 36.203990126712249 ], [ -118.706674048219398, 36.204001908719327 ], [ -118.706772495476585, 36.203979186744021 ] ] ] ] } },
{ "type": "Feature", "properties": { "id": null, "tree_id": 40 }, "geometry": { "type": "MultiPolygon", "coordinates": [ [ [ [ -118.706165670997549, 36.203596302223879 ], [ -118.706124271739228, 36.203686724203813 ], [ -118.706103424625454, 36.20362360739388 ], [ -118.70601835918788, 36.203623832323913 ], [ -118.706020510444816, 36.20358451965285 ], [ -118.7061180609643, 36.203578178475318 ], [ -118.706140521480691, 36.203611810775165 ], [ -118.706165670997549, 36.203596302223879 ] ] ] ] } }
]
}
