{
"type": "FeatureCollection",
"name": "enrique9_mortalitree_postfiree_labels",
"crs": { "type": "name", "properties": { "name": "urn:ogc:def:crs:OGC:1.3:CRS84" } },
"features": [
{ "type": "Feature", "properties": { "id": null }, "geometry": { "type": "MultiPolygon", "coordinates": [ [ [ [ -119.426338368514635, 37.31161652555479 ], [ -119.42632353071177, 37.311929589817119 ], [ -119.425450891033734, 37.311903200005396 ], [ -119.425465732440955, 37.311590136040287 ], [ -119.426338368514635, 37.31161652555479 ] ] ] ] } },
{ "type": "Feature", "properties": { "id": null }, "geometry": { "type": "MultiPolygon", "coordinates": [ [ [ [ -119.425271719517454, 37.311542860635207 ], [ -119.42525519706912, 37.311891365731412 ], [ -119.424722739716685, 37.311875259443937 ], [ -119.424739264613223, 37.311526754549668 ], [ -119.425271719517454, 37.311542860635207 ] ] ] ] } },
{ "type": "Feature", "properties": { "id": null }, "geometry": { "type": "MultiPolygon", "coordinates": [ [ [ [ -119.424564047765756, 37.311317374868274 ], [ -119.424541640130613, 37.311789923797143 ], [ -119.424238435841403, 37.311780750647081 ], [ -119.424260845366859, 37.311308201874148 ], [ -119.424564047765756, 37.311317374868274 ] ] ] ] } },
{ "type": "Feature", "properties": { "id": null }, "geometry": { "type": "MultiPolygon", "coordinates": [ [ [ [ -119.426356903685672, 37.311303573075868 ], [ -119.426346265459713, 37.311528034263702 ], [ -119.425436654364646, 37.311500526523716 ], [ -119.425447295284314, 37.311276065558019 ], [ -119.426356903685672, 37.311303573075868 ] ] ] ] } },
{ "type": "Feature", "properties": { "id": null }, "geometry": { "type": "MultiPolygon", "coordinates": [ [ [ [ -119.426853831304015, 37.311913089312213 ], [ -119.426808203413671, 37.31287591001572 ], [ -119.426549366110692, 37.312868084090553 ], [ -119.426594997289115, 37.311905263658133 ], [ -119.426853831304015, 37.311913089312213 ] ] ] ] } },
{ "type": "Feature", "properties": { "id": null }, "geometry": { "type": "MultiPolygon", "coordinates": [ [ [ [ -119.426404096889186, 37.312026671332731 ], [ -119.426392898608327, 37.312262946250293 ], [ -119.425675555907006, 37.312241253656133 ], [ -119.425686756424057, 37.312004978922971 ], [ -119.426404096889186, 37.312026671332731 ] ] ] ] } },
{ "type": "Feature", "properties": { "id": null }, "geometry": { "type": "MultiPolygon", "coordinates": [ [ [ [ -119.425407894103088, 37.312029079286205 ], [ -119.425389691762462, 37.312413025602716 ], [ -119.424716720152617, 37.312392669169832 ], [ -119.424734925902257, 37.312008723134511 ], [ -119.425407894103088, 37.312029079286205 ] ] ] ] } },
{ "type": "Feature", "properties": { "id": null }, "geometry": { "type": "MultiPolygon", "coordinates": [ [ [ [ -119.425269826770176, 37.312441934485861 ], [ -119.425252743669688, 37.312802253258134 ], [ -119.424801628499338, 37.312788607516225 ], [ -119.424818713744429, 37.312428288920849 ], [ -119.425269826770176, 37.312441934485861 ] ] ] ] } },
{ "type": "Feature", "properties": { "id": null }, "geometry": { "type": "MultiPolygon", "coordinates": [ [ [ [ -119.424440124849667, 37.312212756740323 ], [ -119.424426959545627, 37.312490379162355 ], [ -119.424279053643431, 37.312485904337237 ], [ -119.424292219489232, 37.312208281959897 ], [ -119.424440124849667, 37.312212756740323 ] ] ] ] } },
{ "type": "Feature", "properties": { "id": null }, "geometry": { "type": "MultiPolygon", "coordinates": [ [ [ [ -119.42567368904966, 37.312788365827572 ], [ -119.425662488174552, 37.313024640526059 ], [ -119.425451720497563, 37.313018265967543 ], [ -119.425462922029723, 37.312781991323249 ], [ -119.42567368904966, 37.312788365827572 ] ] ] ] } },
{ "type": "Feature", "properties": { "id": null }, "geometry": { "type": "MultiPolygon", "coordinates": [ [ [ [ -119.426419113987379, 37.312608307357863 ], [ -119.426407075627623, 37.312862302872915 ], [ -119.425815448019591, 37.312844412214233 ], [ -119.425827488362017, 37.312590416862648 ], [ -119.426419113987379, 37.312608307357863 ] ] ] ] } },
{ "type": "Feature", "properties": { "id": null }, "geometry": { "type": "MultiPolygon", "coordinates": [ [ [ [ -119.426698830481016, 37.312956896770572 ], [ -119.426682593722674, 37.313299495453464 ], [ -119.426076171736753, 37.313281158720159 ], [ -119.426092411236269, 37.312938560263269 ], [ -119.426698830481016, 37.312956896770572 ] ] ] ] } },
{ "type": "Feature", "properties": { "id": null }, "geometry": { "type": "MultiPolygon", "coordinates": [ [ [ [ -119.425907222671881, 37.313095631789608 ], [ -119.42589294230649, 37.313396882089243 ], [ -119.425449218658827, 37.313383462280974 ], [ -119.425463500787927, 37.313082212126773 ], [ -119.425907222671881, 37.313095631789608 ] ] ] ] } },
{ "type": "Feature", "properties": { "id": null }, "geometry": { "type": "MultiPolygon", "coordinates": [ [ [ [ -119.425131632964693, 37.312974571188811 ], [ -119.425115389083942, 37.313317169283764 ], [ -119.424649480149654, 37.313303075405713 ], [ -119.424665726136439, 37.312960477484452 ], [ -119.425131632964693, 37.312974571188811 ] ] ] ] } },
{ "type": "Feature", "properties": { "id": null }, "geometry": { "type": "MultiPolygon", "coordinates": [ [ [ [ -119.424462942177485, 37.312785755658787 ], [ -119.424446135133522, 37.313140167232881 ], [ -119.424246460450519, 37.313134126118527 ], [ -119.424263268428192, 37.312779714621456 ], [ -119.424462942177485, 37.312785755658787 ] ] ] ] } },
{ "type": "Feature", "properties": { "id": null }, "geometry": { "type": "MultiPolygon", "coordinates": [ [ [ [ -119.425146097045513, 37.311380825685426 ], [ -119.425140776132537, 37.311493056130736 ], [ -119.424700761638732, 37.311479745940218 ], [ -119.424706083203247, 37.31136751554866 ], [ -119.425146097045513, 37.311380825685426 ] ] ] ] } },
{ "type": "Feature", "properties": { "id": null }, "geometry": { "type": "MultiPolygon", "coordinates": [ [ [ [ -119.424697963193395, 37.311929226772207 ], [ -119.424685639247244, 37.312189128700361 ], [ -119.424256713811161, 37.312176152225945 ], [ -119.424269039228108, 37.311916250419124 ], [ -119.424697963193395, 37.311929226772207 ] ] ] ] } },
{ "type": "Feature", "properties": { "id": null }, "geometry": { "type": "MultiPolygon", "coordinates": [ [ [ [ -119.439161955575003, 37.298184844431994 ], [ -119.43915501794153, 37.298331823053573 ], [ -119.438862814494556, 37.298323020086045 ], [ -119.438869752694401, 37.29817604151102 ], [ -119.439161955575003, 37.298184844431994 ] ] ] ] } },
{ "type": "Feature", "properties": { "id": null }, "geometry": { "type": "MultiPolygon", "coordinates": [ [ [ [ -119.440364459290805, 37.298195089219291 ], [ -119.440357931954622, 37.298333422220622 ], [ -119.439741057338907, 37.298314843603094 ], [ -119.439747585800433, 37.298176510694226 ], [ -119.440364459290805, 37.298195089219291 ] ] ] ] } },
{ "type": "Feature", "properties": { "id": null }, "geometry": { "type": "MultiPolygon", "coordinates": [ [ [ [ -119.439921161332379, 37.298402520108944 ], [ -119.439913409093492, 37.298566790462509 ], [ -119.439512980603581, 37.298554729455439 ], [ -119.439520733709898, 37.298390459173156 ], [ -119.439921161332379, 37.298402520108944 ] ] ] ] } },
{ "type": "Feature", "properties": { "id": null }, "geometry": { "type": "MultiPolygon", "coordinates": [ [ [ [ -119.44042971679832, 37.298534720236312 ], [ -119.440421149712108, 37.298716282302166 ], [ -119.44002072020831, 37.298704222971935 ], [ -119.440029288253299, 37.298522660984851 ], [ -119.44042971679832, 37.298534720236312 ] ] ] ] } },
{ "type": "Feature", "properties": { "id": null }, "geometry": { "type": "MultiPolygon", "coordinates": [ [ [ [ -119.440480757398305, 37.2983717534037 ], [ -119.440477901769157, 37.298432274098154 ], [ -119.440391322716962, 37.298429666848278 ], [ -119.440394178415204, 37.298369146159509 ], [ -119.440480757398305, 37.2983717534037 ] ] ] ] } },
{ "type": "Feature", "properties": { "id": null }, "geometry": { "type": "MultiPolygon", "coordinates": [ [ [ [ -119.439811830114678, 37.298767196271648 ], [ -119.439808157848333, 37.298845008531075 ], [ -119.439754045683188, 37.298843378685788 ], [ -119.439757718005083, 37.29876556643093 ], [ -119.439811830114678, 37.298767196271648 ] ] ] ] } },
{ "type": "Feature", "properties": { "id": null }, "geometry": { "type": "MultiPolygon", "coordinates": [ [ [ [ -119.439761195790993, 37.298921516911271 ], [ -119.439760787754025, 37.298930162717241 ], [ -119.439728320419476, 37.298929184798133 ], [ -119.439728728460167, 37.298920538992483 ], [ -119.439761195790993, 37.298921516911271 ] ] ] ] } },
{ "type": "Feature", "properties": { "id": null }, "geometry": { "type": "MultiPolygon", "coordinates": [ ] } },
{ "type": "Feature", "properties": { "id": null }, "geometry": { "type": "MultiPolygon", "coordinates": [ [ [ [ -119.439530145540218, 37.298879925081629 ], [ -119.439526064904371, 37.298966383119392 ], [ -119.439277148657226, 37.298958885012766 ], [ -119.439281229576892, 37.298872426998329 ], [ -119.439530145540218, 37.298879925081629 ] ] ] ] } },
{ "type": "Feature", "properties": { "id": null }, "geometry": { "type": "MultiPolygon", "coordinates": [ [ [ [ -119.440055248194312, 37.299120851514786 ], [ -119.440046680026441, 37.299302413488618 ], [ -119.439916810017223, 37.299298502039534 ], [ -119.439925378496071, 37.299116940091238 ], [ -119.440055248194312, 37.299120851514786 ] ] ] ] } },
{ "type": "Feature", "properties": { "id": null }, "geometry": { "type": "MultiPolygon", "coordinates": [ [ [ [ -119.440356033741296, 37.299177529578706 ], [ -119.440348690206775, 37.299333154177624 ], [ -119.44014306255248, 37.29932696150464 ], [ -119.440150406509019, 37.29917133694039 ], [ -119.440356033741296, 37.299177529578706 ] ] ] ] } },
{ "type": "Feature", "properties": { "id": null }, "geometry": { "type": "MultiPolygon", "coordinates": [ [ [ [ -119.440299484431435, 37.299457214737103 ], [ -119.440294588620873, 37.299560964459005 ], [ -119.44009978289705, 37.299555097605612 ], [ -119.440104678974151, 37.299451347905617 ], [ -119.440299484431435, 37.299457214737103 ] ] ] ] } },
{ "type": "Feature", "properties": { "id": null }, "geometry": { "type": "MultiPolygon", "coordinates": [ [ [ [ -119.439949802404129, 37.299632832420158 ], [ -119.439942865940594, 37.299779811131835 ], [ -119.439791349991737, 37.29977524757831 ], [ -119.439798286748982, 37.299628268890743 ], [ -119.439949802404129, 37.299632832420158 ] ] ] ] } },
{ "type": "Feature", "properties": { "id": null }, "geometry": { "type": "MultiPolygon", "coordinates": [ [ [ [ -119.439655136328298, 37.299446466185024 ], [ -119.439649423516485, 37.299567507442326 ], [ -119.439573665774972, 37.299565225512929 ], [ -119.439579378707691, 37.29944418426556 ], [ -119.439655136328298, 37.299446466185024 ] ] ] ] } },
{ "type": "Feature", "properties": { "id": null }, "geometry": { "type": "MultiPolygon", "coordinates": [ [ [ [ -119.439813792259528, 37.299299728277795 ], [ -119.439810527962422, 37.299368894724608 ], [ -119.439637367847823, 37.299363679074162 ], [ -119.439640632302869, 37.299294512640344 ], [ -119.439813792259528, 37.299299728277795 ] ] ] ] } },
{ "type": "Feature", "properties": { "id": null }, "geometry": { "type": "MultiPolygon", "coordinates": [ [ [ [ -119.439456853936377, 37.299284647847344 ], [ -119.439447876198543, 37.299474855500065 ], [ -119.439231425844099, 37.299468335218585 ], [ -119.439240404124888, 37.299278127610478 ], [ -119.439456853936377, 37.299284647847344 ] ] ] ] } },
{ "type": "Feature", "properties": { "id": null }, "geometry": { "type": "MultiPolygon", "coordinates": [ [ [ [ -119.439298099316474, 37.299548266560343 ], [ -119.439289529196188, 37.299729828371376 ], [ -119.439192126216071, 37.299726894146225 ], [ -119.439200696569586, 37.29954533235437 ], [ -119.439298099316474, 37.299548266560343 ] ] ] ] } },
{ "type": "Feature", "properties": { "id": null }, "geometry": { "type": "MultiPolygon", "coordinates": [ [ [ [ -119.439008234353267, 37.299375030516622 ], [ -119.439002928651661, 37.299487425892117 ], [ -119.438743188317318, 37.299479600528201 ], [ -119.438748494403924, 37.299367205184353 ], [ -119.439008234353267, 37.299375030516622 ] ] ] ] } },
{ "type": "Feature", "properties": { "id": null }, "geometry": { "type": "MultiPolygon", "coordinates": [ [ [ [ -119.438593095985439, 37.299215335558003 ], [ -119.438583707916123, 37.29941418882823 ], [ -119.438194098007955, 37.299402449208621 ], [ -119.438203487098988, 37.299203596022394 ], [ -119.438593095985439, 37.299215335558003 ] ] ] ] } },
{ "type": "Feature", "properties": { "id": null }, "geometry": { "type": "MultiPolygon", "coordinates": [ [ [ [ -119.438555823847253, 37.298971785945042 ], [ -119.438553782967091, 37.299015014917586 ], [ -119.438434736104213, 37.299011427949807 ], [ -119.438436777052232, 37.298968198982834 ], [ -119.438555823847253, 37.298971785945042 ] ] ] ] } },
{ "type": "Feature", "properties": { "id": null }, "geometry": { "type": "MultiPolygon", "coordinates": [ [ [ [ -119.438886823158768, 37.298847558097407 ], [ -119.438880292962466, 37.298985890860891 ], [ -119.438761246103141, 37.298982304223898 ], [ -119.438767776516627, 37.29884397147827 ], [ -119.438886823158768, 37.298847558097407 ] ] ] ] } },
{ "type": "Feature", "properties": { "id": null }, "geometry": { "type": "MultiPolygon", "coordinates": [ [ [ [ -119.439118583278656, 37.298759301146909 ], [ -119.43911164541673, 37.298906279747264 ], [ -119.438841084620279, 37.298898128670452 ], [ -119.438848023006656, 37.298751150113198 ], [ -119.439118583278656, 37.298759301146909 ] ] ] ] } },
{ "type": "Feature", "properties": { "id": null }, "geometry": { "type": "MultiPolygon", "coordinates": [ [ [ [ -119.439270293083723, 37.298530102794622 ], [ -119.439266620290979, 37.298607915011281 ], [ -119.438974415740446, 37.298599112264007 ], [ -119.438978088833025, 37.298521300072004 ], [ -119.439270293083723, 37.298530102794622 ] ] ] ] } },
{ "type": "Feature", "properties": { "id": null }, "geometry": { "type": "MultiPolygon", "coordinates": [ [ [ [ -119.439042305208318, 37.298423666579417 ], [ -119.439040672759617, 37.298458249779017 ], [ -119.438661889951149, 37.298446837987846 ], [ -119.438663522572597, 37.298412254802457 ], [ -119.439042305208318, 37.298423666579417 ] ] ] ] } },
{ "type": "Feature", "properties": { "id": null }, "geometry": { "type": "MultiPolygon", "coordinates": [ [ [ [ -119.438530522170737, 37.299737264788845 ], [ -119.438521950146765, 37.299918826442287 ], [ -119.438446192145889, 37.299916543772952 ], [ -119.438454764351221, 37.29973498213441 ], [ -119.438530522170737, 37.299737264788845 ] ] ] ] } },
{ "type": "Feature", "properties": { "id": null }, "geometry": { "type": "MultiPolygon", "coordinates": [ [ [ [ -119.438363793246481, 37.299710595795609 ], [ -119.438358078310728, 37.299831636877286 ], [ -119.438087514421682, 37.299823483906202 ], [ -119.438093229789345, 37.299702442860045 ], [ -119.438363793246481, 37.299710595795609 ] ] ] ] } },
{ "type": "Feature", "properties": { "id": null }, "geometry": { "type": "MultiPolygon", "coordinates": [ [ [ [ -119.439394081925073, 37.299810900739352 ], [ -119.43938796052511, 37.299940587755771 ], [ -119.439193154014504, 37.299934719359428 ], [ -119.439199275747669, 37.299805032370379 ], [ -119.439394081925073, 37.299810900739352 ] ] ] ] } },
{ "type": "Feature", "properties": { "id": null }, "geometry": { "type": "MultiPolygon", "coordinates": [ [ [ [ -119.43981555010383, 37.299836583149194 ], [ -119.439810245515048, 37.299948978614744 ], [ -119.439561325952724, 37.299941480938251 ], [ -119.439566630910491, 37.299829085503028 ], [ -119.43981555010383, 37.299836583149194 ] ] ] ] } },
{ "type": "Feature", "properties": { "id": null }, "geometry": { "type": "MultiPolygon", "coordinates": [ [ [ [ -119.440478691021724, 37.299908503505854 ], [ -119.440470939573359, 37.300072773917293 ], [ -119.440124615912353, 37.300062344129216 ], [ -119.440132368110994, 37.29989807377941 ], [ -119.440478691021724, 37.299908503505854 ] ] ] ] } },
{ "type": "Feature", "properties": { "id": null }, "geometry": { "type": "MultiPolygon", "coordinates": [ [ [ [ -119.44034513703474, 37.299752964874457 ], [ -119.44034064921884, 37.299848068786282 ], [ -119.440221600811313, 37.299844483547915 ], [ -119.440226088776541, 37.299749379648354 ], [ -119.44034513703474, 37.299752964874457 ] ] ] ] } },
{ "type": "Feature", "properties": { "id": null }, "geometry": { "type": "MultiPolygon", "coordinates": [ [ [ [ -119.440551677958396, 37.299624984213487 ], [ -119.440545966546495, 37.2997460255853 ], [ -119.440232112053238, 37.299736573901981 ], [ -119.440237823966172, 37.299615532571337 ], [ -119.440551677958396, 37.299624984213487 ] ] ] ] } },
{ "type": "Feature", "properties": { "id": null }, "geometry": { "type": "MultiPolygon", "coordinates": [ [ [ [ -119.440074679947088, 37.299857374934533 ], [ -119.440071007806779, 37.299935187201882 ], [ -119.439919491525117, 37.299930623796257 ], [ -119.439923163820907, 37.299852811541683 ], [ -119.440074679947088, 37.299857374934533 ] ] ] ] } },
{ "type": "Feature", "properties": { "id": null }, "geometry": { "type": "MultiPolygon", "coordinates": [ [ [ [ -119.439566027417285, 37.300071493973732 ], [ -119.439562762802225, 37.300140660392863 ], [ -119.439389600965015, 37.300135444288379 ], [ -119.439392865738043, 37.300066277882223 ], [ -119.439566027417285, 37.300071493973732 ] ] ] ] } },
{ "type": "Feature", "properties": { "id": null }, "geometry": { "type": "MultiPolygon", "coordinates": [ [ [ [ -119.438938915278698, 37.299580736400728 ], [ -119.438936058289329, 37.299641256981197 ], [ -119.438741252646608, 37.299635387880983 ], [ -119.438744109791472, 37.299574867313282 ], [ -119.438938915278698, 37.299580736400728 ] ] ] ] } },
{ "type": "Feature", "properties": { "id": null }, "geometry": { "type": "MultiPolygon", "coordinates": [ [ [ [ -119.439091556662888, 37.299676244929962 ], [ -119.43908625102749, 37.299788640309934 ], [ -119.438826509633756, 37.29978081507528 ], [ -119.43883181565414, 37.299668419726956 ], [ -119.439091556662888, 37.299676244929962 ] ] ] ] } },
{ "type": "Feature", "properties": { "id": null }, "geometry": { "type": "MultiPolygon", "coordinates": [ [ [ [ -119.43856482098667, 37.299469897363686 ], [ -119.438556249128027, 37.299651459032134 ], [ -119.438209928120955, 37.299641023741238 ], [ -119.438218500808844, 37.299459462140959 ], [ -119.43856482098667, 37.299469897363686 ] ] ] ] } },
{ "type": "Feature", "properties": { "id": null }, "geometry": { "type": "MultiPolygon", "coordinates": [ [ [ [ -119.439709337100297, 37.299101774930875 ], [ -119.4397048485895, 37.299196878787328 ], [ -119.4394018191432, 37.299187750998328 ], [ -119.439406308034066, 37.299092647173104 ], [ -119.439709337100297, 37.299101774930875 ] ] ] ] } },
{ "type": "Feature", "properties": { "id": null }, "geometry": { "type": "MultiPolygon", "coordinates": [ [ [ [ -119.439248256115548, 37.298996976074541 ], [ -119.439244175139748, 37.299083434084054 ], [ -119.439114305620521, 37.299079521773862 ], [ -119.439118386744397, 37.2989930637765 ], [ -119.439248256115548, 37.298996976074541 ] ] ] ] } },
{ "type": "Feature", "properties": { "id": null }, "geometry": { "type": "MultiPolygon", "coordinates": [ [ [ [ -119.440122523771123, 37.298958373828903 ], [ -119.440118443801737, 37.2990448319213 ], [ -119.439858704673867, 37.299037009084273 ], [ -119.439862784939379, 37.298950551016219 ], [ -119.440122523771123, 37.298958373828903 ] ] ] ] } },
{ "type": "Feature", "properties": { "id": null }, "geometry": { "type": "MultiPolygon", "coordinates": [ [ [ [ -119.440147121296249, 37.298781623638128 ], [ -119.440140185430124, 37.298928602402555 ], [ -119.439880446695781, 37.298920779633931 ], [ -119.439887383065383, 37.298773800910872 ], [ -119.440147121296249, 37.298781623638128 ] ] ] ] } },
{ "type": "Feature", "properties": { "id": null }, "geometry": { "type": "MultiPolygon", "coordinates": [ [ [ [ -119.440476520529984, 37.299380294216277 ], [ -119.440472440903562, 37.29946675233581 ], [ -119.440320925495342, 37.299462189492729 ], [ -119.44032500529454, 37.299375731387379 ], [ -119.440476520529984, 37.299380294216277 ] ] ] ] } },
{ "type": "Feature", "properties": { "id": null }, "geometry": { "type": "MultiPolygon", "coordinates": [ [ [ [ -119.438027146949267, 37.298347624669688 ], [ -119.438024289356733, 37.298408145202686 ], [ -119.437943121737774, 37.298405699226407 ], [ -119.43794597939511, 37.298345178698746 ], [ -119.438027146949267, 37.298347624669688 ] ] ] ] } },
{ "type": "Feature", "properties": { "id": null }, "geometry": { "type": "MultiPolygon", "coordinates": [ [ [ [ -119.438076155884787, 37.298457327672267 ], [ -119.438073706544202, 37.298509202416682 ], [ -119.438030417085983, 37.298507897917986 ], [ -119.438032866456155, 37.298456023176001 ], [ -119.438076155884787, 37.298457327672267 ] ] ] ] } },
{ "type": "Feature", "properties": { "id": null }, "geometry": { "type": "MultiPolygon", "coordinates": [ [ [ [ -119.437996677392533, 37.298706017297413 ], [ -119.437992799145761, 37.298788152298584 ], [ -119.437981976741938, 37.29878782616592 ], [ -119.43798585500042, 37.298705691165708 ], [ -119.437996677392533, 37.298706017297413 ] ] ] ] } },
{ "type": "Feature", "properties": { "id": null }, "geometry": { "type": "MultiPolygon", "coordinates": [ [ [ [ -119.438491752406506, 37.298779377399676 ], [ -119.438489915594317, 37.298818283473537 ], [ -119.438446625939335, 37.298816979117916 ], [ -119.438448462773707, 37.298778073045881 ], [ -119.438491752406506, 37.298779377399676 ] ] ] ] } },
{ "type": "Feature", "properties": { "id": null }, "geometry": { "type": "MultiPolygon", "coordinates": [ [ [ [ -119.439649825411507, 37.298123782070881 ], [ -119.439642276681212, 37.298283729480779 ], [ -119.439279728017411, 37.298272808677403 ], [ -119.439287277512406, 37.298112861330353 ], [ -119.439649825411507, 37.298123782070881 ] ] ] ] } },
{ "type": "Feature", "properties": { "id": null }, "geometry": { "type": "MultiPolygon", "coordinates": [ [ [ [ -119.448349543568, 37.368306979614943 ], [ -119.4483473012844, 37.368354486182319 ], [ -119.448217434871992, 37.368350581435877 ], [ -119.448219677237162, 37.368303074875179 ], [ -119.448349543568, 37.368306979614943 ] ] ] ] } },
{ "type": "Feature", "properties": { "id": null }, "geometry": { "type": "MultiPolygon", "coordinates": [ [ [ [ -119.448092210691499, 37.368305729512819 ], [ -119.448091395257279, 37.36832300462347 ], [ -119.448075161965676, 37.368322516503156 ], [ -119.448075977403576, 37.368305241392825 ], [ -119.448092210691499, 37.368305729512819 ] ] ] ] } },
{ "type": "Feature", "properties": { "id": null }, "geometry": { "type": "MultiPolygon", "coordinates": [ [ [ [ -119.448796702334221, 37.368649116441091 ], [ -119.448789568586179, 37.368800273763839 ], [ -119.448562300927051, 37.368793441144945 ], [ -119.448569435129315, 37.368642283859323 ], [ -119.448796702334221, 37.368649116441091 ] ] ] ] } },
{ "type": "Feature", "properties": { "id": null }, "geometry": { "type": "MultiPolygon", "coordinates": [ [ [ [ -119.448180242096598, 37.368621932292804 ], [ -119.448175145689305, 37.368729901737773 ], [ -119.448110212168572, 37.368727949271189 ], [ -119.448115308668562, 37.368619979833795 ], [ -119.448180242096598, 37.368621932292804 ] ] ] ] } },
{ "type": "Feature", "properties": { "id": null }, "geometry": { "type": "MultiPolygon", "coordinates": [ [ [ [ -119.448481467146408, 37.368496917105226 ], [ -119.448477798063266, 37.368574655132932 ], [ -119.448282997857206, 37.368568798145617 ], [ -119.44828666714055, 37.368491060134268 ], [ -119.448481467146408, 37.368496917105226 ] ] ] ] } },
{ "type": "Feature", "properties": { "id": null }, "geometry": { "type": "MultiPolygon", "coordinates": [ [ [ [ -119.448226524336988, 37.368387616452026 ], [ -119.448219797218101, 37.36853013613166 ], [ -119.448138630529428, 37.368527695584568 ], [ -119.44814535780128, 37.368385175917446 ], [ -119.448226524336988, 37.368387616452026 ] ] ] ] } },
{ "type": "Feature", "properties": { "id": null }, "geometry": { "type": "MultiPolygon", "coordinates": [ [ [ [ -119.448797681792485, 37.36816908106352 ], [ -119.448793809261204, 37.36825113790325 ], [ -119.448739698300983, 37.368249511150935 ], [ -119.448743570890954, 37.368167454316009 ], [ -119.448797681792485, 37.36816908106352 ] ] ] ] } },
{ "type": "Feature", "properties": { "id": null }, "geometry": { "type": "MultiPolygon", "coordinates": [ [ [ [ -119.448795577753856, 37.368041433010525 ], [ -119.448791297604018, 37.368132127413986 ], [ -119.448748008903991, 37.36813082601671 ], [ -119.448752289105698, 37.368040131617491 ], [ -119.448795577753856, 37.368041433010525 ] ] ] ] } },
{ "type": "Feature", "properties": { "id": null }, "geometry": { "type": "MultiPolygon", "coordinates": [ [ [ [ -119.448128698969995, 37.368164104723832 ], [ -119.448127679692774, 37.368185698613495 ], [ -119.4480735688187, 37.368184071558836 ], [ -119.448074588111339, 37.368162477670438 ], [ -119.448128698969995, 37.368164104723832 ] ] ] ] } },
{ "type": "Feature", "properties": { "id": null }, "geometry": { "type": "MultiPolygon", "coordinates": [ [ [ [ -119.448740933970242, 37.368969645507413 ], [ -119.448733596199986, 37.36912512159288 ], [ -119.448527972202442, 37.3691189395755 ], [ -119.448535310395371, 37.368963463524572 ], [ -119.448740933970242, 37.368969645507413 ] ] ] ] } },
{ "type": "Feature", "properties": { "id": null }, "geometry": { "type": "MultiPolygon", "coordinates": [ [ [ [ -119.448373031595807, 37.369014808228251 ], [ -119.448365285355976, 37.369178921807034 ], [ -119.448230006360674, 37.369174854304248 ], [ -119.448237752894059, 37.369010740749452 ], [ -119.448373031595807, 37.369014808228251 ] ] ] ] } },
{ "type": "Feature", "properties": { "id": null }, "geometry": { "type": "MultiPolygon", "coordinates": [ [ [ [ -119.447963683070896, 37.369134409369998 ], [ -119.447958382385835, 37.369246697556569 ], [ -119.447812281005241, 37.369242304137487 ], [ -119.447817581907202, 37.369130015968658 ], [ -119.447963683070896, 37.369134409369998 ] ] ] ] } },
{ "type": "Feature", "properties": { "id": null }, "geometry": { "type": "MultiPolygon", "coordinates": [ [ [ [ -119.448725679628168, 37.369378971926395 ], [ -119.448720074285134, 37.36949773837086 ], [ -119.448473865397219, 37.369490336085612 ], [ -119.448479471126845, 37.369371569672758 ], [ -119.448725679628168, 37.369378971926395 ] ] ] ] } },
{ "type": "Feature", "properties": { "id": null }, "geometry": { "type": "MultiPolygon", "coordinates": [ [ [ [ -119.448305465872224, 37.369298220608464 ], [ -119.448297515550664, 37.369466652945128 ], [ -119.448108124255484, 37.369460958252304 ], [ -119.448116074998808, 37.369292525950129 ], [ -119.448305465872224, 37.369298220608464 ] ] ] ] } },
{ "type": "Feature", "properties": { "id": null }, "geometry": { "type": "MultiPolygon", "coordinates": [ [ [ [ -119.44854905234584, 37.369705598333297 ], [ -119.448543752423859, 37.369817886580407 ], [ -119.448435528286609, 37.369814632706664 ], [ -119.448440828369272, 37.369702344472685 ], [ -119.44854905234584, 37.369705598333297 ] ] ] ] } },
{ "type": "Feature", "properties": { "id": null }, "geometry": { "type": "MultiPolygon", "coordinates": [ [ [ [ -119.448797494306945, 37.369550883569133 ], [ -119.448789952670538, 37.369710678428774 ], [ -119.448649261458087, 37.369706448676773 ], [ -119.448656803391756, 37.369546653841439 ], [ -119.448797494306945, 37.369550883569133 ] ] ] ] } },
{ "type": "Feature", "properties": { "id": null }, "geometry": { "type": "MultiPolygon", "coordinates": [ [ [ [ -119.44862101915561, 37.369558552721138 ], [ -119.448617350075736, 37.369636290746676 ], [ -119.448433369481506, 37.36963075923979 ], [ -119.448437038750484, 37.36955302122972 ], [ -119.44862101915561, 37.369558552721138 ] ] ] ] } },
{ "type": "Feature", "properties": { "id": null }, "geometry": { "type": "MultiPolygon", "coordinates": [ [ [ [ -119.447295334963414, 37.369201889374089 ], [ -119.447294111498167, 37.369227802013668 ], [ -119.447250822238999, 37.369226500036063 ], [ -119.447252045719097, 37.3692005873977 ], [ -119.447295334963414, 37.369201889374089 ] ] ] ] } },
{ "type": "Feature", "properties": { "id": null }, "geometry": { "type": "MultiPolygon", "coordinates": [ [ [ [ -119.447266256199001, 37.369100460730316 ], [ -119.447263911211991, 37.369150126621989 ], [ -119.447207094120344, 37.369148417761643 ], [ -119.447209439144686, 37.369098751873025 ], [ -119.447266256199001, 37.369100460730316 ] ] ] ] } },
{ "type": "Feature", "properties": { "id": null }, "geometry": { "type": "MultiPolygon", "coordinates": [ [ [ [ -119.44779964301307, 37.369194350117652 ], [ -119.447795667310075, 37.369278566241974 ], [ -119.447676621708965, 37.369274986266241 ], [ -119.447680597544533, 37.369190770152763 ], [ -119.44779964301307, 37.369194350117652 ] ] ] ] } },
{ "type": "Feature", "properties": { "id": null }, "geometry": { "type": "MultiPolygon", "coordinates": [ [ [ [ -119.44760699769239, 37.368999342118762 ], [ -119.447601900394119, 37.369107311489593 ], [ -119.44749908853818, 37.36910421954299 ], [ -119.447504185983234, 37.368996250184161 ], [ -119.44760699769239, 37.368999342118762 ] ] ] ] } },
{ "type": "Feature", "properties": { "id": null }, "geometry": { "type": "MultiPolygon", "coordinates": [ ] } },
{ "type": "Feature", "properties": { "id": null }, "geometry": { "type": "MultiPolygon", "coordinates": [ [ [ [ -119.446966101720619, 37.369690432255467 ], [ -119.446962838783563, 37.369759532596895 ], [ -119.446827558951853, 37.36975546343642 ], [ -119.446830822012487, 37.36968636310511 ], [ -119.446966101720619, 37.369690432255467 ] ] ] ] } },
{ "type": "Feature", "properties": { "id": null }, "geometry": { "type": "MultiPolygon", "coordinates": [ [ [ [ -119.447328370213398, 37.369305599458784 ], [ -119.44732408810188, 37.369396293698294 ], [ -119.447123874847307, 37.369390271947118 ], [ -119.447128157198904, 37.369299577727233 ], [ -119.447328370213398, 37.369305599458784 ] ] ] ] } },
{ "type": "Feature", "properties": { "id": null }, "geometry": { "type": "MultiPolygon", "coordinates": [ [ [ [ -119.448049686271631, 37.369292692136611 ], [ -119.448044589553717, 37.369400661554018 ], [ -119.447866020822303, 37.369395291906542 ], [ -119.447871117795131, 37.369287322509983 ], [ -119.448049686271631, 37.369292692136611 ] ] ] ] } },
{ "type": "Feature", "properties": { "id": null }, "geometry": { "type": "MultiPolygon", "coordinates": [ [ [ [ -119.448148793599486, 37.368915080384042 ], [ -119.448142270066498, 37.369053281261557 ], [ -119.447990757882934, 37.36904872537535 ], [ -119.447997281692793, 37.368910524520473 ], [ -119.448148793599486, 37.368915080384042 ] ] ] ] } },
{ "type": "Feature", "properties": { "id": null }, "geometry": { "type": "MultiPolygon", "coordinates": [ [ [ [ -119.447958885470328, 37.368805572170523 ], [ -119.447957254510612, 37.368840122383816 ], [ -119.447930198843039, 37.368839308808504 ], [ -119.447931829815104, 37.368804758596248 ], [ -119.447958885470328, 37.368805572170523 ] ] ] ] } },
{ "type": "Feature", "properties": { "id": null }, "geometry": { "type": "MultiPolygon", "coordinates": [ [ [ [ -119.448780897779628, 37.369184929905927 ], [ -119.448775394476272, 37.369301536971349 ], [ -119.448439901922342, 37.369291450416384 ], [ -119.44844540574293, 37.369174843393253 ], [ -119.448780897779628, 37.369184929905927 ] ] ] ] } },
{ "type": "Feature", "properties": { "id": null }, "geometry": { "type": "MultiPolygon", "coordinates": [ [ [ [ -119.44697204924617, 37.369277582668587 ], [ -119.446965115606631, 37.369424420904082 ], [ -119.446856892220197, 37.369421165614881 ], [ -119.44686382606983, 37.369274327396589 ], [ -119.44697204924617, 37.369277582668587 ] ] ] ] } },
{ "type": "Feature", "properties": { "id": null }, "geometry": { "type": "MultiPolygon", "coordinates": [ [ [ [ -119.446272455931123, 37.369805800567136 ], [ -119.446268784395144, 37.369883538391043 ], [ -119.44618761642046, 37.369881096430106 ], [ -119.446191288039884, 37.369803358613019 ], [ -119.446272455931123, 37.369805800567136 ] ] ] ] } },
{ "type": "Feature", "properties": { "id": null }, "geometry": { "type": "MultiPolygon", "coordinates": [ [ [ [ -119.44680842253743, 37.369873822702161 ], [ -119.446806383099201, 37.369917010406937 ], [ -119.446725215041042, 37.369914568813087 ], [ -119.446727254525626, 37.369871381112105 ], [ -119.44680842253743, 37.369873822702161 ] ] ] ] } },
{ "type": "Feature", "properties": { "id": null }, "geometry": { "type": "MultiPolygon", "coordinates": [ [ [ [ -119.449680296721908, 37.237388235752874 ], [ -119.449674415347729, 37.237513483292425 ], [ -119.449604192701017, 37.237511375309339 ], [ -119.449610074190943, 37.237386127779281 ], [ -119.449680296721908, 37.237388235752874 ] ] ] ] } },
{ "type": "Feature", "properties": { "id": null }, "geometry": { "type": "MultiPolygon", "coordinates": [ [ [ [ -119.449695700271178, 37.237232999267476 ], [ -119.44969083297805, 37.237336652408366 ], [ -119.449528781103098, 37.237331787811392 ], [ -119.449533648617262, 37.237228134688657 ], [ -119.449695700271178, 37.237232999267476 ] ] ] ] } },
{ "type": "Feature", "properties": { "id": null }, "geometry": { "type": "MultiPolygon", "coordinates": [ [ [ [ -119.449469612131011, 37.237094300798923 ], [ -119.449465961449633, 37.237172040637539 ], [ -119.449347123691624, 37.237168473075776 ], [ -119.449350774494576, 37.237090733247143 ], [ -119.449469612131011, 37.237094300798923 ] ] ] ] } },
{ "type": "Feature", "properties": { "id": null }, "geometry": { "type": "MultiPolygon", "coordinates": [ [ [ [ -119.449396780218109, 37.237262950619623 ], [ -119.449391101223341, 37.237383879243886 ], [ -119.449283066603499, 37.23738063592689 ], [ -119.449288745770161, 37.237259707316738 ], [ -119.449396780218109, 37.237262950619623 ] ] ] ] } },
{ "type": "Feature", "properties": { "id": null }, "geometry": { "type": "MultiPolygon", "coordinates": [ [ [ [ -119.449322223930096, 37.237468310846232 ], [ -119.449316139118778, 37.237597877214263 ], [ -119.44920270245693, 37.237594471640413 ], [ -119.449208787461671, 37.23746490528827 ], [ -119.449322223930096, 37.237468310846232 ] ] ] ] } },
{ "type": "Feature", "properties": { "id": null }, "geometry": { "type": "MultiPolygon", "coordinates": [ [ [ [ -119.451607943048245, 37.237404997233263 ], [ -119.451602470253192, 37.23752160725526 ], [ -119.451445819398984, 37.237516907323986 ], [ -119.451451292434399, 37.23740029732172 ], [ -119.451607943048245, 37.237404997233263 ] ] ] ] } },
{ "type": "Feature", "properties": { "id": null }, "geometry": { "type": "MultiPolygon", "coordinates": [ [ [ [ -119.451450714388585, 37.237527866616375 ], [ -119.451449295449748, 37.23755809883879 ], [ -119.451346662094949, 37.237555019461517 ], [ -119.451348081074642, 37.237524787242442 ], [ -119.451450714388585, 37.237527866616375 ] ] ] ] } },
{ "type": "Feature", "properties": { "id": null }, "geometry": { "type": "MultiPolygon", "coordinates": [ [ [ [ -119.451545732248618, 37.237059295583606 ], [ -119.451543502584016, 37.23710680337026 ], [ -119.451413861213823, 37.237102913758932 ], [ -119.451416090959455, 37.237055405978936 ], [ -119.451545732248618, 37.237059295583606 ] ] ] ] } },
{ "type": "Feature", "properties": { "id": null }, "geometry": { "type": "MultiPolygon", "coordinates": [ [ [ [ -119.451125333738091, 37.237314830094483 ], [ -119.451121482004666, 37.237396888957434 ], [ -119.451008045421673, 37.237393485128514 ], [ -119.451011897277581, 37.237311426275618 ], [ -119.451125333738091, 37.237314830094483 ] ] ] ] } },
{ "type": "Feature", "properties": { "id": null }, "geometry": { "type": "MultiPolygon", "coordinates": [ [ [ [ -119.450979646946323, 37.237537519475183 ], [ -119.45097376769013, 37.23766276718824 ], [ -119.45083332192894, 37.237658552707167 ], [ -119.450839201416628, 37.237533305013109 ], [ -119.450979646946323, 37.237537519475183 ] ] ] ] } },
{ "type": "Feature", "properties": { "id": null }, "geometry": { "type": "MultiPolygon", "coordinates": [ [ [ [ -119.451097423054136, 37.237967063113537 ], [ -119.451093571199578, 37.238049121964949 ], [ -119.450963928278938, 37.238045231777534 ], [ -119.450967780273473, 37.237963172937597 ], [ -119.451097423054136, 37.237967063113537 ] ] ] ] } },
{ "type": "Feature", "properties": { "id": null }, "geometry": { "type": "MultiPolygon", "coordinates": [ [ [ [ -119.451229058662577, 37.238879256655409 ], [ -119.451225409552379, 37.238956996619066 ], [ -119.451101166911798, 37.238953268586783 ], [ -119.451104816149098, 37.23887552863355 ], [ -119.451229058662577, 37.238879256655409 ] ] ] ] } },
{ "type": "Feature", "properties": { "id": null }, "geometry": { "type": "MultiPolygon", "coordinates": [ [ [ [ -119.449813473563111, 37.236942436644043 ], [ -119.449805564544249, 37.237110873026587 ], [ -119.449648914845511, 37.237106170762374 ], [ -119.449656824211573, 37.236937734408343 ], [ -119.449813473563111, 37.236942436644043 ] ] ] ] } },
{ "type": "Feature", "properties": { "id": null }, "geometry": { "type": "MultiPolygon", "coordinates": [ [ [ [ -119.449458850889584, 37.236949091303487 ], [ -119.449456417108962, 37.237000917863377 ], [ -119.449310571103695, 37.236996539480856 ], [ -119.44931300498375, 37.236944712929137 ], [ -119.449458850889584, 37.236949091303487 ] ] ] ] } }
]
}
