{
"type": "FeatureCollection",
"name": "hcdemars_mortalitree_postfire_labels",
"crs": { "type": "name", "properties": { "name": "urn:ogc:def:crs:OGC:1.3:CRS84" } },
"features": [
{ "type": "Feature", "properties": { }, "geometry": { "type": "MultiPolygon", "coordinates": [ [ [ [ -119.423823191529081, 37.234570887070568 ], [ -119.423819563853456, 37.234647588613562 ], [ -119.423740174305422, 37.234645188115827 ], [ -119.423743802061182, 37.234568486579441 ], [ -119.423823191529081, 37.234570887070568 ] ] ] ] } },
{ "type": "Feature", "properties": { }, "geometry": { "type": "MultiPolygon", "coordinates": [ [ [ [ -119.423958273067186, 37.234376321646941 ], [ -119.423956021508857, 37.234423929509973 ], [ -119.423876632183493, 37.234421529115941 ], [ -119.423878883791559, 37.234373921257024 ], [ -119.423958273067186, 37.234376321646941 ] ] ] ] } },
{ "type": "Feature", "properties": { }, "geometry": { "type": "MultiPolygon", "coordinates": [ [ [ [ -119.423713259878639, 37.234478832850712 ], [ -119.423711008157909, 37.234526440700165 ], [ -119.423644850314275, 37.23452444023394 ], [ -119.423647102076458, 37.234476832387919 ], [ -119.423713259878639, 37.234478832850712 ] ] ] ] } },
{ "type": "Feature", "properties": { }, "geometry": { "type": "MultiPolygon", "coordinates": [ [ [ [ -119.42391944009951, 37.234181795089278 ], [ -119.423917813968387, 37.23421617854563 ], [ -119.423878119415107, 37.234214978348135 ], [ -119.423879745564193, 37.23418059489326 ], [ -119.42391944009951, 37.234181795089278 ] ] ] ] } },
{ "type": "Feature", "properties": { }, "geometry": { "type": "MultiPolygon", "coordinates": [ [ [ [ -119.42399373541636, 37.234256879675137 ], [ -119.42399185914482, 37.234296552896701 ], [ -119.423945548779983, 37.234295152691381 ], [ -119.423947425075696, 37.234255479471813 ], [ -119.42399373541636, 37.234256879675137 ] ] ] ] } },
{ "type": "Feature", "properties": { }, "geometry": { "type": "MultiPolygon", "coordinates": [ [ [ [ -119.423426321649472, 37.234417182959398 ], [ -119.423424695280559, 37.234451566395855 ], [ -119.423385000625274, 37.234450366026621 ], [ -119.423386627012164, 37.234415982591663 ], [ -119.423426321649472, 37.234417182959398 ] ] ] ] } },
{ "type": "Feature", "properties": { }, "geometry": { "type": "MultiPolygon", "coordinates": [ [ [ [ -119.423541735406744, 37.2346034307458 ], [ -119.423537982339212, 37.234682777144705 ], [ -119.423448669084323, 37.234680076366487 ], [ -119.423452422245077, 37.234600729975298 ], [ -119.423541735406744, 37.2346034307458 ] ] ] ] } },
{ "type": "Feature", "properties": { }, "geometry": { "type": "MultiPolygon", "coordinates": [ [ [ [ -119.423275048522186, 37.234326373369136 ], [ -119.423271849350215, 37.234394005093158 ], [ -119.423177865667995, 37.23439116287804 ], [ -119.423181064923597, 37.234323531160946 ], [ -119.423275048522186, 37.234326373369136 ] ] ] ] } },
{ "type": "Feature", "properties": { }, "geometry": { "type": "MultiPolygon", "coordinates": [ [ [ [ -119.42324360443304, 37.234443947282337 ], [ -119.423239516547028, 37.234530365591496 ], [ -119.423103239971539, 37.234526244305286 ], [ -119.423107328012478, 37.234439826008952 ], [ -119.42324360443304, 37.234443947282337 ] ] ] ] } },
{ "type": "Feature", "properties": { }, "geometry": { "type": "MultiPolygon", "coordinates": [ [ [ [ -119.423650815539546, 37.234241787714637 ], [ -119.423646550435151, 37.234331963384797 ], [ -119.423543168427813, 37.234328837275605 ], [ -119.423547433654846, 37.234238661615592 ], [ -119.423650815539546, 37.234241787714637 ] ] ] ] } },
{ "type": "Feature", "properties": { }, "geometry": { "type": "MultiPolygon", "coordinates": [ [ [ [ -119.423944760778781, 37.233996693821958 ], [ -119.423940851456067, 37.234079354883015 ], [ -119.423846868095694, 37.234076513219208 ], [ -119.423850777520613, 37.233993852166613 ], [ -119.423944760778781, 37.233996693821958 ] ] ] ] } },
{ "type": "Feature", "properties": { }, "geometry": { "type": "MultiPolygon", "coordinates": [ [ [ [ -119.424019009663681, 37.234068548575287 ], [ -119.424016521959842, 37.234121151072472 ], [ -119.423960131906213, 37.234119446117525 ], [ -119.423962619649089, 37.234066843623566 ], [ -119.424019009663681, 37.234068548575287 ] ] ] ] } },
{ "type": "Feature", "properties": { }, "geometry": { "type": "MultiPolygon", "coordinates": [ [ [ [ -119.423926980594018, 37.233576615876075 ], [ -119.423924670565242, 37.233625461051204 ], [ -119.423868280886495, 37.233623756071779 ], [ -119.423870590951495, 37.233574910899641 ], [ -119.423926980594018, 37.233576615876075 ] ] ] ] } },
{ "type": "Feature", "properties": { }, "geometry": { "type": "MultiPolygon", "coordinates": [ [ [ [ -119.424013421161888, 37.23363943251168 ], [ -119.424011288874468, 37.233684520369458 ], [ -119.423973695721898, 37.233683383745458 ], [ -119.423975828031601, 37.23363829588952 ], [ -119.424013421161888, 37.23363943251168 ] ] ] ] } },
{ "type": "Feature", "properties": { }, "geometry": { "type": "MultiPolygon", "coordinates": [ [ [ [ -119.424036097992456, 37.233856473035125 ], [ -119.4240332549372, 37.233916590178005 ], [ -119.423953369243677, 37.233914174839803 ], [ -119.423956212362114, 37.233854057702146 ], [ -119.424036097992456, 37.233856473035125 ] ] ] ] } },
{ "type": "Feature", "properties": { }, "geometry": { "type": "MultiPolygon", "coordinates": [ [ [ [ -119.422905404169001, 37.234533402452087 ], [ -119.422901861963894, 37.234608277692431 ], [ -119.42282982744895, 37.234606099031119 ], [ -119.422833369724955, 37.234531223796637 ], [ -119.422905404169001, 37.234533402452087 ] ] ] ] } },
{ "type": "Feature", "properties": { }, "geometry": { "type": "MultiPolygon", "coordinates": [ [ [ [ -119.422499040800361, 37.234355285182851 ], [ -119.422495225709227, 37.234435920023593 ], [ -119.422423191390266, 37.234433741123503 ], [ -119.422427006557854, 37.234353106289085 ], [ -119.422499040800361, 37.234355285182851 ] ] ] ] } },
{ "type": "Feature", "properties": { }, "geometry": { "type": "MultiPolygon", "coordinates": [ [ [ [ -119.422897077067191, 37.234251966704299 ], [ -119.422893398652093, 37.234329721764546 ], [ -119.422810559266082, 37.234327216310255 ], [ -119.422814237765934, 37.234249461257022 ], [ -119.422897077067191, 37.234251966704299 ] ] ] ] } },
{ "type": "Feature", "properties": { }, "geometry": { "type": "MultiPolygon", "coordinates": [ [ [ [ -119.422738039421148, 37.234411541039151 ], [ -119.422735178289329, 37.234472017185091 ], [ -119.422652338761978, 37.234469511611998 ], [ -119.422655199959735, 37.234409035471515 ], [ -119.422738039421148, 37.234411541039151 ] ] ] ] } },
{ "type": "Feature", "properties": { }, "geometry": { "type": "MultiPolygon", "coordinates": [ [ [ [ -119.42266231444512, 37.234296777106302 ], [ -119.422659862005261, 37.234348613799568 ], [ -119.422595031180947, 37.234346652885492 ], [ -119.422597483665029, 37.23429481619587 ], [ -119.42266231444512, 37.234296777106302 ] ] ] ] } },
{ "type": "Feature", "properties": { }, "geometry": { "type": "MultiPolygon", "coordinates": [ [ [ [ -119.422443498197651, 37.234538177102799 ], [ -119.422440091791657, 37.234610172489788 ], [ -119.422360853863665, 37.234607775650865 ], [ -119.422364260344722, 37.234535780270086 ], [ -119.422443498197651, 37.234538177102799 ] ] ] ] } },
{ "type": "Feature", "properties": { }, "geometry": { "type": "MultiPolygon", "coordinates": [ [ [ [ -119.422565080020661, 37.234484175934817 ], [ -119.422561809988522, 37.234553291516178 ], [ -119.422432148009548, 37.234549369526945 ], [ -119.422435418159623, 37.234480253955347 ], [ -119.422565080020661, 37.234484175934817 ] ] ] ] } },
{ "type": "Feature", "properties": { }, "geometry": { "type": "MultiPolygon", "coordinates": [ [ [ [ -119.422201868584466, 37.234042040682525 ], [ -119.422199960904166, 37.234082358092103 ], [ -119.422138732038306, 37.234080505892081 ], [ -119.422140639751078, 37.234040188485196 ], [ -119.422201868584466, 37.234042040682525 ] ] ] ] } },
{ "type": "Feature", "properties": { }, "geometry": { "type": "MultiPolygon", "coordinates": [ ] } },
{ "type": "Feature", "properties": { }, "geometry": { "type": "MultiPolygon", "coordinates": [ ] } },
{ "type": "Feature", "properties": { }, "geometry": { "type": "MultiPolygon", "coordinates": [ ] } },
{ "type": "Feature", "properties": { }, "geometry": { "type": "MultiPolygon", "coordinates": [ ] } },
{ "type": "Feature", "properties": { }, "geometry": { "type": "MultiPolygon", "coordinates": [ ] } },
{ "type": "Feature", "properties": { }, "geometry": { "type": "MultiPolygon", "coordinates": [ [ [ [ -119.422280708203616, 37.23424341721875 ], [ -119.422278255507194, 37.234295253890856 ], [ -119.42221342475564, 37.234293292770246 ], [ -119.422215877496257, 37.234241456101799 ], [ -119.422280708203616, 37.23424341721875 ] ] ] ] } },
{ "type": "Feature", "properties": { }, "geometry": { "type": "MultiPolygon", "coordinates": [ [ [ [ -119.422197461694722, 37.234516314989627 ], [ -119.422194736385862, 37.234573911284016 ], [ -119.422122701959324, 37.234571732194297 ], [ -119.422125427322769, 37.234514135904426 ], [ -119.422197461694722, 37.234516314989627 ] ] ] ] } },
{ "type": "Feature", "properties": { }, "geometry": { "type": "MultiPolygon", "coordinates": [ [ [ [ -119.421659201176212, 37.234523352308024 ], [ -119.421654208670873, 37.234628847149537 ], [ -119.421528405240124, 37.23462504090427 ], [ -119.421533397920072, 37.234519546077209 ], [ -119.421659201176212, 37.234523352308024 ] ] ] ] } },
{ "type": "Feature", "properties": { }, "geometry": { "type": "MultiPolygon", "coordinates": [ [ [ [ -119.421545632365181, 37.233790877515183 ], [ -119.421540189712871, 37.233905883625788 ], [ -119.421464277143343, 37.233903586811884 ], [ -119.421469719910519, 37.233788580710772 ], [ -119.421545632365181, 37.233790877515183 ] ] ] ] } },
{ "type": "Feature", "properties": { }, "geometry": { "type": "MultiPolygon", "coordinates": [ [ [ [ -119.421870803968588, 37.234106237859443 ], [ -119.421867024652101, 37.234186103238514 ], [ -119.421763143874344, 37.234182960484397 ], [ -119.421766923299998, 37.234103095114357 ], [ -119.421870803968588, 37.234106237859443 ] ] ] ] } },
{ "type": "Feature", "properties": { }, "geometry": { "type": "MultiPolygon", "coordinates": [ [ [ [ -119.421978474370832, 37.233944736940785 ], [ -119.421974392854906, 37.234030991562634 ], [ -119.421894484717228, 37.234028574148525 ], [ -119.421898566323833, 37.233942319534172 ], [ -119.421978474370832, 37.233944736940785 ] ] ] ] } },
{ "type": "Feature", "properties": { }, "geometry": { "type": "MultiPolygon", "coordinates": [ [ [ [ -119.422164487355658, 37.233945565278781 ], [ -119.422162068807154, 37.233996679139366 ], [ -119.422102137717857, 37.233994866180218 ], [ -119.422104556306664, 37.233943752322972 ], [ -119.422164487355658, 37.233945565278781 ] ] ] ] } },
{ "type": "Feature", "properties": { }, "geometry": { "type": "MultiPolygon", "coordinates": [ [ [ [ -119.42221662167448, 37.233900754113016 ], [ -119.422214656636044, 37.233942284127465 ], [ -119.422134748570983, 37.233939866880363 ], [ -119.42213671365306, 37.233898336869522 ], [ -119.42221662167448, 37.233900754113016 ] ] ] ] } },
{ "type": "Feature", "properties": { }, "geometry": { "type": "MultiPolygon", "coordinates": [ [ [ [ -119.422331473108045, 37.233883433582129 ], [ -119.422329961589796, 37.233915379751224 ], [ -119.4222860121629, 37.233914050315583 ], [ -119.422287523699637, 37.233882104148016 ], [ -119.422331473108045, 37.233883433582129 ] ] ] ] } },
{ "type": "Feature", "properties": { }, "geometry": { "type": "MultiPolygon", "coordinates": [ [ [ [ -119.422278550397635, 37.233902627439718 ], [ -119.422276131929877, 37.233953741307062 ], [ -119.422236177887413, 37.233952532710667 ], [ -119.42223859638203, 37.233901418845555 ], [ -119.422278550397635, 37.233902627439718 ] ] ] ] } },
{ "type": "Feature", "properties": { }, "geometry": { "type": "MultiPolygon", "coordinates": [ [ [ [ -119.422437814677295, 37.23379227417891 ], [ -119.422433733707152, 37.233878528846347 ], [ -119.422297890084053, 37.233874419751537 ], [ -119.422301971208341, 37.233788165096861 ], [ -119.422437814677295, 37.23379227417891 ] ] ] ] } },
{ "type": "Feature", "properties": { }, "geometry": { "type": "MultiPolygon", "coordinates": [ [ [ [ -119.422240614513058, 37.233731922874057 ], [ -119.422236986793138, 37.233808593673885 ], [ -119.422153083471173, 37.233806055586548 ], [ -119.422156711275733, 37.233729384793754 ], [ -119.422240614513058, 37.233731922874057 ] ] ] ] } },
{ "type": "Feature", "properties": { }, "geometry": { "type": "MultiPolygon", "coordinates": [ ] } },
{ "type": "Feature", "properties": { }, "geometry": { "type": "MultiPolygon", "coordinates": [ ] } },
{ "type": "Feature", "properties": { }, "geometry": { "type": "MultiPolygon", "coordinates": [ [ [ [ -119.421815072894418, 37.233677460134153 ], [ -119.421812654133475, 37.233728573977515 ], [ -119.421740737109104, 37.233726398224015 ], [ -119.421743155918421, 37.233675284384653 ], [ -119.421815072894418, 37.233677460134153 ] ] ] ] } },
{ "type": "Feature", "properties": { }, "geometry": { "type": "MultiPolygon", "coordinates": [ ] } },
{ "type": "Feature", "properties": { }, "geometry": { "type": "MultiPolygon", "coordinates": [ ] } },
{ "type": "Feature", "properties": { }, "geometry": { "type": "MultiPolygon", "coordinates": [ [ [ [ -119.421789459376527, 37.233838244263829 ], [ -119.421783412384315, 37.233966028864081 ], [ -119.421683527320283, 37.233963006931425 ], [ -119.421689574480396, 37.233835222345085 ], [ -119.421789459376527, 37.233838244263829 ] ] ] ] } },
{ "type": "Feature", "properties": { }, "geometry": { "type": "MultiPolygon", "coordinates": [ [ [ [ -119.421690081921895, 37.233993597528126 ], [ -119.421687814228648, 37.234041516747183 ], [ -119.421627883134974, 37.234039703546166 ], [ -119.42163015086598, 37.23399178433025 ], [ -119.421690081921895, 37.233993597528126 ] ] ] ] } },
{ "type": "Feature", "properties": { }, "geometry": { "type": "MultiPolygon", "coordinates": [ ] } },
{ "type": "Feature", "properties": { }, "geometry": { "type": "MultiPolygon", "coordinates": [ [ [ [ -119.421977728021261, 37.233580006836839 ], [ -119.421973797723922, 37.233663066848152 ], [ -119.42187790842587, 37.233660165968615 ], [ -119.421881838828, 37.233577105965978 ], [ -119.421977728021261, 37.233580006836839 ] ] ] ] } },
{ "type": "Feature", "properties": { }, "geometry": { "type": "MultiPolygon", "coordinates": [ ] } },
{ "type": "Feature", "properties": { }, "geometry": { "type": "MultiPolygon", "coordinates": [ [ [ [ -119.422346720037851, 37.233614233712551 ], [ -119.42234136042002, 37.23372751141806 ], [ -119.422229203149868, 37.233724118733285 ], [ -119.422234562934847, 37.233610841041617 ], [ -119.422346720037851, 37.233614233712551 ] ] ] ] } },
{ "type": "Feature", "properties": { }, "geometry": { "type": "MultiPolygon", "coordinates": [ [ [ [ -119.42251602373284, 37.233534274948731 ], [ -119.422512897449536, 37.233600353623764 ], [ -119.422442061382398, 37.233598210996625 ], [ -119.422445187727277, 37.233532132326694 ], [ -119.42251602373284, 37.233534274948731 ] ] ] ] } },
{ "type": "Feature", "properties": { }, "geometry": { "type": "MultiPolygon", "coordinates": [ ] } },
{ "type": "Feature", "properties": { }, "geometry": { "type": "MultiPolygon", "coordinates": [ [ [ [ -119.422613360207507, 37.233601028986939 ], [ -119.422610457302383, 37.233662387762493 ], [ -119.422539621169648, 37.233660245190663 ], [ -119.422542524131956, 37.233598886419848 ], [ -119.422613360207507, 37.233601028986939 ] ] ] ] } },
{ "type": "Feature", "properties": { }, "geometry": { "type": "MultiPolygon", "coordinates": [ ] } },
{ "type": "Feature", "properties": { }, "geometry": { "type": "MultiPolygon", "coordinates": [ [ [ [ -119.422782314524142, 37.233653405749862 ], [ -119.422777848714802, 37.233747803882366 ], [ -119.422630273253219, 37.233743340343281 ], [ -119.422634739245851, 37.233648942225969 ], [ -119.422782314524142, 37.233653405749862 ] ] ] ] } },
{ "type": "Feature", "properties": { }, "geometry": { "type": "MultiPolygon", "coordinates": [ ] } },
{ "type": "Feature", "properties": { }, "geometry": { "type": "MultiPolygon", "coordinates": [ [ [ [ -119.422916374288974, 37.233506207196768 ], [ -119.422913025077108, 37.233577005808449 ], [ -119.422836285994805, 37.233574684887664 ], [ -119.422839635278137, 37.233503886281895 ], [ -119.422916374288974, 37.233506207196768 ] ] ] ] } },
{ "type": "Feature", "properties": { }, "geometry": { "type": "MultiPolygon", "coordinates": [ [ [ [ -119.422634857118737, 37.232669980459384 ], [ -119.42263105734537, 37.232750299523907 ], [ -119.422559306739757, 37.23274812932339 ], [ -119.422563106588939, 37.23266781026512 ], [ -119.422634857118737, 37.232669980459384 ] ] ] ] } },
{ "type": "Feature", "properties": { }, "geometry": { "type": "MultiPolygon", "coordinates": [ [ [ [ -119.422723400409623, 37.232620950945304 ], [ -119.422720686359241, 37.232678321711859 ], [ -119.422663285923079, 37.232676585601197 ], [ -119.422666000016775, 37.23261921483823 ], [ -119.422723400409623, 37.232620950945304 ] ] ] ] } },
{ "type": "Feature", "properties": { }, "geometry": { "type": "MultiPolygon", "coordinates": [ ] } },
{ "type": "Feature", "properties": { }, "geometry": { "type": "MultiPolygon", "coordinates": [ [ [ [ -119.423075428109826, 37.232849918475786 ], [ -119.42306918634425, 37.232981871283492 ], [ -119.42295438497284, 37.23297839934822 ], [ -119.42296062693768, 37.232846446556998 ], [ -119.423075428109826, 37.232849918475786 ] ] ] ] } },
{ "type": "Feature", "properties": { }, "geometry": { "type": "MultiPolygon", "coordinates": [ [ [ [ -119.42317572715173, 37.233008074438686 ], [ -119.423171656530371, 37.233094130625211 ], [ -119.423078380265821, 37.233091309759736 ], [ -119.42308245099278, 37.233005253581943 ], [ -119.42317572715173, 37.233008074438686 ] ] ] ] } },
{ "type": "Feature", "properties": { }, "geometry": { "type": "MultiPolygon", "coordinates": [ [ [ [ -119.423538838842262, 37.23277488027594 ], [ -119.423534497322379, 37.232866673581597 ], [ -119.423398170834034, 37.232862551192554 ], [ -119.423402512518535, 37.232770757900525 ], [ -119.423538838842262, 37.23277488027594 ] ] ] ] } },
{ "type": "Feature", "properties": { }, "geometry": { "type": "MultiPolygon", "coordinates": [ ] } },
{ "type": "Feature", "properties": { }, "geometry": { "type": "MultiPolygon", "coordinates": [ ] } },
{ "type": "Feature", "properties": { }, "geometry": { "type": "MultiPolygon", "coordinates": [ [ [ [ -119.423063341605086, 37.232573779225568 ], [ -119.423058456780836, 37.232677046644071 ], [ -119.422958005985365, 37.232674008718782 ], [ -119.422962890946067, 37.232570741311569 ], [ -119.423063341605086, 37.232573779225568 ] ] ] ] } },
{ "type": "Feature", "properties": { }, "geometry": { "type": "MultiPolygon", "coordinates": [ ] } },
{ "type": "Feature", "properties": { }, "geometry": { "type": "MultiPolygon", "coordinates": [ [ [ [ -119.423187200770542, 37.232689558042445 ], [ -119.423182858837762, 37.232781351314109 ], [ -119.423068057756097, 37.232777879504894 ], [ -119.423072399827518, 37.232686086244691 ], [ -119.423187200770542, 37.232689558042445 ] ] ] ] } },
{ "type": "Feature", "properties": { }, "geometry": { "type": "MultiPolygon", "coordinates": [ ] } },
{ "type": "Feature", "properties": { }, "geometry": { "type": "MultiPolygon", "coordinates": [ ] } },
{ "type": "Feature", "properties": { }, "geometry": { "type": "MultiPolygon", "coordinates": [ ] } },
{ "type": "Feature", "properties": { }, "geometry": { "type": "MultiPolygon", "coordinates": [ [ [ [ -119.423559234096075, 37.232571539314051 ], [ -119.423555706658703, 37.232646121379247 ], [ -119.423469605964272, 37.232643517811837 ], [ -119.423473133486112, 37.232568935753626 ], [ -119.423559234096075, 37.232571539314051 ] ] ] ] } },
{ "type": "Feature", "properties": { }, "geometry": { "type": "MultiPolygon", "coordinates": [ [ [ [ -119.423772315070181, 37.232623944608299 ], [ -119.42376634589705, 37.232750160438549 ], [ -119.423673069995601, 37.232747340063575 ], [ -119.423679039323602, 37.232621124246158 ], [ -119.423772315070181, 37.232623944608299 ] ] ] ] } },
{ "type": "Feature", "properties": { }, "geometry": { "type": "MultiPolygon", "coordinates": [ [ [ [ -119.423883646346297, 37.232506187333932 ], [ -119.42387871803092, 37.232610398390179 ], [ -119.423717720841864, 37.23260553044652 ], [ -119.423722649377979, 37.232501319408534 ], [ -119.423883646346297, 37.232506187333932 ] ] ] ] } },
{ "type": "Feature", "properties": { }, "geometry": { "type": "MultiPolygon", "coordinates": [ [ [ [ -119.423551471757492, 37.233036360168647 ], [ -119.423547412692287, 37.233122180999814 ], [ -119.423463080287078, 37.233119630886122 ], [ -119.423467139447467, 37.233033810062842 ], [ -119.423551471757492, 37.233036360168647 ] ] ] ] } },
{ "type": "Feature", "properties": { }, "geometry": { "type": "MultiPolygon", "coordinates": [ [ [ [ -119.423373609836304, 37.233144550055741 ], [ -119.423368970654693, 37.233242630984648 ], [ -119.423261638354646, 37.233239385204364 ], [ -119.423266277674728, 37.233141304286924 ], [ -119.423373609836304, 37.233144550055741 ] ] ] ] } },
{ "type": "Feature", "properties": { }, "geometry": { "type": "MultiPolygon", "coordinates": [ ] } },
{ "type": "Feature", "properties": { }, "geometry": { "type": "MultiPolygon", "coordinates": [ [ [ [ -119.423802391016423, 37.232844435424859 ], [ -119.423795723056628, 37.232985426832769 ], [ -119.423673057931708, 37.232981717825425 ], [ -119.423679726118991, 37.232840726436365 ], [ -119.423802391016423, 37.232844435424859 ] ] ] ] } },
{ "type": "Feature", "properties": { }, "geometry": { "type": "MultiPolygon", "coordinates": [ ] } },
{ "type": "Feature", "properties": { }, "geometry": { "type": "MultiPolygon", "coordinates": [ ] } },
{ "type": "Feature", "properties": { }, "geometry": { "type": "MultiPolygon", "coordinates": [ [ [ [ -119.423769813921879, 37.23312193823962 ], [ -119.42376831541489, 37.233153623062385 ], [ -119.4237366140039, 37.233152664514776 ], [ -119.423738112524106, 37.233120979693112 ], [ -119.423769813921879, 37.23312193823962 ] ] ] ] } },
{ "type": "Feature", "properties": { }, "geometry": { "type": "MultiPolygon", "coordinates": [ ] } },
{ "type": "Feature", "properties": { }, "geometry": { "type": "MultiPolygon", "coordinates": [ ] } },
{ "type": "Feature", "properties": { }, "geometry": { "type": "MultiPolygon", "coordinates": [ [ [ [ -119.423965716343943, 37.233007286987451 ], [ -119.423960921395533, 37.233108678443195 ], [ -119.42384204115757, 37.233105084043068 ], [ -119.423846836264588, 37.233003692600462 ], [ -119.423965716343943, 37.233007286987451 ] ] ] ] } },
{ "type": "Feature", "properties": { }, "geometry": { "type": "MultiPolygon", "coordinates": [ ] } },
{ "type": "Feature", "properties": { }, "geometry": { "type": "MultiPolygon", "coordinates": [ ] } },
{ "type": "Feature", "properties": { }, "geometry": { "type": "MultiPolygon", "coordinates": [ [ [ [ -119.422980923831062, 37.233272597943881 ], [ -119.42297642728812, 37.233367652327047 ], [ -119.42283377067082, 37.233363337821231 ], [ -119.422838267392137, 37.233268283452837 ], [ -119.422980923831062, 37.233272597943881 ] ] ] ] } },
{ "type": "Feature", "properties": { }, "geometry": { "type": "MultiPolygon", "coordinates": [ ] } },
{ "type": "Feature", "properties": { }, "geometry": { "type": "MultiPolygon", "coordinates": [ ] } },
{ "type": "Feature", "properties": { }, "geometry": { "type": "MultiPolygon", "coordinates": [ ] } },
{ "type": "Feature", "properties": { }, "geometry": { "type": "MultiPolygon", "coordinates": [ [ [ [ -119.408351310367351, 37.418228006685617 ], [ -119.408348108636233, 37.418294961944021 ], [ -119.408249348380025, 37.418291957555311 ], [ -119.408252550198739, 37.418225002304126 ], [ -119.408351310367351, 37.418228006685617 ] ] ] ] } },
{ "type": "Feature", "properties": { }, "geometry": { "type": "MultiPolygon", "coordinates": [ [ [ [ -119.408838761081938, 37.418272416262539 ], [ -119.408834241593254, 37.418366941382843 ], [ -119.408720667130552, 37.418363486790113 ], [ -119.40872518676143, 37.418268961681541 ], [ -119.408838761081938, 37.418272416262539 ] ] ] ] } },
{ "type": "Feature", "properties": { }, "geometry": { "type": "MultiPolygon", "coordinates": [ [ [ [ -119.407909979144321, 37.418821998407971 ], [ -119.407906776951592, 37.418888953627182 ], [ -119.407808015963269, 37.418885948829363 ], [ -119.40781121824358, 37.418818993617393 ], [ -119.407909979144321, 37.418821998407971 ] ] ] ] } },
{ "type": "Feature", "properties": { }, "geometry": { "type": "MultiPolygon", "coordinates": [ ] } },
{ "type": "Feature", "properties": { }, "geometry": { "type": "MultiPolygon", "coordinates": [ ] } },
{ "type": "Feature", "properties": { }, "geometry": { "type": "MultiPolygon", "coordinates": [ [ [ [ -119.407810774421492, 37.41913846622986 ], [ -119.407807383731893, 37.419209359979831 ], [ -119.407728374612063, 37.419206956064279 ], [ -119.407731765375871, 37.419136062320447 ], [ -119.407810774421492, 37.41913846622986 ] ] ] ] } },
{ "type": "Feature", "properties": { }, "geometry": { "type": "MultiPolygon", "coordinates": [ [ [ [ -119.408110105039682, 37.418928665936832 ], [ -119.408105584528059, 37.419023190970982 ], [ -119.407996947224063, 37.419019885861509 ], [ -119.408001467871685, 37.418925360838578 ], [ -119.408110105039682, 37.418928665936832 ] ] ] ] } },
{ "type": "Feature", "properties": { }, "geometry": { "type": "MultiPolygon", "coordinates": [ [ [ [ -119.409933832857462, 37.418556150132908 ], [ -119.409929796348706, 37.418640598698268 ], [ -119.409850386931396, 37.418638184047339 ], [ -119.409854423528984, 37.418553735489326 ], [ -119.409933832857462, 37.418556150132908 ] ] ] ] } },
{ "type": "Feature", "properties": { }, "geometry": { "type": "MultiPolygon", "coordinates": [ [ [ [ -119.407939488709346, 37.419859875536147 ], [ -119.407936242427127, 37.419927750631921 ], [ -119.407860099113037, 37.419925433979508 ], [ -119.407863345463682, 37.419857558889376 ], [ -119.407939488709346, 37.419859875536147 ] ] ] ] } },
{ "type": "Feature", "properties": { }, "geometry": { "type": "MultiPolygon", "coordinates": [ [ [ [ -119.407955982772108, 37.419749472634493 ], [ -119.407952223950247, 37.419828064853455 ], [ -119.407862643698792, 37.419825339393213 ], [ -119.407866402613905, 37.419746747181946 ], [ -119.407955982772108, 37.419749472634493 ] ] ] ] } },
{ "type": "Feature", "properties": { }, "geometry": { "type": "MultiPolygon", "coordinates": [ [ [ [ -119.382705402182097, 37.497778442285764 ], [ -119.382695438529794, 37.497984726380665 ], [ -119.382436528523556, 37.497976787613325 ], [ -119.382446492885222, 37.497770503577257 ], [ -119.382705402182097, 37.497778442285764 ] ] ] ] } },
{ "type": "Feature", "properties": { }, "geometry": { "type": "MultiPolygon", "coordinates": [ [ [ [ -119.382726220812671, 37.498567855471222 ], [ -119.382719878077481, 37.498699170564471 ], [ -119.382613924297331, 37.498695921850896 ], [ -119.382620267217334, 37.498564606772973 ], [ -119.382726220812671, 37.498567855471222 ] ] ] ] } },
{ "type": "Feature", "properties": { }, "geometry": { "type": "MultiPolygon", "coordinates": [ [ [ [ -119.382890807942005, 37.498699714578045 ], [ -119.382884918500281, 37.498821650041371 ], [ -119.382720101217018, 37.498816596662266 ], [ -119.382725990925692, 37.498694661221059 ], [ -119.382890807942005, 37.498699714578045 ] ] ] ] } },
{ "type": "Feature", "properties": { }, "geometry": { "type": "MultiPolygon", "coordinates": [ [ [ [ -119.381697581894784, 37.49805735719039 ], [ -119.381694491304316, 37.498121325441574 ], [ -119.381588849737142, 37.498118085397742 ], [ -119.38159194041738, 37.498054117154005 ], [ -119.381697581894784, 37.49805735719039 ] ] ] ] } },
{ "type": "Feature", "properties": { }, "geometry": { "type": "MultiPolygon", "coordinates": [ ] } },
{ "type": "Feature", "properties": { }, "geometry": { "type": "MultiPolygon", "coordinates": [ [ [ [ -119.381594116056093, 37.49849082404549 ], [ -119.381592001349148, 37.498534591788172 ], [ -119.381532841750129, 37.498532777306977 ], [ -119.38153495649145, 37.498489009567152 ], [ -119.381594116056093, 37.49849082404549 ] ] ] ] } },
{ "type": "Feature", "properties": { }, "geometry": { "type": "MultiPolygon", "coordinates": [ [ [ [ -119.381515615572027, 37.498495159834029 ], [ -119.381513175471895, 37.498545661071127 ], [ -119.381445564497938, 37.498543587330289 ], [ -119.381448004643403, 37.49849308609695 ], [ -119.381515615572027, 37.498495159834029 ] ] ] ] } },
{ "type": "Feature", "properties": { }, "geometry": { "type": "MultiPolygon", "coordinates": [ ] } },
{ "type": "Feature", "properties": { }, "geometry": { "type": "MultiPolygon", "coordinates": [ [ [ [ -119.381731532111857, 37.498493352738436 ], [ -119.381729417484948, 37.498537120487747 ], [ -119.381653355130169, 37.498534787666287 ], [ -119.381655469801316, 37.498491019920635 ], [ -119.381731532111857, 37.498493352738436 ] ] ] ] } },
{ "type": "Feature", "properties": { }, "geometry": { "type": "MultiPolygon", "coordinates": [ [ [ [ -119.381712362812408, 37.498276973541479 ], [ -119.381709597537082, 37.498334208291389 ], [ -119.381472959774385, 37.498326950457709 ], [ -119.381475725229606, 37.498269715722721 ], [ -119.381712362812408, 37.498276973541479 ] ] ] ] } },
{ "type": "Feature", "properties": { }, "geometry": { "type": "MultiPolygon", "coordinates": [ [ [ [ -119.381470442178994, 37.498291469983769 ], [ -119.381467026019635, 37.49836217171444 ], [ -119.381352932790108, 37.498358672224313 ], [ -119.381356349056603, 37.498287970502538 ], [ -119.381470442178994, 37.498291469983769 ] ] ] ] } },
{ "type": "Feature", "properties": { }, "geometry": { "type": "MultiPolygon", "coordinates": [ [ [ [ -119.381340255765821, 37.498358283385301 ], [ -119.38133716483695, 37.498422251607927 ], [ -119.381227297210003, 37.498418881605161 ], [ -119.381230388232197, 37.49835491339028 ], [ -119.381340255765821, 37.498358283385301 ] ] ] ] } },
{ "type": "Feature", "properties": { }, "geometry": { "type": "MultiPolygon", "coordinates": [ [ [ [ -119.381200403885018, 37.498318590402647 ], [ -119.381197638214758, 37.498375825119723 ], [ -119.381053965278952, 37.498371418007459 ], [ -119.381056731058408, 37.498314183299435 ], [ -119.381200403885018, 37.498318590402647 ] ] ] ] } },
{ "type": "Feature", "properties": { }, "geometry": { "type": "MultiPolygon", "coordinates": [ [ [ [ -119.381063474129618, 37.498349793395107 ], [ -119.381059732192995, 37.498427228588234 ], [ -119.38093718756285, 37.498423469444226 ], [ -119.38094092962551, 37.498346034261552 ], [ -119.381063474129618, 37.498349793395107 ] ] ] ] } },
{ "type": "Feature", "properties": { }, "geometry": { "type": "MultiPolygon", "coordinates": [ [ [ [ -119.380889161737628, 37.498410195100035 ], [ -119.380886883924234, 37.498457329556011 ], [ -119.380777016300641, 37.498453959131801 ], [ -119.380779294182815, 37.498406824681538 ], [ -119.380889161737628, 37.498410195100035 ] ] ] ] } },
{ "type": "Feature", "properties": { }, "geometry": { "type": "MultiPolygon", "coordinates": [ [ [ [ -119.380861360271226, 37.49859141608929 ], [ -119.380859733239092, 37.498625083555829 ], [ -119.380758316746679, 37.498621972363544 ], [ -119.380759943824188, 37.498588304900771 ], [ -119.380861360271226, 37.49859141608929 ] ] ] ] } },
{ "type": "Feature", "properties": { }, "geometry": { "type": "MultiPolygon", "coordinates": [ [ [ [ -119.381165286445764, 37.498563650097857 ], [ -119.381162846103663, 37.498614151314783 ], [ -119.38104452684162, 37.498610521886498 ], [ -119.38104696726306, 37.498560020676159 ], [ -119.381165286445764, 37.498563650097857 ] ] ] ] } },
{ "type": "Feature", "properties": { }, "geometry": { "type": "MultiPolygon", "coordinates": [ [ [ [ -119.380681115407953, 37.498643206134155 ], [ -119.380677861173055, 37.498710541052922 ], [ -119.380572218894685, 37.498707300056843 ], [ -119.380575473224056, 37.498639965145912 ], [ -119.380681115407953, 37.498643206134155 ] ] ] ] } },
{ "type": "Feature", "properties": { }, "geometry": { "type": "MultiPolygon", "coordinates": [ [ [ [ -119.380583678060816, 37.498689107060073 ], [ -119.380580749166299, 37.498749708480013 ], [ -119.380458204074117, 37.498745948811766 ], [ -119.380461133067271, 37.498685347400006 ], [ -119.380583678060816, 37.498689107060073 ] ] ] ] } },
{ "type": "Feature", "properties": { }, "geometry": { "type": "MultiPolygon", "coordinates": [ [ [ [ -119.380501304627373, 37.498204421394313 ], [ -119.380498050282526, 37.498271756304703 ], [ -119.380265638698617, 37.498264625705829 ], [ -119.380268893251326, 37.498197290812683 ], [ -119.380501304627373, 37.498204421394313 ] ] ] ] } },
{ "type": "Feature", "properties": { }, "geometry": { "type": "MultiPolygon", "coordinates": [ [ [ [ -119.380348466556811, 37.497908076940895 ], [ -119.380339679524312, 37.498089881174977 ], [ -119.380191781618791, 37.49808534339428 ], [ -119.380200569008437, 37.497903539189814 ], [ -119.380348466556811, 37.497908076940895 ] ] ] ] } },
{ "type": "Feature", "properties": { }, "geometry": { "type": "MultiPolygon", "coordinates": [ [ [ [ -119.380943092357796, 37.49805799334537 ], [ -119.380940147639521, 37.498118929633883 ], [ -119.380794136318229, 37.498114450482184 ], [ -119.380797081154697, 37.498053514203477 ], [ -119.380943092357796, 37.49805799334537 ] ] ] ] } },
{ "type": "Feature", "properties": { }, "geometry": { "type": "MultiPolygon", "coordinates": [ [ [ [ -119.380625341111468, 37.497861004799489 ], [ -119.380623333188183, 37.497902552255795 ], [ -119.38051556327288, 37.497899245959786 ], [ -119.380517571255623, 37.497857698508405 ], [ -119.380625341111468, 37.497861004799489 ] ] ] ] } },
{ "type": "Feature", "properties": { }, "geometry": { "type": "MultiPolygon", "coordinates": [ [ [ [ -119.380416231879835, 37.497748420319098 ], [ -119.380412473084178, 37.497826192139186 ], [ -119.380314860798194, 37.497823197302623 ], [ -119.380318619694677, 37.497745425490898 ], [ -119.380416231879835, 37.497748420319098 ] ] ] ] } },
{ "type": "Feature", "properties": { }, "geometry": { "type": "MultiPolygon", "coordinates": [ [ [ [ -119.380606627410728, 37.497118773261214 ], [ -119.380602185530421, 37.497210685441253 ], [ -119.380491263366423, 37.497207282437074 ], [ -119.380495705382145, 37.497115370268276 ], [ -119.380606627410728, 37.497118773261214 ] ] ] ] } },
{ "type": "Feature", "properties": { }, "geometry": { "type": "MultiPolygon", "coordinates": [ [ [ [ -119.380584535937629, 37.496978252681885 ], [ -119.380581460788719, 37.497041884191297 ], [ -119.380466102000838, 37.497038345058044 ], [ -119.380469177247249, 37.49697471355671 ], [ -119.380584535937629, 37.496978252681885 ] ] ] ] } },
{ "type": "Feature", "properties": { }, "geometry": { "type": "MultiPolygon", "coordinates": [ [ [ [ -119.381127630407363, 37.496911715275232 ], [ -119.381124384910777, 37.496978881909605 ], [ -119.380977968026158, 37.496974390592882 ], [ -119.380981213653371, 37.496907223969345 ], [ -119.381127630407363, 37.496911715275232 ] ] ] ] } },
{ "type": "Feature", "properties": { }, "geometry": { "type": "MultiPolygon", "coordinates": [ [ [ [ -119.381235125470212, 37.497215940236138 ], [ -119.381232221659616, 37.497276036702594 ], [ -119.381072493498777, 37.497271137188314 ], [ -119.381075397436845, 37.497211040732431 ], [ -119.381235125470212, 37.497215940236138 ] ] ] ] } },
{ "type": "Feature", "properties": { }, "geometry": { "type": "MultiPolygon", "coordinates": [ [ [ [ -119.381259209684572, 37.496717493042269 ], [ -119.381255793520054, 37.496788194775256 ], [ -119.381104940122285, 37.496783567542934 ], [ -119.381108356428456, 37.496712865821692 ], [ -119.381259209684572, 37.496717493042269 ] ] ] ] } },
{ "type": "Feature", "properties": { }, "geometry": { "type": "MultiPolygon", "coordinates": [ ] } },
{ "type": "Feature", "properties": { }, "geometry": { "type": "MultiPolygon", "coordinates": [ ] } },
{ "type": "Feature", "properties": { }, "geometry": { "type": "MultiPolygon", "coordinates": [ [ [ [ -119.381228837364048, 37.496835693391574 ], [ -119.381226685154573, 37.496880235481107 ], [ -119.38112419345515, 37.496877091674165 ], [ -119.381126345725249, 37.496832549589655 ], [ -119.381228837364048, 37.496835693391574 ] ] ] ] } },
{ "type": "Feature", "properties": { }, "geometry": { "type": "MultiPolygon", "coordinates": [ [ [ [ -119.382315781896239, 37.497672356980196 ], [ -119.382312120447793, 37.497748154723851 ], [ -119.382175364607775, 37.497743961114544 ], [ -119.382179026193896, 37.497668163382308 ], [ -119.382315781896239, 37.497672356980196 ] ] ] ] } },
{ "type": "Feature", "properties": { }, "geometry": { "type": "MultiPolygon", "coordinates": [ [ [ [ -119.294573970354563, 37.51151084831406 ], [ -119.294570941967464, 37.511572021476908 ], [ -119.294477083389182, 37.511569072951986 ], [ -119.294480111852565, 37.51150789979561 ], [ -119.294573970354563, 37.51151084831406 ] ] ] ] } },
{ "type": "Feature", "properties": { }, "geometry": { "type": "MultiPolygon", "coordinates": [ [ [ [ -119.294709542768985, 37.511620624748957 ], [ -119.294703486182954, 37.511742971090378 ], [ -119.294549899052257, 37.511738146346403 ], [ -119.294555955887958, 37.511615800026185 ], [ -119.294709542768985, 37.511620624748957 ] ] ] ] } },
{ "type": "Feature", "properties": { }, "geometry": { "type": "MultiPolygon", "coordinates": [ [ [ [ -119.294773981587596, 37.51152734270196 ], [ -119.294772299241131, 37.511561327800145 ], [ -119.294712571048279, 37.511559451576979 ], [ -119.294714253421702, 37.511525466481082 ], [ -119.294773981587596, 37.51152734270196 ] ] ] ] } },
{ "type": "Feature", "properties": { }, "geometry": { "type": "MultiPolygon", "coordinates": [ [ [ [ -119.294774594084217, 37.511428651901426 ], [ -119.294771565869823, 37.511489825079039 ], [ -119.294720370324498, 37.511488216891884 ], [ -119.294723398580473, 37.511427043717795 ], [ -119.294774594084217, 37.511428651901426 ] ] ] ] } },
{ "type": "Feature", "properties": { }, "geometry": { "type": "MultiPolygon", "coordinates": [ [ [ [ -119.294842861428876, 37.510481137587497 ], [ -119.294839160471355, 37.510555904822276 ], [ -119.294787965559976, 37.510554296698302 ], [ -119.294791666568358, 37.510479529467837 ], [ -119.294842861428876, 37.510481137587497 ] ] ] ] } },
{ "type": "Feature", "properties": { }, "geometry": { "type": "MultiPolygon", "coordinates": [ [ [ [ -119.29460766608139, 37.51065755441924 ], [ -119.294604974289513, 37.510711930573976 ], [ -119.294545246784821, 37.510710054302166 ], [ -119.294547938619857, 37.510655678151082 ], [ -119.29460766608139, 37.51065755441924 ] ] ] ] } },
{ "type": "Feature", "properties": { }, "geometry": { "type": "MultiPolygon", "coordinates": [ [ [ [ -119.294756910932165, 37.51031845936236 ], [ -119.294754555738223, 37.510366038508579 ], [ -119.294643633726963, 37.510362554147477 ], [ -119.294645988991036, 37.510314975007205 ], [ -119.294756910932165, 37.51031845936236 ] ] ] ] } },
{ "type": "Feature", "properties": { }, "geometry": { "type": "MultiPolygon", "coordinates": [ [ [ [ -119.294759420923967, 37.510008792868256 ], [ -119.294755047039772, 37.510097154144297 ], [ -119.294601463272457, 37.510092329646554 ], [ -119.294605837336945, 37.510003968385853 ], [ -119.294759420923967, 37.510008792868256 ] ] ] ] } },
{ "type": "Feature", "properties": { }, "geometry": { "type": "MultiPolygon", "coordinates": [ [ [ [ -119.294986095624296, 37.510090796471573 ], [ -119.294981721994347, 37.510179157769073 ], [ -119.294836670461635, 37.51017460157415 ], [ -119.294841044261858, 37.510086240291095 ], [ -119.294986095624296, 37.510090796471573 ] ] ] ] } },
{ "type": "Feature", "properties": { }, "geometry": { "type": "MultiPolygon", "coordinates": [ [ [ [ -119.295026220195638, 37.509884425274791 ], [ -119.295021846645554, 37.509972786579404 ], [ -119.294893860343905, 37.509968766478821 ], [ -119.294898234044226, 37.509880405186969 ], [ -119.295026220195638, 37.509884425274791 ] ] ] ] } },
{ "type": "Feature", "properties": { }, "geometry": { "type": "MultiPolygon", "coordinates": [ [ [ [ -119.294256632907064, 37.510152976509239 ], [ -119.294252258407397, 37.510241337732758 ], [ -119.294098674432192, 37.510236512565577 ], [ -119.294103049112138, 37.51014815135737 ], [ -119.294256632907064, 37.510152976509239 ] ] ] ] } },
{ "type": "Feature", "properties": { }, "geometry": { "type": "MultiPolygon", "coordinates": [ [ [ [ -119.294181127131353, 37.510038279150137 ], [ -119.294178771595739, 37.510085858267573 ], [ -119.294076382495732, 37.510082641459164 ], [ -119.29407873809609, 37.510035062347235 ], [ -119.294181127131353, 37.510038279150137 ] ] ] ] } },
{ "type": "Feature", "properties": { }, "geometry": { "type": "MultiPolygon", "coordinates": [ [ [ [ -119.294400868932428, 37.509832002929677 ], [ -119.294397908250303, 37.509891809297059 ], [ -119.294276631833014, 37.509887999319609 ], [ -119.29427959261146, 37.509828192960406 ], [ -119.294400868932428, 37.509832002929677 ] ] ] ] } },
{ "type": "Feature", "properties": { }, "geometry": { "type": "MultiPolygon", "coordinates": [ [ [ [ -119.294659608196511, 37.509863169187177 ], [ -119.294656419987987, 37.509927576062857 ], [ -119.294575568978317, 37.509925036266594 ], [ -119.294578757255991, 37.509860629396776 ], [ -119.294659608196511, 37.509863169187177 ] ] ] ] } },
{ "type": "Feature", "properties": { }, "geometry": { "type": "MultiPolygon", "coordinates": [ [ [ [ -119.293874287154409, 37.51012877890647 ], [ -119.293870414900553, 37.510206987182272 ], [ -119.293645186474208, 37.510199910354864 ], [ -119.293649058962075, 37.510121702098942 ], [ -119.293874287154409, 37.51012877890647 ] ] ] ] } },
{ "type": "Feature", "properties": { }, "geometry": { "type": "MultiPolygon", "coordinates": [ [ [ [ -119.294363046437638, 37.51024550271319 ], [ -119.294360541182755, 37.510296108095297 ], [ -119.294245039214303, 37.510292479478522 ], [ -119.294247544546849, 37.510241874102995 ], [ -119.294363046437638, 37.51024550271319 ] ] ] ] } },
{ "type": "Feature", "properties": { }, "geometry": { "type": "MultiPolygon", "coordinates": [ [ [ [ -119.293639257372746, 37.510144432333618 ], [ -119.29363561266608, 37.510218040102842 ], [ -119.293508560738672, 37.510214047845466 ], [ -119.293512205569584, 37.510140440086793 ], [ -119.293639257372746, 37.510144432333618 ] ] ] ] } },
{ "type": "Feature", "properties": { }, "geometry": { "type": "MultiPolygon", "coordinates": [ [ [ [ -119.294211438497896, 37.509978104059819 ], [ -119.294209616438124, 37.510014907969492 ], [ -119.294105665073346, 37.510011642107358 ], [ -119.294107487183965, 37.509974838201998 ], [ -119.294211438497896, 37.509978104059819 ] ] ] ] } },
{ "type": "Feature", "properties": { }, "geometry": { "type": "MultiPolygon", "coordinates": [ [ [ [ -119.293994928247102, 37.510379078284203 ], [ -119.293990144984804, 37.510475688516159 ], [ -119.293799566371419, 37.510469700616191 ], [ -119.2938043498783, 37.510373090405004 ], [ -119.293994928247102, 37.510379078284203 ] ] ] ] } },
{ "type": "Feature", "properties": { }, "geometry": { "type": "MultiPolygon", "coordinates": [ ] } },
{ "type": "Feature", "properties": { }, "geometry": { "type": "MultiPolygon", "coordinates": [ ] } },
{ "type": "Feature", "properties": { }, "geometry": { "type": "MultiPolygon", "coordinates": [ [ [ [ -119.293699537037469, 37.510531487663556 ], [ -119.293695390854126, 37.510615223325857 ], [ -119.293436105423837, 37.510607075950674 ], [ -119.293440251895632, 37.510523340312865 ], [ -119.293699537037469, 37.510531487663556 ] ] ] ] } },
{ "type": "Feature", "properties": { }, "geometry": { "type": "MultiPolygon", "coordinates": [ [ [ [ -119.29345268711316, 37.510602937785954 ], [ -119.293448356355427, 37.510690395007671 ], [ -119.293247468390263, 37.510684082245575 ], [ -119.293251799381409, 37.510596625043682 ], [ -119.29345268711316, 37.510602937785954 ] ] ] ] } },
{ "type": "Feature", "properties": { }, "geometry": { "type": "MultiPolygon", "coordinates": [ [ [ [ -119.293501904000337, 37.510749681131053 ], [ -119.293497435182061, 37.510839927123257 ], [ -119.29334837114591, 37.510835242979987 ], [ -119.293352840142916, 37.510744997002945 ], [ -119.293501904000337, 37.510749681131053 ] ] ] ] } },
{ "type": "Feature", "properties": { }, "geometry": { "type": "MultiPolygon", "coordinates": [ [ [ [ -119.29312909114141, 37.510861652303113 ], [ -119.293123445725186, 37.510975647190008 ], [ -119.292932643500563, 37.510969650830511 ], [ -119.292938289205722, 37.510855655968157 ], [ -119.29312909114141, 37.510861652303113 ] ] ] ] } },
{ "type": "Feature", "properties": { }, "geometry": { "type": "MultiPolygon", "coordinates": [ [ [ [ -119.293257556900201, 37.510739624168615 ], [ -119.293252146921361, 37.510848869286775 ], [ -119.293073270110568, 37.510843247919738 ], [ -119.293078680349012, 37.510734002823625 ], [ -119.293257556900201, 37.510739624168615 ] ] ] ] } },
{ "type": "Feature", "properties": { }, "geometry": { "type": "MultiPolygon", "coordinates": [ [ [ [ -119.29345727337045, 37.511047981014357 ], [ -119.293450922793781, 37.511176225305569 ], [ -119.29328993292242, 37.511171166320949 ], [ -119.293296283773373, 37.511042922053036 ], [ -119.29345727337045, 37.511047981014357 ] ] ] ] } },
{ "type": "Feature", "properties": { }, "geometry": { "type": "MultiPolygon", "coordinates": [ [ [ [ -119.293022756835597, 37.511260292197349 ], [ -119.293018993066397, 37.511336288774643 ], [ -119.29289377851245, 37.511332353555638 ], [ -119.29289754240807, 37.511256356989094 ], [ -119.293022756835597, 37.511260292197349 ] ] ] ] } },
{ "type": "Feature", "properties": { }, "geometry": { "type": "MultiPolygon", "coordinates": [ [ [ [ -119.29301051471316, 37.511145735166764 ], [ -119.293006750947086, 37.511221731744477 ], [ -119.29286364882239, 37.511217234337323 ], [ -119.292867412732974, 37.511141237771888 ], [ -119.29301051471316, 37.511145735166764 ] ] ] ] } },
{ "type": "Feature", "properties": { }, "geometry": { "type": "MultiPolygon", "coordinates": [ [ [ [ -119.292984777591911, 37.511002210947602 ], [ -119.292980543346658, 37.511087707097026 ], [ -119.292825516328179, 37.511082834878479 ], [ -119.292829750749505, 37.510997338744012 ], [ -119.292984777591911, 37.511002210947602 ] ] ] ] } },
{ "type": "Feature", "properties": { }, "geometry": { "type": "MultiPolygon", "coordinates": [ [ [ [ -119.29329564945111, 37.511657073867546 ], [ -119.293292489983756, 37.51172087242616 ], [ -119.293163457195718, 37.511716817491973 ], [ -119.293166616772439, 37.511653018942653 ], [ -119.29329564945111, 37.511657073867546 ] ] ] ] } },
{ "type": "Feature", "properties": { }, "geometry": { "type": "MultiPolygon", "coordinates": [ [ [ [ -119.293417863231198, 37.511708837759812 ], [ -119.293413826257662, 37.511790358150677 ], [ -119.293329287441551, 37.511787701568217 ], [ -119.293333324506662, 37.511706181185133 ], [ -119.293417863231198, 37.511708837759812 ] ] ] ] } },
{ "type": "Feature", "properties": { }, "geometry": { "type": "MultiPolygon", "coordinates": [ [ [ [ -119.292864984569462, 37.511531030146138 ], [ -119.292860290278711, 37.511625810436449 ], [ -119.292719675211089, 37.511621391002336 ], [ -119.292724369678908, 37.511526610727067 ], [ -119.292864984569462, 37.511531030146138 ] ] ] ] } },
{ "type": "Feature", "properties": { }, "geometry": { "type": "MultiPolygon", "coordinates": [ ] } },
{ "type": "Feature", "properties": { }, "geometry": { "type": "MultiPolygon", "coordinates": [ ] } },
{ "type": "Feature", "properties": { }, "geometry": { "type": "MultiPolygon", "coordinates": [ [ [ [ -119.292828410988236, 37.511667957518092 ], [ -119.29282393000851, 37.511758429607582 ], [ -119.292721172663136, 37.511755199996244 ], [ -119.29272565376634, 37.511664727917243 ], [ -119.292828410988236, 37.511667957518092 ] ] ] ] } },
{ "type": "Feature", "properties": { }, "geometry": { "type": "MultiPolygon", "coordinates": [ [ [ [ -119.292435627992575, 37.511286688081483 ], [ -119.292431146600393, 37.511377160136526 ], [ -119.292333798074466, 37.511374100209558 ], [ -119.292338279583674, 37.511283628164463 ], [ -119.292435627992575, 37.511286688081483 ] ] ] ] } },
{ "type": "Feature", "properties": { }, "geometry": { "type": "MultiPolygon", "coordinates": [ [ [ [ -119.292750122961351, 37.511225377068001 ], [ -119.292746068721684, 37.511307232766967 ], [ -119.292654128499777, 37.511304343087737 ], [ -119.292658182839418, 37.511222487397255 ], [ -119.292750122961351, 37.511225377068001 ] ] ] ] } },
{ "type": "Feature", "properties": { }, "geometry": { "type": "MultiPolygon", "coordinates": [ [ [ [ -119.292468574299292, 37.511223000140419 ], [ -119.292466867123693, 37.511257465687081 ], [ -119.292380335234611, 37.511254745789458 ], [ -119.29238204244983, 37.511220280246164 ], [ -119.292468574299292, 37.511223000140419 ] ] ] ] } },
{ "type": "Feature", "properties": { }, "geometry": { "type": "MultiPolygon", "coordinates": [ [ [ [ -119.292475119551455, 37.511145537654912 ], [ -119.292472558798636, 37.51119723597585 ], [ -119.292396843455407, 37.511194856075775 ], [ -119.292399404260209, 37.51114315775925 ], [ -119.292475119551455, 37.511145537654912 ] ] ] ] } },
{ "type": "Feature", "properties": { }, "geometry": { "type": "MultiPolygon", "coordinates": [ ] } },
{ "type": "Feature", "properties": { }, "geometry": { "type": "MultiPolygon", "coordinates": [ [ [ [ -119.29250532494008, 37.511027827286732 ], [ -119.292501697249946, 37.511101066578533 ], [ -119.292344858530598, 37.511096136781191 ], [ -119.292348486373356, 37.511022897502372 ], [ -119.29250532494008, 37.511027827286732 ] ] ] ] } },
{ "type": "Feature", "properties": { }, "geometry": { "type": "MultiPolygon", "coordinates": [ [ [ [ -119.292442203432344, 37.510935230344039 ], [ -119.292439002486205, 37.510999853245025 ], [ -119.292336246225631, 37.510996623354117 ], [ -119.292339447259977, 37.51093200046062 ], [ -119.292442203432344, 37.510935230344039 ] ] ] ] } },
{ "type": "Feature", "properties": { }, "geometry": { "type": "MultiPolygon", "coordinates": [ [ [ [ -119.292638569656589, 37.510852946902006 ], [ -119.292635795658825, 37.510908953429478 ], [ -119.292560080592793, 37.510906573649521 ], [ -119.292562854646889, 37.510850567126845 ], [ -119.292638569656589, 37.510852946902006 ] ] ] ] } },
{ "type": "Feature", "properties": { }, "geometry": { "type": "MultiPolygon", "coordinates": [ [ [ [ -119.292844627699267, 37.510534039422168 ], [ -119.292839040555776, 37.510646850300773 ], [ -119.29266910289688, 37.510641509274315 ], [ -119.292674690295044, 37.510528698417332 ], [ -119.292844627699267, 37.510534039422168 ] ] ] ] } },
{ "type": "Feature", "properties": { }, "geometry": { "type": "MultiPolygon", "coordinates": [ [ [ [ -119.293043956825883, 37.510447090026275 ], [ -119.293041163416788, 37.510503495479526 ], [ -119.292906629659626, 37.510499267430909 ], [ -119.292909423169533, 37.510442861986228 ], [ -119.293043956825883, 37.510447090026275 ] ] ] ] } },
{ "type": "Feature", "properties": { }, "geometry": { "type": "MultiPolygon", "coordinates": [ [ [ [ -119.293035746416919, 37.510040080653702 ], [ -119.293032953042683, 37.510096486110321 ], [ -119.292926742757118, 37.510093148213173 ], [ -119.292929536210949, 37.510036742763319 ], [ -119.293035746416919, 37.510040080653702 ] ] ] ] } },
{ "type": "Feature", "properties": { }, "geometry": { "type": "MultiPolygon", "coordinates": [ [ [ [ -119.29365142943719, 37.509779786356283 ], [ -119.29364696081791, 37.509870035153497 ], [ -119.293484105432512, 37.509864917878303 ], [ -119.29348857424705, 37.509774669097688 ], [ -119.29365142943719, 37.509779786356283 ] ] ] ] } },
{ "type": "Feature", "properties": { }, "geometry": { "type": "MultiPolygon", "coordinates": [ [ [ [ -119.250406802804832, 37.482862301430963 ], [ -119.250402777833784, 37.48294272854185 ], [ -119.250328181323027, 37.482940357746749 ], [ -119.250332206373699, 37.482859930642711 ], [ -119.250406802804832, 37.482862301430963 ] ] ] ] } },
{ "type": "Feature", "properties": { }, "geometry": { "type": "MultiPolygon", "coordinates": [ [ [ [ -119.250325387755851, 37.483040087147288 ], [ -119.250321537675674, 37.483117017417797 ], [ -119.250220612761709, 37.483113809778239 ], [ -119.250224462944885, 37.48303687951659 ], [ -119.250325387755851, 37.483040087147288 ] ] ] ] } },
{ "type": "Feature", "properties": { }, "geometry": { "type": "MultiPolygon", "coordinates": [ [ [ [ -119.250496227452288, 37.482260980663114 ], [ -119.250491152717146, 37.48236238877994 ], [ -119.250385840802466, 37.482359041884081 ], [ -119.250390915679333, 37.482257633779447 ], [ -119.250496227452288, 37.482260980663114 ] ] ] ] } },
{ "type": "Feature", "properties": { }, "geometry": { "type": "MultiPolygon", "coordinates": [ [ [ [ -119.250129830317348, 37.482249335893286 ], [ -119.250123880047227, 37.482368228118226 ], [ -119.250005404185146, 37.482364462485009 ], [ -119.250011354642183, 37.48224557027617 ], [ -119.250129830317348, 37.482249335893286 ] ] ] ] } },
{ "type": "Feature", "properties": { }, "geometry": { "type": "MultiPolygon", "coordinates": [ ] } },
{ "type": "Feature", "properties": { }, "geometry": { "type": "MultiPolygon", "coordinates": [ [ [ [ -119.223482917909905, 37.587153726835481 ], [ -119.223478623013463, 37.587238612559979 ], [ -119.223323466720316, 37.587233641118949 ], [ -119.223327761792163, 37.587148755409586 ], [ -119.223482917909905, 37.587153726835481 ] ] ] ] } },
{ "type": "Feature", "properties": { }, "geometry": { "type": "MultiPolygon", "coordinates": [ [ [ [ -119.222211204974684, 37.587715865794316 ], [ -119.222201830927403, 37.587901070719532 ], [ -119.222056370826849, 37.587896408356592 ], [ -119.22206574523301, 37.587711203462355 ], [ -119.222211204974684, 37.587715865794316 ] ] ] ] } },
{ "type": "Feature", "properties": { }, "geometry": { "type": "MultiPolygon", "coordinates": [ ] } },
{ "type": "Feature", "properties": { }, "geometry": { "type": "MultiPolygon", "coordinates": [ [ [ [ -119.169777175287791, 37.477415559567142 ], [ -119.169772396074052, 37.47750906022705 ], [ -119.169680214858502, 37.477506067520252 ], [ -119.169684994186568, 37.477412566870392 ], [ -119.169777175287791, 37.477415559567142 ] ] ] ] } },
{ "type": "Feature", "properties": { }, "geometry": { "type": "MultiPolygon", "coordinates": [ [ [ [ -119.169219320372548, 37.478855418694941 ], [ -119.169215871368749, 37.478922881758741 ], [ -119.16912315722449, 37.478919871271856 ], [ -119.169126606311238, 37.478852408215332 ], [ -119.169219320372548, 37.478855418694941 ] ] ] ] } },
{ "type": "Feature", "properties": { }, "geometry": { "type": "MultiPolygon", "coordinates": [ [ [ [ -119.169175509056672, 37.478804119300094 ], [ -119.169173373940026, 37.478845882147461 ], [ -119.169104846166661, 37.478843656991195 ], [ -119.169106981321264, 37.478801894147161 ], [ -119.169175509056672, 37.478804119300094 ] ] ] ] } },
{ "type": "Feature", "properties": { }, "geometry": { "type": "MultiPolygon", "coordinates": [ ] } },
{ "type": "Feature", "properties": { }, "geometry": { "type": "MultiPolygon", "coordinates": [ [ [ [ -119.169067238681947, 37.478710503583521 ], [ -119.169064610780168, 37.478761904005289 ], [ -119.169000114132473, 37.478759809686252 ], [ -119.169002742078234, 37.478708409268357 ], [ -119.169067238681947, 37.478710503583521 ] ] ] ] } },
{ "type": "Feature", "properties": { }, "geometry": { "type": "MultiPolygon", "coordinates": [ [ [ [ -119.169048076005623, 37.478769411744501 ], [ -119.169046762046236, 37.478795111954625 ], [ -119.168978234329373, 37.478792886727483 ], [ -119.168979548312151, 37.478767186519413 ], [ -119.169048076005623, 37.478769411744501 ] ] ] ] } },
{ "type": "Feature", "properties": { }, "geometry": { "type": "MultiPolygon", "coordinates": [ [ [ [ -119.169103555530754, 37.478671459592633 ], [ -119.169102077352903, 37.478700372331375 ], [ -119.169013394532882, 37.478697492665795 ], [ -119.169014872744754, 37.478668579930044 ], [ -119.169103555530754, 37.478671459592633 ] ] ] ] } },
{ "type": "Feature", "properties": { }, "geometry": { "type": "MultiPolygon", "coordinates": [ ] } },
{ "type": "Feature", "properties": { }, "geometry": { "type": "MultiPolygon", "coordinates": [ [ [ [ -119.169128675416033, 37.478535516223502 ], [ -119.169126704534335, 37.4785740665438 ], [ -119.169042052891342, 37.47857131779903 ], [ -119.169044023816326, 37.478532767482555 ], [ -119.169128675416033, 37.478535516223502 ] ] ] ] } },
{ "type": "Feature", "properties": { }, "geometry": { "type": "MultiPolygon", "coordinates": [ [ [ [ -119.168974766742764, 37.478988157778225 ], [ -119.168971831942414, 37.479045559003531 ], [ -119.168904950042631, 37.479043387172062 ], [ -119.168907884893912, 37.478985985951233 ], [ -119.168974766742764, 37.478988157778225 ] ] ] ] } },
{ "type": "Feature", "properties": { }, "geometry": { "type": "MultiPolygon", "coordinates": [ [ [ [ -119.16900588395049, 37.478833106221821 ], [ -119.169002949190357, 37.478890507450735 ], [ -119.168925777924841, 37.478888001517085 ], [ -119.168928712743707, 37.478830600293335 ], [ -119.16900588395049, 37.478833106221821 ] ] ] ] } },
{ "type": "Feature", "properties": { }, "geometry": { "type": "MultiPolygon", "coordinates": [ [ [ [ -119.169773656490975, 37.477775867751475 ], [ -119.169770093701686, 37.477845569318809 ], [ -119.169687778757648, 37.477842896918702 ], [ -119.169691341623064, 37.477773195358054 ], [ -119.169773656490975, 37.477775867751475 ] ] ] ] } },
{ "type": "Feature", "properties": { }, "geometry": { "type": "MultiPolygon", "coordinates": [ [ [ [ -119.169724352861365, 37.477681861929405 ], [ -119.169722466662463, 37.477718762757782 ], [ -119.169635007187466, 37.477715923303641 ], [ -119.169636893429157, 37.477679022479023 ], [ -119.169724352861365, 37.477681861929405 ] ] ] ] } },
{ "type": "Feature", "properties": { }, "geometry": { "type": "MultiPolygon", "coordinates": [ [ [ [ -119.169620810870654, 37.477489583120452 ], [ -119.169616619228862, 37.477571584953552 ], [ -119.169482857962748, 37.477567242127456 ], [ -119.16948704975006, 37.477485240307146 ], [ -119.169620810870654, 37.477489583120452 ] ] ] ] } },
{ "type": "Feature", "properties": { }, "geometry": { "type": "MultiPolygon", "coordinates": [ [ [ [ -119.169374048389685, 37.477730038570783 ], [ -119.169369646844004, 37.477816140467112 ], [ -119.169282187291671, 37.477813300745566 ], [ -119.16928658893724, 37.47772719885802 ], [ -119.169374048389685, 37.477730038570783 ] ] ] ] } },
{ "type": "Feature", "properties": { }, "geometry": { "type": "MultiPolygon", "coordinates": [ [ [ [ -119.169447378959717, 37.477656441912693 ], [ -119.169444235068894, 37.47771794327344 ], [ -119.169377354315344, 37.477715771774513 ], [ -119.169380498260722, 37.477654270418569 ], [ -119.169447378959717, 37.477656441912693 ] ] ] ] } },
{ "type": "Feature", "properties": { }, "geometry": { "type": "MultiPolygon", "coordinates": [ ] } },
{ "type": "Feature", "properties": { }, "geometry": { "type": "MultiPolygon", "coordinates": [ [ [ [ -119.169495547821157, 37.477419805883457 ], [ -119.169493242350782, 37.477464906885764 ], [ -119.169395493883485, 37.477461733202517 ], [ -119.169397799412337, 37.477416632205355 ], [ -119.169495547821157, 37.477419805883457 ] ] ] ] } },
{ "type": "Feature", "properties": { }, "geometry": { "type": "MultiPolygon", "coordinates": [ [ [ [ -119.168902682025475, 37.477727053737325 ], [ -119.168897651068505, 37.477825455850102 ], [ -119.168805046876741, 37.477822448713539 ], [ -119.168810077954575, 37.477724046611385 ], [ -119.168902682025475, 37.477727053737325 ] ] ] ] } },
{ "type": "Feature", "properties": { }, "geometry": { "type": "MultiPolygon", "coordinates": [ [ [ [ -119.169080925132818, 37.477919705342742 ], [ -119.169077780911792, 37.477981206674343 ], [ -119.169005755263413, 37.47797886789818 ], [ -119.169008899543215, 37.477917366571745 ], [ -119.169080925132818, 37.477919705342742 ] ] ] ] } },
{ "type": "Feature", "properties": { }, "geometry": { "type": "MultiPolygon", "coordinates": [ [ [ [ -119.169187486994531, 37.477851294804999 ], [ -119.169184552477304, 37.477908696055692 ], [ -119.169102237520519, 37.477906023243825 ], [ -119.169105172100444, 37.477848621998653 ], [ -119.169187486994531, 37.477851294804999 ] ] ] ] } },
{ "type": "Feature", "properties": { }, "geometry": { "type": "MultiPolygon", "coordinates": [ [ [ [ -119.168922356395555, 37.477594218521382 ], [ -119.168919421702768, 37.477651619756713 ], [ -119.168847396384095, 37.477649280901439 ], [ -119.168850331131736, 37.477591879670918 ], [ -119.168922356395555, 37.477594218521382 ] ] ] ] } },
{ "type": "Feature", "properties": { }, "geometry": { "type": "MultiPolygon", "coordinates": [ [ [ [ -119.169160097402099, 37.477429448677341 ], [ -119.169157582122466, 37.477478649751333 ], [ -119.169095846259566, 37.477476645153189 ], [ -119.169098361579515, 37.477427444082736 ], [ -119.169160097402099, 37.477429448677341 ] ] ] ] } },
{ "type": "Feature", "properties": { }, "geometry": { "type": "MultiPolygon", "coordinates": [ [ [ [ -119.169576034926862, 37.478063094823362 ], [ -119.169571214381264, 37.47815739691719 ], [ -119.169488899114384, 37.47815472435969 ], [ -119.169493719762954, 37.478060422274922 ], [ -119.169576034926862, 37.478063094823362 ] ] ] ] } },
{ "type": "Feature", "properties": { }, "geometry": { "type": "MultiPolygon", "coordinates": [ [ [ [ -119.169809642140066, 37.478029610137192 ], [ -119.169806079351574, 37.478099311704476 ], [ -119.169723764125763, 37.47809663931411 ], [ -119.169727326990369, 37.478026937753526 ], [ -119.169809642140066, 37.478029610137192 ] ] ] ] } },
{ "type": "Feature", "properties": { }, "geometry": { "type": "MultiPolygon", "coordinates": [ [ [ [ -119.169999624048501, 37.477992655320413 ], [ -119.169996061441211, 37.478062356903649 ], [ -119.16991889093751, 37.478059851665535 ], [ -119.169922453616167, 37.477990150088566 ], [ -119.169999624048501, 37.477992655320413 ] ] ] ] } },
{ "type": "Feature", "properties": { }, "geometry": { "type": "MultiPolygon", "coordinates": [ [ [ [ -119.169272326048159, 37.478226413701677 ], [ -119.169269671611019, 37.478278336840482 ], [ -119.169168323869073, 37.478275046077513 ], [ -119.169170978376044, 37.478223122944847 ], [ -119.169272326048159, 37.478226413701677 ] ] ] ] } },
{ "type": "Feature", "properties": { }, "geometry": { "type": "MultiPolygon", "coordinates": [ [ [ [ -119.169319393568756, 37.478369522901275 ], [ -119.169317623957312, 37.478404138328294 ], [ -119.169274189133489, 37.478402728025536 ], [ -119.169275958764871, 37.478368112600265 ], [ -119.169319393568756, 37.478369522901275 ] ] ] ] } },
{ "type": "Feature", "properties": { }, "geometry": { "type": "MultiPolygon", "coordinates": [ [ [ [ -119.169255139280608, 37.478491681100209 ], [ -119.169252484806151, 37.478543604235647 ], [ -119.169151136707995, 37.478540313438209 ], [ -119.169153791252256, 37.478488390308918 ], [ -119.169255139280608, 37.478491681100209 ] ] ] ] } },
{ "type": "Feature", "properties": { }, "geometry": { "type": "MultiPolygon", "coordinates": [ [ [ [ -119.168996502152254, 37.478231904535292 ], [ -119.168993847523737, 37.478283827657251 ], [ -119.168892499807129, 37.47828053665728 ], [ -119.168895154505464, 37.478228613541454 ], [ -119.168996502152254, 37.478231904535292 ] ] ] ] } },
{ "type": "Feature", "properties": { }, "geometry": { "type": "MultiPolygon", "coordinates": [ [ [ [ -119.170400490240723, 37.477292198128666 ], [ -119.170399310878395, 37.477315275113483 ], [ -119.170348637588617, 37.477313630263097 ], [ -119.170349816966436, 37.477290553279659 ], [ -119.170400490240723, 37.477292198128666 ] ] ] ] } },
{ "type": "Feature", "properties": { }, "geometry": { "type": "MultiPolygon", "coordinates": [ [ [ [ -119.170372992881653, 37.477120830479159 ], [ -119.170369749628847, 37.477184292186898 ], [ -119.170268403233777, 37.477181002448859 ], [ -119.170271646571905, 37.477117540748608 ], [ -119.170372992881653, 37.477120830479159 ] ] ] ] } },
{ "type": "Feature", "properties": { }, "geometry": { "type": "MultiPolygon", "coordinates": [ [ [ [ -119.170435180183134, 37.477039056209918 ], [ -119.170432231828443, 37.477096748676537 ], [ -119.17032364652448, 37.477093224018276 ], [ -119.170326594962305, 37.477035531558961 ], [ -119.170435180183134, 37.477039056209918 ] ] ] ] } },
{ "type": "Feature", "properties": { }, "geometry": { "type": "MultiPolygon", "coordinates": [ [ [ [ -119.170728065561221, 37.477054341519093 ], [ -119.170723643361299, 37.4771408802482 ], [ -119.170557145748234, 37.47713547613678 ], [ -119.170561568139291, 37.477048937424456 ], [ -119.170728065561221, 37.477054341519093 ] ] ] ] } },
{ "type": "Feature", "properties": { }, "geometry": { "type": "MultiPolygon", "coordinates": [ [ [ [ -119.170563597647174, 37.477363948823879 ], [ -119.170560944186036, 37.477415872048809 ], [ -119.170459597455547, 37.477412582457553 ], [ -119.170462250986461, 37.477360659238741 ], [ -119.170563597647174, 37.477363948823879 ] ] ] ] } },
{ "type": "Feature", "properties": { }, "geometry": { "type": "MultiPolygon", "coordinates": [ [ [ [ -119.169422027404522, 37.477141967769249 ], [ -119.169418488430082, 37.477211198645712 ], [ -119.169295425045519, 37.47720720295932 ], [ -119.169298964132977, 37.477137972092784 ], [ -119.169422027404522, 37.477141967769249 ] ] ] ] } },
{ "type": "Feature", "properties": { }, "geometry": { "type": "MultiPolygon", "coordinates": [ [ [ [ -119.169571231289908, 37.477060129789699 ], [ -119.169568282268798, 37.477117822197719 ], [ -119.169503131131805, 37.477115706937319 ], [ -119.169506080202794, 37.477058014533682 ], [ -119.169571231289908, 37.477060129789699 ] ] ] ] } },
{ "type": "Feature", "properties": { }, "geometry": { "type": "MultiPolygon", "coordinates": [ [ [ [ -119.169844706305767, 37.477242372763932 ], [ -119.169841167708412, 37.477311603673499 ], [ -119.169761538310823, 37.477309018522952 ], [ -119.169765076981307, 37.477239787619801 ], [ -119.169844706305767, 37.477242372763932 ] ] ] ] } },
{ "type": "Feature", "properties": { }, "geometry": { "type": "MultiPolygon", "coordinates": [ [ [ [ -119.16967739409931, 37.477962182265166 ], [ -119.169672970542891, 37.478048720874462 ], [ -119.169571623063177, 37.478045430474488 ], [ -119.169576046735926, 37.477958891875446 ], [ -119.16967739409931, 37.477962182265166 ] ] ] ] } },
{ "type": "Feature", "properties": { }, "geometry": { "type": "MultiPolygon", "coordinates": [ [ [ [ -119.169586799363628, 37.477858428207384 ], [ -119.169583406055835, 37.47792481063702 ], [ -119.169536858874551, 37.477923299389161 ], [ -119.169540252223328, 37.477856916963113 ], [ -119.169586799363628, 37.477858428207384 ] ] ] ] } },
{ "type": "Feature", "properties": { }, "geometry": { "type": "MultiPolygon", "coordinates": [ [ [ [ -119.169454888659544, 37.477918682351927 ], [ -119.169452493297044, 37.477965540529944 ], [ -119.169408395950171, 37.477964108771715 ], [ -119.169410791340098, 37.477917250596114 ], [ -119.169454888659544, 37.477918682351927 ] ] ] ] } },
{ "type": "Feature", "properties": { }, "geometry": { "type": "MultiPolygon", "coordinates": [ [ [ [ -119.169381864948036, 37.477883065104741 ], [ -119.169377672985618, 37.477965066909427 ], [ -119.169296827859668, 37.477962441955654 ], [ -119.169301019910023, 37.477880440158692 ], [ -119.169381864948036, 37.477883065104741 ] ] ] ] } },
{ "type": "Feature", "properties": { }, "geometry": { "type": "MultiPolygon", "coordinates": [ [ [ [ -119.168845600736091, 37.478871071780098 ], [ -119.168839498729838, 37.478990416096281 ], [ -119.168745368707448, 37.478987359331263 ], [ -119.168751470862759, 37.478868015028176 ], [ -119.168845600736091, 37.478871071780098 ] ] ] ] } },
{ "type": "Feature", "properties": { }, "geometry": { "type": "MultiPolygon", "coordinates": [ [ [ [ -119.168959529543017, 37.47911556407238 ], [ -119.168956217098923, 37.479180350993246 ], [ -119.168879201419557, 37.479177850074599 ], [ -119.168882513929844, 37.479113063159552 ], [ -119.168959529543017, 37.47911556407238 ] ] ] ] } },
{ "type": "Feature", "properties": { }, "geometry": { "type": "MultiPolygon", "coordinates": [ [ [ [ -119.168797504079976, 37.479057362358105 ], [ -119.1687940171565, 37.47912555910461 ], [ -119.168721280192642, 37.479123197030262 ], [ -119.168724767181928, 37.479055000289549 ], [ -119.168797504079976, 37.479057362358105 ] ] ] ] } },
{ "type": "Feature", "properties": { }, "geometry": { "type": "MultiPolygon", "coordinates": [ [ [ [ -119.169126730324095, 37.478946802908624 ], [ -119.169122197728342, 37.479035458714733 ], [ -119.169045182182685, 37.479032957912452 ], [ -119.169049714869047, 37.478944302114307 ], [ -119.169126730324095, 37.478946802908624 ] ] ] ] } },
{ "type": "Feature", "properties": { }, "geometry": { "type": "MultiPolygon", "coordinates": [ [ [ [ -119.165422846787422, 37.382983510658924 ], [ -119.165420321733478, 37.383033023982684 ], [ -119.16534448447608, 37.383030561261435 ], [ -119.165347009579662, 37.382981047942074 ], [ -119.165422846787422, 37.382983510658924 ] ] ] ] } },
{ "type": "Feature", "properties": { }, "geometry": { "type": "MultiPolygon", "coordinates": [ [ [ [ -119.165406252577611, 37.383038077699076 ], [ -119.165403727507737, 37.383087591021408 ], [ -119.165245158595525, 37.383082441611265 ], [ -119.165247683769181, 37.383032928298093 ], [ -119.165406252577611, 37.383038077699076 ] ] ] ] } },
{ "type": "Feature", "properties": { }, "geometry": { "type": "MultiPolygon", "coordinates": [ [ [ [ -119.165210246077436, 37.38295456423446 ], [ -119.165206879154567, 37.383020581983203 ], [ -119.165124147635893, 37.383017895227248 ], [ -119.165127514630953, 37.382951877484885 ], [ -119.165210246077436, 37.38295456423446 ] ] ] ] } },
{ "type": "Feature", "properties": { }, "geometry": { "type": "MultiPolygon", "coordinates": [ [ [ [ -119.165101560828774, 37.382986853448287 ], [ -119.165096790877612, 37.383080378579599 ], [ -119.164931327741201, 37.383075004848671 ], [ -119.164936097896927, 37.382981479735427 ], [ -119.165101560828774, 37.382986853448287 ] ] ] ] } },
{ "type": "Feature", "properties": { }, "geometry": { "type": "MultiPolygon", "coordinates": [ [ [ [ -119.165123386026792, 37.383100529353456 ], [ -119.165117493740269, 37.383216060398453 ], [ -119.164958924610758, 37.383210910589511 ], [ -119.164964817139477, 37.383095379565894 ], [ -119.165123386026792, 37.383100529353456 ] ] ] ] } },
{ "type": "Feature", "properties": { }, "geometry": { "type": "MultiPolygon", "coordinates": [ [ [ [ -119.16329759089426, 37.38293327347062 ], [ -119.163293691321073, 37.383009697095687 ], [ -119.163237824410018, 37.383007881882733 ], [ -119.163241724039636, 37.38293145826264 ], [ -119.16329759089426, 37.38293327347062 ] ] ] ] } },
{ "type": "Feature", "properties": { }, "geometry": { "type": "MultiPolygon", "coordinates": [ [ [ [ -119.163838510691519, 37.382985933067076 ], [ -119.163835586419154, 37.383043250821878 ], [ -119.163723852481198, 37.383039620878883 ], [ -119.163726776838203, 37.382982303131563 ], [ -119.163838510691519, 37.382985933067076 ] ] ] ] } },
{ "type": "Feature", "properties": { }, "geometry": { "type": "MultiPolygon", "coordinates": [ [ [ [ -119.164004141246338, 37.382873298652996 ], [ -119.163999917494024, 37.382956090982901 ], [ -119.163872221689729, 37.382951942653669 ], [ -119.16387644558182, 37.382869150336113 ], [ -119.164004141246338, 37.382873298652996 ] ] ] ] } },
{ "type": "Feature", "properties": { }, "geometry": { "type": "MultiPolygon", "coordinates": [ [ [ [ -119.163794158032786, 37.38260174047506 ], [ -119.163790908848355, 37.382665426870041 ], [ -119.163703118340479, 37.382662574772105 ], [ -119.163706367598806, 37.38259888838364 ], [ -119.163794158032786, 37.38260174047506 ] ] ] ] } },
{ "type": "Feature", "properties": { }, "geometry": { "type": "MultiPolygon", "coordinates": [ [ [ [ -119.163614586703829, 37.38259590658221 ], [ -119.16361231216996, 37.382640487049457 ], [ -119.163452693160266, 37.382635301130378 ], [ -119.163454967788198, 37.382590720671445 ], [ -119.163614586703829, 37.38259590658221 ] ] ] ] } },
{ "type": "Feature", "properties": { }, "geometry": { "type": "MultiPolygon", "coordinates": [ [ [ [ -119.163447493991924, 37.38273719932053 ], [ -119.163445219347537, 37.382781779777957 ], [ -119.163357428739644, 37.38277892741587 ], [ -119.163359703435759, 37.382734346963005 ], [ -119.163447493991924, 37.38273719932053 ] ] ] ] } },
{ "type": "Feature", "properties": { }, "geometry": { "type": "MultiPolygon", "coordinates": [ [ [ [ -119.16401535035142, 37.382653580539078 ], [ -119.164012426248775, 37.382710898309007 ], [ -119.163932616626724, 37.382708305642197 ], [ -119.163935540789836, 37.382650987877625 ], [ -119.16401535035142, 37.382653580539078 ] ] ] ] } },
{ "type": "Feature", "properties": { }, "geometry": { "type": "MultiPolygon", "coordinates": [ [ [ [ -119.164330992058069, 37.38210858114558 ], [ -119.164327473930484, 37.382177549929075 ], [ -119.164235643448578, 37.382174567012925 ], [ -119.164239161659864, 37.382105598236834 ], [ -119.164330992058069, 37.38210858114558 ] ] ] ] } },
{ "type": "Feature", "properties": { }, "geometry": { "type": "MultiPolygon", "coordinates": [ [ [ [ -119.164206970823997, 37.382100234880149 ], [ -119.164203892364554, 37.382160582557077 ], [ -119.16411206191664, 37.382157599546126 ], [ -119.164115140449326, 37.38209725187567 ], [ -119.164206970823997, 37.382100234880149 ] ] ] ] } },
{ "type": "Feature", "properties": { }, "geometry": { "type": "MultiPolygon", "coordinates": [ [ [ [ -119.163735709839983, 37.382216615309169 ], [ -119.163732411071749, 37.38228127349737 ], [ -119.163597366158371, 37.38227688614154 ], [ -119.163600665042054, 37.382212227963514 ], [ -119.163735709839983, 37.382216615309169 ] ] ] ] } },
{ "type": "Feature", "properties": { }, "geometry": { "type": "MultiPolygon", "coordinates": [ [ [ [ -119.163982424260865, 37.381782066869327 ], [ -119.163978685954831, 37.381855346175833 ], [ -119.163854445300231, 37.381851310111834 ], [ -119.16385818372666, 37.381778030815944 ], [ -119.163982424260865, 37.381782066869327 ] ] ] ] } },
{ "type": "Feature", "properties": { }, "geometry": { "type": "MultiPolygon", "coordinates": [ [ [ [ -119.16382149889543, 37.381966817447214 ], [ -119.163818420141936, 37.382027165098201 ], [ -119.163737393455634, 37.382024532777244 ], [ -119.163740472273773, 37.381964185131977 ], [ -119.16382149889543, 37.381966817447214 ] ] ] ] } },
{ "type": "Feature", "properties": { }, "geometry": { "type": "MultiPolygon", "coordinates": [ [ [ [ -119.163653322283224, 37.381922494610045 ], [ -119.163651782842692, 37.381952668429911 ], [ -119.163592363342104, 37.381950737986159 ], [ -119.163593902806326, 37.381920564168375 ], [ -119.163653322283224, 37.381922494610045 ] ] ] ] } },
{ "type": "Feature", "properties": { }, "geometry": { "type": "MultiPolygon", "coordinates": [ [ [ [ -119.163872863718154, 37.381914514974788 ], [ -119.163870884550732, 37.381953309896055 ], [ -119.16376284907065, 37.381949800176294 ], [ -119.163764828293466, 37.381911005259909 ], [ -119.163872863718154, 37.381914514974788 ] ] ] ] } },
{ "type": "Feature", "properties": { }, "geometry": { "type": "MultiPolygon", "coordinates": [ [ [ [ -119.163594706307663, 37.382496925241625 ], [ -119.163590568635911, 37.382578022683234 ], [ -119.163451984535001, 37.382573520164236 ], [ -119.163456122355313, 37.382492422735758 ], [ -119.163594706307663, 37.382496925241625 ] ] ] ] } },
{ "type": "Feature", "properties": { }, "geometry": { "type": "MultiPolygon", "coordinates": [ [ [ [ -119.165084863249092, 37.382382219029587 ], [ -119.165082350770376, 37.382431482487782 ], [ -119.16499489279586, 37.382428642158779 ], [ -119.164997405331547, 37.382379378705622 ], [ -119.165084863249092, 37.382382219029587 ] ] ] ] } },
{ "type": "Feature", "properties": { }, "geometry": { "type": "MultiPolygon", "coordinates": [ [ [ [ -119.165328617071822, 37.382149577791388 ], [ -119.165326104773683, 37.382198841265598 ], [ -119.165207779613411, 37.382194998716294 ], [ -119.165210291988615, 37.382145735248898 ], [ -119.165328617071822, 37.382149577791388 ] ] ] ] } },
{ "type": "Feature", "properties": { }, "geometry": { "type": "MultiPolygon", "coordinates": [ [ [ [ -119.165472591316004, 37.382357801490059 ], [ -119.165470288445277, 37.38240295968081 ], [ -119.165403408811528, 37.382400787891108 ], [ -119.165405711722173, 37.382355629703888 ], [ -119.165472591316004, 37.382357801490059 ] ] ] ] } },
{ "type": "Feature", "properties": { }, "geometry": { "type": "MultiPolygon", "coordinates": [ [ [ [ -119.165408956723908, 37.382291997712009 ], [ -119.16540644446539, 37.382341261189673 ], [ -119.165360143221108, 37.382339757624088 ], [ -119.165362655509767, 37.382290494149075 ], [ -119.165408956723908, 37.382291997712009 ] ] ] ] } },
{ "type": "Feature", "properties": { }, "geometry": { "type": "MultiPolygon", "coordinates": [ [ [ [ -119.165357660285679, 37.382236874788781 ], [ -119.165355566713544, 37.382277927684783 ], [ -119.165288687199833, 37.382275755836368 ], [ -119.165290780808249, 37.38223470294357 ], [ -119.165357660285679, 37.382236874788781 ] ] ] ] } },
{ "type": "Feature", "properties": { }, "geometry": { "type": "MultiPolygon", "coordinates": [ [ [ [ -119.164852640851308, 37.381782536503756 ], [ -119.164849500130089, 37.381844115815866 ], [ -119.164648862885372, 37.381837599362981 ], [ -119.164652003769916, 37.381776020065288 ], [ -119.164852640851308, 37.381782536503756 ] ] ] ] } },
{ "type": "Feature", "properties": { }, "geometry": { "type": "MultiPolygon", "coordinates": [ [ [ [ -119.165105202026595, 37.381831859766194 ], [ -119.165101642769557, 37.381901649673296 ], [ -119.164983318107403, 37.381897806925302 ], [ -119.164986877473595, 37.38182801702785 ], [ -119.165105202026595, 37.381831859766194 ] ] ] ] } },
{ "type": "Feature", "properties": { }, "geometry": { "type": "MultiPolygon", "coordinates": [ [ [ [ -119.16548201010059, 37.381819423758628 ], [ -119.165477823150795, 37.381901529568026 ], [ -119.165374932093727, 37.381898188382031 ], [ -119.16537911915519, 37.381816082582489 ], [ -119.16548201010059, 37.381819423758628 ] ] ] ] } },
{ "type": "Feature", "properties": { }, "geometry": { "type": "MultiPolygon", "coordinates": [ [ [ [ -119.165711719591314, 37.381761089365924 ], [ -119.165707742235725, 37.38183908990667 ], [ -119.165630573984487, 37.381836584179119 ], [ -119.165634551419657, 37.3817585836454 ], [ -119.165711719591314, 37.381761089365924 ] ] ] ] } },
{ "type": "Feature", "properties": { }, "geometry": { "type": "MultiPolygon", "coordinates": [ [ [ [ -119.165884420146853, 37.381709127679393 ], [ -119.16588044297761, 37.381787128236617 ], [ -119.16576211838732, 37.381783286277837 ], [ -119.165766095678563, 37.381705285731378 ], [ -119.165884420146853, 37.381709127679393 ] ] ] ] } },
{ "type": "Feature", "properties": { }, "geometry": { "type": "MultiPolygon", "coordinates": [ [ [ [ -119.165236237598847, 37.381535932727722 ], [ -119.165232678501283, 37.381605722649041 ], [ -119.165124643347227, 37.381602214200981 ], [ -119.165128202544452, 37.381532424288473 ], [ -119.165236237598847, 37.381535932727722 ] ] ] ] } },
{ "type": "Feature", "properties": { }, "geometry": { "type": "MultiPolygon", "coordinates": [ [ [ [ -119.165387731745071, 37.381495619360635 ], [ -119.165382707338722, 37.381594146326229 ], [ -119.165264383120729, 37.381590303886256 ], [ -119.165269407681194, 37.381491776934261 ], [ -119.165387731745071, 37.381495619360635 ] ] ] ] } },
{ "type": "Feature", "properties": { }, "geometry": { "type": "MultiPolygon", "coordinates": [ [ [ [ -119.1658289050973, 37.381534617402394 ], [ -119.165824927895628, 37.381612617956854 ], [ -119.165716892656604, 37.38160911004929 ], [ -119.165720869969675, 37.381531109504671 ], [ -119.1658289050973, 37.381534617402394 ] ] ] ] } },
{ "type": "Feature", "properties": { }, "geometry": { "type": "MultiPolygon", "coordinates": [ [ [ [ -119.165275883629548, 37.38161740593133 ], [ -119.165271068412508, 37.381711827592397 ], [ -119.165147599487014, 37.381707817959871 ], [ -119.16515241485817, 37.381613396312417 ], [ -119.165275883629548, 37.38161740593133 ] ] ] ] } },
{ "type": "Feature", "properties": { }, "geometry": { "type": "MultiPolygon", "coordinates": [ [ [ [ -119.165917509067114, 37.381161238128463 ], [ -119.165914578606092, 37.381218712230968 ], [ -119.165827121954678, 37.381215872595511 ], [ -119.16583005248215, 37.381158398498883 ], [ -119.165917509067114, 37.381161238128463 ] ] ] ] } },
{ "type": "Feature", "properties": { }, "geometry": { "type": "MultiPolygon", "coordinates": [ [ [ [ -119.165677601343631, 37.381116439603247 ], [ -119.165675508030617, 37.381157492522433 ], [ -119.165613773989961, 37.381155487958559 ], [ -119.165615867336456, 37.381114435042335 ], [ -119.165677601343631, 37.381116439603247 ] ] ] ] } },
{ "type": "Feature", "properties": { }, "geometry": { "type": "MultiPolygon", "coordinates": [ [ [ [ -119.165386159809557, 37.381172769359139 ], [ -119.165384066333431, 37.381213822263909 ], [ -119.165276031722414, 37.381210313985328 ], [ -119.16527812525716, 37.381169261085738 ], [ -119.165386159809557, 37.381172769359139 ] ] ] ] } },
{ "type": "Feature", "properties": { }, "geometry": { "type": "MultiPolygon", "coordinates": [ [ [ [ -119.163926722489961, 37.381410219764909 ], [ -119.163924049585901, 37.381462614738467 ], [ -119.163779600940941, 37.381457922138502 ], [ -119.163782273945046, 37.381405527173776 ], [ -119.163926722489961, 37.381410219764909 ] ] ] ] } },
{ "type": "Feature", "properties": { }, "geometry": { "type": "MultiPolygon", "coordinates": [ [ [ [ -119.163981003927589, 37.381506450369024 ], [ -119.163976727323359, 37.381590282330386 ], [ -119.163871673575457, 37.38158686958478 ], [ -119.163875950296102, 37.381503037633692 ], [ -119.163981003927589, 37.381506450369024 ] ] ] ] } },
{ "type": "Feature", "properties": { }, "geometry": { "type": "MultiPolygon", "coordinates": [ [ [ [ -119.164118427881888, 37.381584389063953 ], [ -119.164114151418602, 37.381668221037742 ], [ -119.163982834079434, 37.381663955236242 ], [ -119.16398711068824, 37.38158012327532 ], [ -119.164118427881888, 37.381584389063953 ] ] ] ] } },
{ "type": "Feature", "properties": { }, "geometry": { "type": "MultiPolygon", "coordinates": [ [ [ [ -119.164423953448846, 37.381203323872931 ], [ -119.164419142875261, 37.381297634883204 ], [ -119.164294391971637, 37.381293582731011 ], [ -119.164299202700761, 37.381199271734481 ], [ -119.164423953448846, 37.381203323872931 ] ] ] ] } },
{ "type": "Feature", "properties": { }, "geometry": { "type": "MultiPolygon", "coordinates": [ [ [ [ -119.164736517153372, 37.381328935949647 ], [ -119.164734646521154, 37.38136561246656 ], [ -119.164609895458753, 37.381361560640933 ], [ -119.164611766151452, 37.381324884129363 ], [ -119.164736517153372, 37.381328935949647 ] ] ] ] } },
{ "type": "Feature", "properties": { }, "geometry": { "type": "MultiPolygon", "coordinates": [ [ [ [ -119.157603681407153, 37.540282445436141 ], [ -119.157598884069046, 37.540375789481288 ], [ -119.157481659520457, 37.540371969370753 ], [ -119.157486457004055, 37.540278625338424 ], [ -119.157603681407153, 37.540282445436141 ] ] ] ] } },
{ "type": "Feature", "properties": { }, "geometry": { "type": "MultiPolygon", "coordinates": [ [ [ [ -119.156244365999015, 37.541464645418223 ], [ -119.156242107537139, 37.541508571948967 ], [ -119.156166255329509, 37.541506099191338 ], [ -119.156168513835681, 37.541462172664502 ], [ -119.156244365999015, 37.541464645418223 ] ] ] ] } },
{ "type": "Feature", "properties": { }, "geometry": { "type": "MultiPolygon", "coordinates": [ [ [ [ -119.157433542357893, 37.54130815499613 ], [ -119.157428462410238, 37.541406989830456 ], [ -119.157269862344251, 37.541401821068874 ], [ -119.157274942500365, 37.541302986252887 ], [ -119.157433542357893, 37.54130815499613 ] ] ] ] } },
{ "type": "Feature", "properties": { }, "geometry": { "type": "MultiPolygon", "coordinates": [ [ [ [ -119.157619344506685, 37.541523210810752 ], [ -119.157613700347568, 37.541633027313182 ], [ -119.157537847891547, 37.541630555429663 ], [ -119.157543492161395, 37.541520738936981 ], [ -119.157619344506685, 37.541523210810752 ] ] ] ] } },
{ "type": "Feature", "properties": { }, "geometry": { "type": "MultiPolygon", "coordinates": [ [ [ [ -119.155721599074596, 37.542093854567561 ], [ -119.155719340254734, 37.542137781066614 ], [ -119.155595217498416, 37.542133734103757 ], [ -119.155597476390767, 37.542089807611092 ], [ -119.155721599074596, 37.542093854567561 ] ] ] ] } },
{ "type": "Feature", "properties": { }, "geometry": { "type": "MultiPolygon", "coordinates": [ [ [ [ -119.155862336614049, 37.542043442899974 ], [ -119.155859230854688, 37.542103841846568 ], [ -119.155783378078112, 37.542101368809817 ], [ -119.155786483898382, 37.54204096986858 ], [ -119.155862336614049, 37.542043442899974 ] ] ] ] } },
{ "type": "Feature", "properties": { }, "geometry": { "type": "MultiPolygon", "coordinates": [ [ [ [ -119.156012934134296, 37.541935602312279 ], [ -119.156009546178424, 37.542001492085042 ], [ -119.155954380587488, 37.541999693592039 ], [ -119.155957768591705, 37.541933803823547 ], [ -119.156012934134296, 37.541935602312279 ] ] ] ] } },
{ "type": "Feature", "properties": { }, "geometry": { "type": "MultiPolygon", "coordinates": [ [ [ [ -119.155242457757879, 37.542165367533279 ], [ -119.15523908619555, 37.542230924755216 ], [ -119.15516190088033, 37.542228407862986 ], [ -119.155165272509961, 37.542162850646982 ], [ -119.155242457757879, 37.542165367533279 ] ] ] ] } },
{ "type": "Feature", "properties": { }, "geometry": { "type": "MultiPolygon", "coordinates": [ [ [ [ -119.155285968388469, 37.542271443363227 ], [ -119.155283018294085, 37.542328805934353 ], [ -119.155216124262751, 37.542326624650741 ], [ -119.15521907440818, 37.542269262084091 ], [ -119.155285968388469, 37.542271443363227 ] ] ] ] } },
{ "type": "Feature", "properties": { }, "geometry": { "type": "MultiPolygon", "coordinates": [ [ [ [ -119.155545742474871, 37.541830504028788 ], [ -119.155541317699061, 37.541916547917936 ], [ -119.155433258675785, 37.541913024556273 ], [ -119.155437683575201, 37.541826980678003 ], [ -119.155545742474871, 37.541830504028788 ] ] ] ] } },
{ "type": "Feature", "properties": { }, "geometry": { "type": "MultiPolygon", "coordinates": [ [ [ [ -119.155501189247033, 37.541995271367178 ], [ -119.155498239346912, 37.542052633955528 ], [ -119.155400471485621, 37.542049446110923 ], [ -119.155403421460292, 37.541992083529124 ], [ -119.155501189247033, 37.541995271367178 ] ] ] ] } },
{ "type": "Feature", "properties": { }, "geometry": { "type": "MultiPolygon", "coordinates": [ [ [ [ -119.104839728710317, 37.364927003409186 ], [ -119.104835571030563, 37.36500731126128 ], [ -119.104709802173033, 37.365003163022521 ], [ -119.104713959986157, 37.364922855182407 ], [ -119.104839728710317, 37.364927003409186 ] ] ] ] } },
{ "type": "Feature", "properties": { }, "geometry": { "type": "MultiPolygon", "coordinates": [ [ [ [ -119.105170506448658, 37.365594880211638 ], [ -119.105167734832165, 37.365648418794912 ], [ -119.105058734183586, 37.36564482391617 ], [ -119.105061505877202, 37.365591285339825 ], [ -119.105170506448658, 37.365594880211638 ] ] ] ] } },
{ "type": "Feature", "properties": { }, "geometry": { "type": "MultiPolygon", "coordinates": [ [ [ [ -119.10524191429505, 37.365513438346333 ], [ -119.10523844984688, 37.365580361581927 ], [ -119.105095910657823, 37.365575660658976 ], [ -119.10509937523203, 37.365508737434688 ], [ -119.10524191429505, 37.365513438346333 ] ] ] ] } },
{ "type": "Feature", "properties": { }, "geometry": { "type": "MultiPolygon", "coordinates": [ [ [ [ -119.105266513563535, 37.365443860242159 ], [ -119.105263742030374, 37.365497398832936 ], [ -119.10509604904982, 37.36549186836384 ], [ -119.105098820701571, 37.365438329783714 ], [ -119.105266513563535, 37.365443860242159 ] ] ] ] } },
{ "type": "Feature", "properties": { }, "geometry": { "type": "MultiPolygon", "coordinates": [ [ [ [ -119.105223655914756, 37.365703893043694 ], [ -119.105220537875894, 37.365764123952545 ], [ -119.105086383019795, 37.36575969952046 ], [ -119.105089501165438, 37.365699468621187 ], [ -119.105223655914756, 37.365703893043694 ] ] ] ] } },
{ "type": "Feature", "properties": { }, "geometry": { "type": "MultiPolygon", "coordinates": [ [ [ [ -119.10343329135182, 37.365585182822912 ], [ -119.103430119901589, 37.365646417500678 ], [ -119.103336960399687, 37.36564334369973 ], [ -119.10334013192525, 37.365582109028736 ], [ -119.10343329135182, 37.365585182822912 ] ] ] ] } },
{ "type": "Feature", "properties": { }, "geometry": { "type": "MultiPolygon", "coordinates": [ [ [ [ -119.103477405967837, 37.365422336608333 ], [ -119.103473101928472, 37.365505440820307 ], [ -119.103407342398242, 37.3655032711169 ], [ -119.103411646509798, 37.365420166911413 ], [ -119.103477405967837, 37.365422336608333 ] ] ] ] } },
{ "type": "Feature", "properties": { }, "geometry": { "type": "MultiPolygon", "coordinates": [ [ [ [ -119.103453042705908, 37.365309807569595 ], [ -119.10344919171574, 37.365384163969146 ], [ -119.103328632779849, 37.365380186138289 ], [ -119.103332483888437, 37.365305829749381 ], [ -119.103453042705908, 37.365309807569595 ] ] ] ] } },
{ "type": "Feature", "properties": { }, "geometry": { "type": "MultiPolygon", "coordinates": [ [ [ [ -119.103337985384627, 37.365358587831686 ], [ -119.103334813882924, 37.36541982250484 ], [ -119.10321973485938, 37.365416025372781 ], [ -119.103222906454178, 37.36535479070799 ], [ -119.103337985384627, 37.365358587831686 ] ] ] ] } },
{ "type": "Feature", "properties": { }, "geometry": { "type": "MultiPolygon", "coordinates": [ [ [ [ -119.103127595132122, 37.365393268853644 ], [ -119.103126235843277, 37.365419512278358 ], [ -119.10307691627159, 37.365417884862758 ], [ -119.103078275577531, 37.365391641439572 ], [ -119.103127595132122, 37.365393268853644 ] ] ] ] } },
{ "type": "Feature", "properties": { }, "geometry": { "type": "MultiPolygon", "coordinates": [ [ [ [ -119.103094559394549, 37.365289216345239 ], [ -119.103092520451071, 37.3653285814814 ], [ -119.103021281159812, 37.365326230747939 ], [ -119.103023320140352, 37.365286865615104 ], [ -119.103094559394549, 37.365289216345239 ] ] ] ] } },
{ "type": "Feature", "properties": { }, "geometry": { "type": "MultiPolygon", "coordinates": [ [ [ [ -119.103129003471636, 37.365207106691535 ], [ -119.103126284911511, 37.365259593542568 ], [ -119.10303312592157, 37.365256519529289 ], [ -119.103035844546312, 37.365204032684062 ], [ -119.103129003471636, 37.365207106691535 ] ] ] ] } },
{ "type": "Feature", "properties": { }, "geometry": { "type": "MultiPolygon", "coordinates": [ [ [ [ -119.103083761917105, 37.365126749011807 ], [ -119.103081496431145, 37.365170488052605 ], [ -119.103004777356745, 37.365167956493636 ], [ -119.103007042887029, 37.365124217456824 ], [ -119.103083761917105, 37.365126749011807 ] ] ] ] } },
{ "type": "Feature", "properties": { }, "geometry": { "type": "MultiPolygon", "coordinates": [ [ [ [ -119.103120379514209, 37.365055664527652 ], [ -119.103117660962909, 37.365108151379481 ], [ -119.103013542303074, 37.365104715716974 ], [ -119.103016260926537, 37.36505222887164 ], [ -119.103120379514209, 37.365055664527652 ] ] ] ] } },
{ "type": "Feature", "properties": { }, "geometry": { "type": "MultiPolygon", "coordinates": [ [ [ [ -119.103213020731957, 37.364909754466673 ], [ -119.10321075533875, 37.364953493515827 ], [ -119.103095677044408, 37.364949696303235 ], [ -119.103097942504107, 37.364905957260049 ], [ -119.103213020731957, 37.364909754466673 ] ] ] ] } },
{ "type": "Feature", "properties": { }, "geometry": { "type": "MultiPolygon", "coordinates": [ [ [ [ -119.103136620288296, 37.364848084886361 ], [ -119.103133901768715, 37.36490057174106 ], [ -119.103046223135919, 37.364897678583326 ], [ -119.103048941716295, 37.364845191734091 ], [ -119.103136620288296, 37.364848084886361 ] ] ] ] } },
{ "type": "Feature", "properties": { }, "geometry": { "type": "MultiPolygon", "coordinates": [ [ [ [ -119.102970304468201, 37.364751201287007 ], [ -119.102966308085669, 37.36482835694914 ], [ -119.10284547611306, 37.36482436963459 ], [ -119.102849472618729, 37.364747213983506 ], [ -119.102970304468201, 37.364751201287007 ] ] ] ] } },
{ "type": "Feature", "properties": { }, "geometry": { "type": "MultiPolygon", "coordinates": [ [ [ [ -119.10294784680589, 37.364308472117067 ], [ -119.102944849551122, 37.364366338866581 ], [ -119.102878392372403, 37.364364145869743 ], [ -119.102881389677989, 37.364306279124783 ], [ -119.10294784680589, 37.364308472117067 ] ] ] ] } },
{ "type": "Feature", "properties": { }, "geometry": { "type": "MultiPolygon", "coordinates": [ [ [ [ -119.102859822637015, 37.364196881835461 ], [ -119.102853828007881, 37.364312615323762 ], [ -119.102793412440207, 37.364310621647753 ], [ -119.102799407161683, 37.364194888167745 ], [ -119.102859822637015, 37.364196881835461 ] ] ] ] } },
{ "type": "Feature", "properties": { }, "geometry": { "type": "MultiPolygon", "coordinates": [ [ [ [ -119.103244584923289, 37.364187840868205 ], [ -119.103240089399321, 37.364274641024664 ], [ -119.103131341386529, 37.364271052743895 ], [ -119.103135837035168, 37.364184252598641 ], [ -119.103244584923289, 37.364187840868205 ] ] ] ] } },
{ "type": "Feature", "properties": { }, "geometry": { "type": "MultiPolygon", "coordinates": [ [ [ [ -119.10331803485596, 37.364055011170805 ], [ -119.103313289692167, 37.364146633568204 ], [ -119.103222666492883, 37.364143643405939 ], [ -119.103227411766326, 37.364052021018374 ], [ -119.10331803485596, 37.364055011170805 ] ] ] ] } },
{ "type": "Feature", "properties": { }, "geometry": { "type": "MultiPolygon", "coordinates": [ [ [ [ -119.104228686620914, 37.363999086132111 ], [ -119.104223269220526, 37.364103713172874 ], [ -119.104130740598279, 37.364100660855783 ], [ -119.104136158126551, 37.363996033826503 ], [ -119.104228686620914, 37.363999086132111 ] ] ] ] } },
{ "type": "Feature", "properties": { }, "geometry": { "type": "MultiPolygon", "coordinates": [ [ [ [ -119.04101369725619, 37.373965494331678 ], [ -119.041009820284785, 37.374039144912487 ], [ -119.040842028269267, 37.374033519142252 ], [ -119.040845905403955, 37.373959868576335 ], [ -119.04101369725619, 37.373965494331678 ] ] ] ] } },
{ "type": "Feature", "properties": { }, "geometry": { "type": "MultiPolygon", "coordinates": [ [ [ [ -119.040956590828657, 37.373852908836021 ], [ -119.04095236136088, 37.37393325492009 ], [ -119.04080134876763, 37.373928191676349 ], [ -119.040805578395677, 37.373847845606889 ], [ -119.040956590828657, 37.373852908836021 ] ] ] ] } },
{ "type": "Feature", "properties": { }, "geometry": { "type": "MultiPolygon", "coordinates": [ [ [ [ -119.041424611283759, 37.373982624184571 ], [ -119.041421791960047, 37.37403618826999 ], [ -119.041329506303299, 37.374033094447398 ], [ -119.041332325692338, 37.373979530367947 ], [ -119.041424611283759, 37.373982624184571 ] ] ] ] } },
{ "type": "Feature", "properties": { }, "geometry": { "type": "MultiPolygon", "coordinates": [ [ [ [ -119.041732769888043, 37.373956064193635 ], [ -119.041728893621027, 37.374029714838706 ], [ -119.041594659904803, 37.374025215058595 ], [ -119.041598536302445, 37.373951564425447 ], [ -119.041732769888043, 37.373956064193635 ] ] ] ] } },
{ "type": "Feature", "properties": { }, "geometry": { "type": "MultiPolygon", "coordinates": [ [ [ [ -119.040323248005478, 37.374069782425629 ], [ -119.040319722859635, 37.374136737441965 ], [ -119.040185489181795, 37.374132236051551 ], [ -119.040189014446398, 37.37406528104605 ], [ -119.040323248005478, 37.374069782425629 ] ] ] ] } },
{ "type": "Feature", "properties": { }, "geometry": { "type": "MultiPolygon", "coordinates": [ [ [ [ -119.040594746445535, 37.373941386242286 ], [ -119.040592631514016, 37.373981559266291 ], [ -119.040458398068324, 37.373977058201469 ], [ -119.040460513071082, 37.373936885183952 ], [ -119.040594746445535, 37.373941386242286 ] ] ] ] } },
{ "type": "Feature", "properties": { }, "geometry": { "type": "MultiPolygon", "coordinates": [ [ [ [ -119.040000424825692, 37.374055602974479 ], [ -119.039995489219038, 37.374149339960624 ], [ -119.039894813980538, 37.374145963655096 ], [ -119.039899749711878, 37.374052226680313 ], [ -119.040000424825692, 37.374055602974479 ] ] ] ] } },
{ "type": "Feature", "properties": { }, "geometry": { "type": "MultiPolygon", "coordinates": [ [ [ [ -119.040971081882759, 37.374296078077172 ], [ -119.040962270363792, 37.37446346574103 ], [ -119.04087837388245, 37.37446065282478 ], [ -119.040887185586968, 37.374293265177847 ], [ -119.040971081882759, 37.374296078077172 ] ] ] ] } },
{ "type": "Feature", "properties": { }, "geometry": { "type": "MultiPolygon", "coordinates": [ [ [ [ -119.041222242184446, 37.374314559682198 ], [ -119.041218012929491, 37.374394905785863 ], [ -119.041117337213748, 37.374391530502173 ], [ -119.041121566575541, 37.374311184408285 ], [ -119.041222242184446, 37.374314559682198 ] ] ] ] } },
{ "type": "Feature", "properties": { }, "geometry": { "type": "MultiPolygon", "coordinates": [ [ [ [ -119.041420774093638, 37.374374874055988 ], [ -119.041416192619479, 37.374461915688251 ], [ -119.041349075397932, 37.374459665617671 ], [ -119.041353656949326, 37.374372623992464 ], [ -119.041420774093638, 37.374374874055988 ] ] ] ] } },
{ "type": "Feature", "properties": { }, "geometry": { "type": "MultiPolygon", "coordinates": [ [ [ [ -119.041945018162934, 37.374234825559931 ], [ -119.041939027822892, 37.374348649307493 ], [ -119.04180479350417, 37.374344149733346 ], [ -119.041810784046078, 37.374230326004195 ], [ -119.041945018162934, 37.374234825559931 ] ] ] ] } },
{ "type": "Feature", "properties": { }, "geometry": { "type": "MultiPolygon", "coordinates": [ [ [ [ -119.04179856326914, 37.372945463404619 ], [ -119.041793982468064, 37.373032505097747 ], [ -119.041718476992614, 37.373029974088929 ], [ -119.041723057880546, 37.372942932403724 ], [ -119.04179856326914, 37.372945463404619 ] ] ] ] } }
]
}
