{
"type": "FeatureCollection",
"name": "izzyip_mortalitree_postfire_labels",
"crs": { "type": "name", "properties": { "name": "urn:ogc:def:crs:OGC:1.3:CRS84" } },
"features": [
{ "type": "Feature", "properties": { "id": null }, "geometry": { "type": "MultiPolygon", "coordinates": [ [ [ [ -122.330843199647816, 37.140877168835772 ], [ -122.330842525524929, 37.140953699320164 ], [ -122.330727811029377, 37.140953051647202 ], [ -122.330728485267841, 37.1408765211646 ], [ -122.330843199647816, 37.140877168835772 ] ] ] ] } },
{ "type": "Feature", "properties": { "id": null }, "geometry": { "type": "MultiPolygon", "coordinates": [ [ [ [ -122.331420844151992, 37.140960789505336 ], [ -122.331419968545546, 37.141060279145186 ], [ -122.331305253875527, 37.141059632029489 ], [ -122.33130612963221, 37.140960142391954 ], [ -122.331420844151992, 37.140960789505336 ] ] ] ] } },
{ "type": "Feature", "properties": { "id": null }, "geometry": { "type": "MultiPolygon", "coordinates": [ [ [ [ -122.331431782121811, 37.14134734936394 ], [ -122.33143077180867, 37.141462145094827 ], [ -122.331296937319109, 37.14146139012098 ], [ -122.331297947834443, 37.141346594393198 ], [ -122.331431782121811, 37.14134734936394 ] ] ] ] } },
{ "type": "Feature", "properties": { "id": null }, "geometry": { "type": "MultiPolygon", "coordinates": [ [ [ [ -122.330994579365424, 37.140585425145822 ], [ -122.330994089912508, 37.14064100397762 ], [ -122.330905381352721, 37.140640503257728 ], [ -122.330905870870538, 37.140584924426918 ], [ -122.330994579365424, 37.140585425145822 ] ] ] ] } },
{ "type": "Feature", "properties": { "id": null }, "geometry": { "type": "MultiPolygon", "coordinates": [ [ [ [ -122.299679684764996, 37.17557562452491 ], [ -122.299678811460382, 37.175670235640197 ], [ -122.299554946269637, 37.175669503482183 ], [ -122.299555819728681, 37.17557489236939 ], [ -122.299679684764996, 37.17557562452491 ] ] ] ] } },
{ "type": "Feature", "properties": { "id": null }, "geometry": { "type": "MultiPolygon", "coordinates": [ [ [ [ -122.299714401773201, 37.175474455126711 ], [ -122.299713944352774, 37.175524013331355 ], [ -122.299635121200353, 37.175523547452521 ], [ -122.299635578672266, 37.175473989248701 ], [ -122.299714401773201, 37.175474455126711 ] ] ] ] } },
{ "type": "Feature", "properties": { "id": null }, "geometry": { "type": "MultiPolygon", "coordinates": [ [ [ [ -122.299638435371108, 37.175469500596819 ], [ -122.29963810266581, 37.17550554292697 ], [ -122.299576170204844, 37.17550517684424 ], [ -122.299576502939559, 37.175469134514579 ], [ -122.299638435371108, 37.175469500596819 ] ] ] ] } },
{ "type": "Feature", "properties": { "id": null }, "geometry": { "type": "MultiPolygon", "coordinates": [ [ [ [ -122.29957085192251, 37.175471353878365 ], [ -122.299569770523675, 37.175588491448792 ], [ -122.299400863632385, 37.17558749286583 ], [ -122.299401945291962, 37.175470355299609 ], [ -122.29957085192251, 37.175471353878365 ] ] ] ] } },
{ "type": "Feature", "properties": { "id": null }, "geometry": { "type": "MultiPolygon", "coordinates": [ [ [ [ -122.29939747993761, 37.175344173858818 ], [ -122.29939648148104, 37.175452300845294 ], [ -122.299238835337746, 37.175451368614375 ], [ -122.299239834018934, 37.175343241631538 ], [ -122.29939747993761, 37.175344173858818 ] ] ] ] } },
{ "type": "Feature", "properties": { "id": null }, "geometry": { "type": "MultiPolygon", "coordinates": [ [ [ [ -122.299481288353093, 37.175414505193622 ], [ -122.29948083078142, 37.175464063396298 ], [ -122.299396377474849, 37.175463564072942 ], [ -122.299396835101675, 37.175414005871161 ], [ -122.299481288353093, 37.175414505193622 ] ] ] ] } },
{ "type": "Feature", "properties": { "id": null }, "geometry": { "type": "MultiPolygon", "coordinates": [ [ [ [ -122.29972394905505, 37.175355114816846 ], [ -122.299723117395644, 37.175445220645187 ], [ -122.299565471256059, 37.175444288848972 ], [ -122.299566303102623, 37.175354183023657 ], [ -122.29972394905505, 37.175355114816846 ] ] ] ] } },
{ "type": "Feature", "properties": { "id": null }, "geometry": { "type": "MultiPolygon", "coordinates": [ [ [ [ -122.299820897845265, 37.175526898157351 ], [ -122.299820440493519, 37.175576456362677 ], [ -122.299752877743103, 37.175576057101416 ], [ -122.299753335138973, 37.175526498896794 ], [ -122.299820897845265, 37.175526898157351 ] ] ] ] } },
{ "type": "Feature", "properties": { "id": null }, "geometry": { "type": "MultiPolygon", "coordinates": [ [ [ [ -122.299827421975181, 37.17543006766099 ], [ -122.299826881475383, 37.175488636450112 ], [ -122.299753688580452, 37.175488203920189 ], [ -122.299754229136724, 37.175429635131984 ], [ -122.299827421975181, 37.17543006766099 ] ] ] ] } },
{ "type": "Feature", "properties": { "id": null }, "geometry": { "type": "MultiPolygon", "coordinates": [ [ [ [ -122.299558252914565, 37.17531133283282 ], [ -122.299557670616551, 37.175374406911025 ], [ -122.299445066339445, 37.175373741207551 ], [ -122.299445648731066, 37.175310667130866 ], [ -122.299558252914565, 37.17531133283282 ] ] ] ] } },
{ "type": "Feature", "properties": { "id": null }, "geometry": { "type": "MultiPolygon", "coordinates": [ [ [ [ -122.299651962316091, 37.175224028773144 ], [ -122.299651047400872, 37.175323145184919 ], [ -122.299521552567427, 37.175322379719638 ], [ -122.299522467651812, 37.175223263310606 ], [ -122.299651962316091, 37.175224028773144 ] ] ] ] } },
{ "type": "Feature", "properties": { "id": null }, "geometry": { "type": "MultiPolygon", "coordinates": [ [ [ [ -122.299499946841109, 37.175223130172242 ], [ -122.299498823746305, 37.175344773037061 ], [ -122.299284875709233, 37.175343508003593 ], [ -122.299285999147003, 37.175221865144323 ], [ -122.299499946841109, 37.175223130172242 ] ] ] ] } },
{ "type": "Feature", "properties": { "id": null }, "geometry": { "type": "MultiPolygon", "coordinates": [ [ [ [ -122.299292232669373, 37.175156571717636 ], [ -122.299291109244265, 37.175278214578405 ], [ -122.299195395735296, 37.175277648523206 ], [ -122.299196519313838, 37.175156005664924 ], [ -122.299292232669373, 37.175156571717636 ] ] ] ] } },
{ "type": "Feature", "properties": { "id": null }, "geometry": { "type": "MultiPolygon", "coordinates": [ [ [ [ -122.299194105692337, 37.175417312542571 ], [ -122.299193148557976, 37.175520934232196 ], [ -122.299029872054817, 37.175519968421746 ], [ -122.29903082941216, 37.17541634673573 ], [ -122.299194105692337, 37.175417312542571 ] ] ] ] } },
{ "type": "Feature", "properties": { "id": null }, "geometry": { "type": "MultiPolygon", "coordinates": [ [ [ [ -122.299217874947871, 37.175282287010639 ], [ -122.299217417206336, 37.175331845211645 ], [ -122.299121703631215, 37.175331279096227 ], [ -122.299122161435278, 37.175281720896237 ], [ -122.299217874947871, 37.175282287010639 ] ] ] ] } },
{ "type": "Feature", "properties": { "id": null }, "geometry": { "type": "MultiPolygon", "coordinates": [ [ [ [ -122.299105104337613, 37.175299642149298 ], [ -122.299103980606674, 37.175421285002251 ], [ -122.298884402155423, 37.175419985939271 ], [ -122.298885526238337, 37.175298343092017 ], [ -122.299105104337613, 37.175299642149298 ] ] ] ] } },
{ "type": "Feature", "properties": { "id": null }, "geometry": { "type": "MultiPolygon", "coordinates": [ [ [ [ -122.29917798492626, 37.175333864760134 ], [ -122.299177527157809, 37.17538342296028 ], [ -122.299093073946494, 37.175382923421665 ], [ -122.299093531770097, 37.175333365222414 ], [ -122.29917798492626, 37.175333864760134 ] ] ] ] } },
{ "type": "Feature", "properties": { "id": null }, "geometry": { "type": "MultiPolygon", "coordinates": [ [ [ [ -122.299219144134511, 37.175144875632952 ], [ -122.299217937367104, 37.175275529074113 ], [ -122.29909970303892, 37.175274829745263 ], [ -122.299100910009898, 37.175144176307384 ], [ -122.299219144134511, 37.175144875632952 ] ] ] ] } },
{ "type": "Feature", "properties": { "id": null }, "geometry": { "type": "MultiPolygon", "coordinates": [ [ [ [ -122.299061873232617, 37.175103395553741 ], [ -122.299060999172525, 37.175198006664083 ], [ -122.298880832768987, 37.175196940736313 ], [ -122.298881707053667, 37.175102329629603 ], [ -122.299061873232617, 37.175103395553741 ] ] ] ] } },
{ "type": "Feature", "properties": { "id": null }, "geometry": { "type": "MultiPolygon", "coordinates": [ [ [ [ -122.299080704873489, 37.175198123233315 ], [ -122.299079664349733, 37.175310755506011 ], [ -122.298893867469388, 37.175309656290004 ], [ -122.29889490826892, 37.175197024021777 ], [ -122.299080704873489, 37.175198123233315 ] ] ] ] } },
{ "type": "Feature", "properties": { "id": null }, "geometry": { "type": "MultiPolygon", "coordinates": [ [ [ [ -122.298960404872247, 37.175116311877822 ], [ -122.298959364172987, 37.175228944149161 ], [ -122.298824239317284, 37.175228144612554 ], [ -122.298825280217102, 37.175115512344462 ], [ -122.298960404872247, 37.175116311877822 ] ] ] ] } },
{ "type": "Feature", "properties": { "id": null }, "geometry": { "type": "MultiPolygon", "coordinates": [ [ [ [ -122.298857187846792, 37.175318450324724 ], [ -122.298856729869058, 37.175368008521581 ], [ -122.29874412561837, 37.175367342152107 ], [ -122.298744583669645, 37.175317783956444 ], [ -122.298857187846792, 37.175318450324724 ] ] ] ] } },
{ "type": "Feature", "properties": { "id": null }, "geometry": { "type": "MultiPolygon", "coordinates": [ [ [ [ -122.298824072772774, 37.175246165775249 ], [ -122.29882353150208, 37.175304734553613 ], [ -122.298722187761541, 37.175304134798388 ], [ -122.298722729110438, 37.175245566021296 ], [ -122.298824072772774, 37.175246165775249 ] ] ] ] } },
{ "type": "Feature", "properties": { "id": null }, "geometry": { "type": "MultiPolygon", "coordinates": [ [ [ [ -122.29881091327529, 37.175146966086068 ], [ -122.298810205448717, 37.175223556027959 ], [ -122.298697601413537, 37.175222889616485 ], [ -122.298698309353739, 37.175146299676435 ], [ -122.29881091327529, 37.175146966086068 ] ] ] ] } },
{ "type": "Feature", "properties": { "id": null }, "geometry": { "type": "MultiPolygon", "coordinates": [ [ [ [ -122.298742955334006, 37.175189366514275 ], [ -122.298742164155669, 37.175274967035655 ], [ -122.298601409018943, 37.175274133922784 ], [ -122.298602200356029, 37.175188533403976 ], [ -122.298742955334006, 37.175189366514275 ] ] ] ] } },
{ "type": "Feature", "properties": { "id": null }, "geometry": { "type": "MultiPolygon", "coordinates": [ [ [ [ -122.298736533950077, 37.175274933714348 ], [ -122.298735326345962, 37.175405587139139 ], [ -122.298560789677083, 37.175404554041151 ], [ -122.298561997581672, 37.175273900621235 ], [ -122.298736533950077, 37.175274933714348 ] ] ] ] } },
{ "type": "Feature", "properties": { "id": null }, "geometry": { "type": "MultiPolygon", "coordinates": [ [ [ [ -122.298957678227893, 37.175411408424154 ], [ -122.298956928914066, 37.175492503655633 ], [ -122.298810543145564, 37.17549163747578 ], [ -122.298811292615795, 37.17541054224683 ], [ -122.298957678227893, 37.175411408424154 ] ] ] ] } },
{ "type": "Feature", "properties": { "id": null }, "geometry": { "type": "MultiPolygon", "coordinates": [ [ [ [ -122.299004744175505, 37.175497292081239 ], [ -122.299003703527703, 37.175609924346389 ], [ -122.298846057070165, 37.175608991589563 ], [ -122.298847097951949, 37.175496359328186 ], [ -122.299004744175505, 37.175497292081239 ] ] ] ] } },
{ "type": "Feature", "properties": { "id": null }, "geometry": { "type": "MultiPolygon", "coordinates": [ [ [ [ -122.298776907552821, 37.175475669045902 ], [ -122.298776116404611, 37.175561269563758 ], [ -122.298652251415689, 37.175560536463962 ], [ -122.298653042703648, 37.175474935948372 ], [ -122.298776907552821, 37.175475669045902 ] ] ] ] } },
{ "type": "Feature", "properties": { "id": null }, "geometry": { "type": "MultiPolygon", "coordinates": [ [ [ [ -122.298687407049755, 37.175412061831516 ], [ -122.2986867407364, 37.175484146477615 ], [ -122.298596657200932, 37.175483613259964 ], [ -122.298597323599864, 37.175411528615257 ], [ -122.298687407049755, 37.175412061831516 ] ] ] ] } },
{ "type": "Feature", "properties": { "id": null }, "geometry": { "type": "MultiPolygon", "coordinates": [ [ [ [ -122.298621826600964, 37.175501784395472 ], [ -122.298620951979572, 37.175596395490523 ], [ -122.298536498541267, 37.17559589555281 ], [ -122.298537373267948, 37.175501284459465 ], [ -122.298621826600964, 37.175501784395472 ] ] ] ] } },
{ "type": "Feature", "properties": { "id": null }, "geometry": { "type": "MultiPolygon", "coordinates": [ [ [ [ -122.298594633442136, 37.175397996080164 ], [ -122.298594091991376, 37.175456564854166 ], [ -122.298520899146695, 37.175456131563081 ], [ -122.298521440653943, 37.175397562790003 ], [ -122.298594633442136, 37.175397996080164 ] ] ] ] } },
{ "type": "Feature", "properties": { "id": null }, "geometry": { "type": "MultiPolygon", "coordinates": [ [ [ [ -122.298549320983568, 37.175427013832213 ], [ -122.298547988091372, 37.175571183118855 ], [ -122.298356560367466, 37.175570049723078 ], [ -122.298357893623347, 37.175425880442319 ], [ -122.298549320983568, 37.175427013832213 ] ] ] ] } },
{ "type": "Feature", "properties": { "id": null }, "geometry": { "type": "MultiPolygon", "coordinates": [ [ [ [ -122.298510805049261, 37.175329916771851 ], [ -122.298509930294898, 37.175424527867399 ], [ -122.29837480510389, 37.17542372781471 ], [ -122.298375680026723, 37.175329116721869 ], [ -122.298510805049261, 37.175329916771851 ] ] ] ] } },
{ "type": "Feature", "properties": { "id": null }, "geometry": { "type": "MultiPolygon", "coordinates": [ [ [ [ -122.298573278817813, 37.175271714634953 ], [ -122.298572654050645, 37.175339293990639 ], [ -122.298443159219531, 37.175338527346597 ], [ -122.298443784102048, 37.175270947992772 ], [ -122.298573278817813, 37.175271714634953 ] ] ] ] } },
{ "type": "Feature", "properties": { "id": null }, "geometry": { "type": "MultiPolygon", "coordinates": [ [ [ [ -122.299867032534507, 37.175103650263559 ], [ -122.299866159478412, 37.175198261390179 ], [ -122.299731034651103, 37.175197462888185 ], [ -122.299731907875668, 37.175102851764272 ], [ -122.299867032534507, 37.175103650263559 ] ] ] ] } },
{ "type": "Feature", "properties": { "id": null }, "geometry": { "type": "MultiPolygon", "coordinates": [ [ [ [ -122.299603453155925, 37.174989454101947 ], [ -122.299602247057038, 37.175120107557298 ], [ -122.299444601597017, 37.1751191756072 ], [ -122.299445807967288, 37.174988522156241 ], [ -122.299603453155925, 37.174989454101947 ] ] ] ] } },
{ "type": "Feature", "properties": { "id": null }, "geometry": { "type": "MultiPolygon", "coordinates": [ [ [ [ -122.299789831377808, 37.174927478111883 ], [ -122.299788667181161, 37.175053626282072 ], [ -122.299619761472641, 37.175052628023323 ], [ -122.299620925950066, 37.174926479857682 ], [ -122.299789831377808, 37.174927478111883 ] ] ] ] } },
{ "type": "Feature", "properties": { "id": null }, "geometry": { "type": "MultiPolygon", "coordinates": [ [ [ [ -122.299782259259459, 37.174832817075632 ], [ -122.299781302948546, 37.174936438788542 ], [ -122.29964054840849, 37.174935606916456 ], [ -122.299641504911605, 37.174831985206652 ], [ -122.299782259259459, 37.174832817075632 ] ] ] ] } },
{ "type": "Feature", "properties": { "id": null }, "geometry": { "type": "MultiPolygon", "coordinates": [ [ [ [ -122.299791847915529, 37.174708971453526 ], [ -122.299790808465815, 37.174821603752662 ], [ -122.299644423965518, 37.174820738616233 ], [ -122.299645463632501, 37.174708106320601 ], [ -122.299791847915529, 37.174708971453526 ] ] ] ] } },
{ "type": "Feature", "properties": { "id": null }, "geometry": { "type": "MultiPolygon", "coordinates": [ [ [ [ -122.299632747744511, 37.174865724977316 ], [ -122.299632040754702, 37.174942314936338 ], [ -122.299541957844312, 37.174941782443923 ], [ -122.299542664925028, 37.174865192486365 ], [ -122.299632747744511, 37.174865724977316 ] ] ] ] } },
{ "type": "Feature", "properties": { "id": null }, "geometry": { "type": "MultiPolygon", "coordinates": [ [ [ [ -122.299516975579678, 37.174903337689635 ], [ -122.299516060498718, 37.175002454103918 ], [ -122.299369675658127, 37.175001588624497 ], [ -122.299370590930266, 37.174902472213304 ], [ -122.299516975579678, 37.174903337689635 ] ] ] ] } },
{ "type": "Feature", "properties": { "id": null }, "geometry": { "type": "MultiPolygon", "coordinates": [ [ [ [ -122.299611079609775, 37.174773233380122 ], [ -122.29960991512246, 37.174899381548762 ], [ -122.299418489049913, 37.174898249885892 ], [ -122.299419653855452, 37.174772101722397 ], [ -122.299611079609775, 37.174773233380122 ] ] ] ] } },
{ "type": "Feature", "properties": { "id": null }, "geometry": { "type": "MultiPolygon", "coordinates": [ [ [ [ -122.299353159539081, 37.174960941127445 ], [ -122.299352119428661, 37.175073573411233 ], [ -122.299188843882646, 37.175072607829698 ], [ -122.299189884235375, 37.174959975549818 ], [ -122.299353159539081, 37.174960941127445 ] ] ] ] } },
{ "type": "Feature", "properties": { "id": null }, "geometry": { "type": "MultiPolygon", "coordinates": [ [ [ [ -122.29942839030582, 37.174740614613626 ], [ -122.299427475114541, 37.174839731028754 ], [ -122.299320501807998, 37.174839098503178 ], [ -122.299321417138998, 37.174739982090323 ], [ -122.29942839030582, 37.174740614613626 ] ] ] ] } },
{ "type": "Feature", "properties": { "id": null }, "geometry": { "type": "MultiPolygon", "coordinates": [ [ [ [ -122.299120984390967, 37.174799621444471 ], [ -122.299119694233383, 37.174939285472902 ], [ -122.298933898261055, 37.174938186329001 ], [ -122.298935188760595, 37.174798522306105 ], [ -122.299120984390967, 37.174799621444471 ] ] ] ] } },
{ "type": "Feature", "properties": { "id": null }, "geometry": { "type": "MultiPolygon", "coordinates": [ [ [ [ -122.299214423169431, 37.174741602116164 ], [ -122.299213674148191, 37.174822697361307 ], [ -122.29905039914685, 37.174821731594548 ], [ -122.299051148342556, 37.17474063635224 ], [ -122.299214423169431, 37.174741602116164 ] ] ] ] } },
{ "type": "Feature", "properties": { "id": null }, "geometry": { "type": "MultiPolygon", "coordinates": [ [ [ [ -122.299302335660315, 37.174672286189249 ], [ -122.299301461913714, 37.174766897311351 ], [ -122.299166337870943, 37.174766098173265 ], [ -122.299167211785999, 37.174671487053899 ], [ -122.299302335660315, 37.174672286189249 ] ] ] ] } },
{ "type": "Feature", "properties": { "id": null }, "geometry": { "type": "MultiPolygon", "coordinates": [ [ [ [ -122.299486446356525, 37.174855849061551 ], [ -122.299485489640816, 37.174959470767504 ], [ -122.299333474701299, 37.174958571958456 ], [ -122.299334431624558, 37.17485495025587 ], [ -122.299486446356525, 37.174855849061551 ] ] ] ] } },
{ "type": "Feature", "properties": { "id": null }, "geometry": { "type": "MultiPolygon", "coordinates": [ [ [ [ -122.298390651281792, 37.175232336327838 ], [ -122.298389443083948, 37.175362989743881 ], [ -122.29823742737166, 37.175362089520469 ], [ -122.298238635831225, 37.17523143610866 ], [ -122.298390651281792, 37.175232336327838 ] ] ] ] } },
{ "type": "Feature", "properties": { "id": null }, "geometry": { "type": "MultiPolygon", "coordinates": [ [ [ [ -122.298199432785225, 37.175208676236259 ], [ -122.298198682666523, 37.175289771457358 ], [ -122.298063557724504, 37.175288971052197 ], [ -122.298064307987644, 37.175207875833436 ], [ -122.298199432785225, 37.175208676236259 ] ] ] ] } },
{ "type": "Feature", "properties": { "id": null }, "geometry": { "type": "MultiPolygon", "coordinates": [ [ [ [ -122.298164713891339, 37.175309845175462 ], [ -122.298163588652343, 37.175431488003696 ], [ -122.298005942593946, 37.17543055413298 ], [ -122.298007068085624, 37.175308911308846 ], [ -122.298164713891339, 37.175309845175462 ] ] ] ] } },
{ "type": "Feature", "properties": { "id": null }, "geometry": { "type": "MultiPolygon", "coordinates": [ [ [ [ -122.298270583602189, 37.175429868937243 ], [ -122.298269750214587, 37.175519974736403 ], [ -122.298145885306525, 37.175519241107985 ], [ -122.29814671884121, 37.175429135311219 ], [ -122.298270583602189, 37.175429868937243 ] ] ] ] } },
{ "type": "Feature", "properties": { "id": null }, "geometry": { "type": "MultiPolygon", "coordinates": [ [ [ [ -122.298202041679659, 37.17553534310597 ], [ -122.298201291554861, 37.175616438322642 ], [ -122.29804364511088, 37.175615504498147 ], [ -122.298044395404162, 37.175534409284204 ], [ -122.298202041679659, 37.17553534310597 ] ] ] ] } },
{ "type": "Feature", "properties": { "id": null }, "geometry": { "type": "MultiPolygon", "coordinates": [ [ [ [ -122.298451059807718, 37.175093022358972 ], [ -122.29844997669494, 37.175210159908801 ], [ -122.298247289485673, 37.175208959675317 ], [ -122.298248372911331, 37.17509182213054 ], [ -122.298451059807718, 37.175093022358972 ] ] ] ] } },
{ "type": "Feature", "properties": { "id": null }, "geometry": { "type": "MultiPolygon", "coordinates": [ [ [ [ -122.298214862631554, 37.175062337672415 ], [ -122.29821415420551, 37.175138927605644 ], [ -122.298101550310278, 37.175138260629041 ], [ -122.29810225884998, 37.175061670697659 ], [ -122.298214862631554, 37.175062337672415 ] ] ] ] } },
{ "type": "Feature", "properties": { "id": null }, "geometry": { "type": "MultiPolygon", "coordinates": [ [ [ [ -122.298528754358188, 37.174911008087307 ], [ -122.298527296491358, 37.175068693257472 ], [ -122.298302088897955, 37.175067359794561 ], [ -122.298303547232734, 37.174909674631969 ], [ -122.298528754358188, 37.174911008087307 ] ] ] ] } },
{ "type": "Feature", "properties": { "id": null }, "geometry": { "type": "MultiPolygon", "coordinates": [ [ [ [ -122.298445363965229, 37.174795623181396 ], [ -122.298444114222448, 37.174930781899164 ], [ -122.298241427759763, 37.174929581663314 ], [ -122.298242677863527, 37.174794422951379 ], [ -122.298445363965229, 37.174795623181396 ] ] ] ] } },
{ "type": "Feature", "properties": { "id": null }, "geometry": { "type": "MultiPolygon", "coordinates": [ [ [ [ -122.299015835920329, 37.17500576857114 ], [ -122.299015126268202, 37.175082578890922 ], [ -122.298919137615343, 37.175082010985889 ], [ -122.29891984736463, 37.175005200667655 ], [ -122.299015835920329, 37.17500576857114 ] ] ] ] } },
{ "type": "Feature", "properties": { "id": null }, "geometry": { "type": "MultiPolygon", "coordinates": [ [ [ [ -122.298901732822443, 37.174986804315672 ], [ -122.298900786465651, 37.175089218073012 ], [ -122.298768230699338, 37.175088433674716 ], [ -122.298769177235002, 37.174986019920254 ], [ -122.298901732822443, 37.174986804315672 ] ] ] ] } },
{ "type": "Feature", "properties": { "id": null }, "geometry": { "type": "MultiPolygon", "coordinates": [ [ [ [ -122.298849539484664, 37.174946259303923 ], [ -122.298847443821003, 37.175173032620357 ], [ -122.29855033575123, 37.175171274142855 ], [ -122.298552432302742, 37.174944500840773 ], [ -122.298849539484664, 37.174946259303923 ] ] ] ] } },
{ "type": "Feature", "properties": { "id": null }, "geometry": { "type": "MultiPolygon", "coordinates": [ [ [ [ -122.298813851311039, 37.174850944428464 ], [ -122.298812837235047, 37.174960673454585 ], [ -122.298643714651377, 37.174959672521865 ], [ -122.298644728971922, 37.174849943499709 ], [ -122.298813851311039, 37.174850944428464 ] ] ] ] } },
{ "type": "Feature", "properties": { "id": null }, "geometry": { "type": "MultiPolygon", "coordinates": [ [ [ [ -122.298642595683063, 37.174833470618502 ], [ -122.298641919468324, 37.17490662330033 ], [ -122.298532218414181, 37.174905973916751 ], [ -122.298532894734663, 37.17483282123662 ], [ -122.298642595683063, 37.174833470618502 ] ] ] ] } },
{ "type": "Feature", "properties": { "id": null }, "geometry": { "type": "MultiPolygon", "coordinates": [ [ [ [ -122.298574658147487, 37.174765398536216 ], [ -122.298573948054937, 37.174842208851878 ], [ -122.29846881796874, 37.174841586468588 ], [ -122.298469528167701, 37.174764776154646 ], [ -122.298574658147487, 37.174765398536216 ] ] ] ] } },
{ "type": "Feature", "properties": { "id": null }, "geometry": { "type": "MultiPolygon", "coordinates": [ [ [ [ -122.298676907704973, 37.174583112058492 ], [ -122.298675724396219, 37.17471112925746 ], [ -122.29850660237372, 37.174710128134762 ], [ -122.298507785967786, 37.174582110940399 ], [ -122.298676907704973, 37.174583112058492 ] ] ] ] } },
{ "type": "Feature", "properties": { "id": null }, "geometry": { "type": "MultiPolygon", "coordinates": [ [ [ [ -122.298917963382223, 37.174714391694813 ], [ -122.298917050854087, 37.174813147822881 ], [ -122.298665652905086, 37.174811660088778 ], [ -122.298666565760371, 37.17471290396599 ], [ -122.298917963382223, 37.174714391694813 ] ] ] ] } },
{ "type": "Feature", "properties": { "id": null }, "geometry": { "type": "MultiPolygon", "coordinates": [ [ [ [ -122.298973912096557, 37.174595843098587 ], [ -122.298972627904419, 37.174734833208745 ], [ -122.298766938881911, 37.174733616110061 ], [ -122.29876822345075, 37.174594626006005 ], [ -122.298973912096557, 37.174595843098587 ] ] ] ] } },
{ "type": "Feature", "properties": { "id": null }, "geometry": { "type": "MultiPolygon", "coordinates": [ [ [ [ -122.299156966065027, 37.174573150033609 ], [ -122.299155918709673, 37.17468653670754 ], [ -122.298986796724606, 37.174685536270744 ], [ -122.298987844332657, 37.174572149600905 ], [ -122.299156966065027, 37.174573150033609 ] ] ] ] } },
{ "type": "Feature", "properties": { "id": null }, "geometry": { "type": "MultiPolygon", "coordinates": [ [ [ [ -122.298879411212184, 37.17443433924862 ], [ -122.298878262050394, 37.174558698821897 ], [ -122.298672573509521, 37.174557481564314 ], [ -122.298673723008335, 37.174433121996472 ], [ -122.298879411212184, 37.17443433924862 ] ] ] ] } },
{ "type": "Feature", "properties": { "id": null }, "geometry": { "type": "MultiPolygon", "coordinates": [ [ [ [ -122.298357894742111, 37.174478804093461 ], [ -122.298356846196228, 37.174592190749806 ], [ -122.298183153592518, 37.174591162101763 ], [ -122.298184202397891, 37.174477775449617 ], [ -122.298357894742111, 37.174478804093461 ] ] ] ] } },
{ "type": "Feature", "properties": { "id": null }, "geometry": { "type": "MultiPolygon", "coordinates": [ [ [ [ -122.298438797781159, 37.174380521601897 ], [ -122.298437647899505, 37.174504881164559 ], [ -122.29824567208189, 37.174503744356137 ], [ -122.298246822278145, 37.174379384798563 ], [ -122.298438797781159, 37.174380521601897 ] ] ] ] } },
{ "type": "Feature", "properties": { "id": null }, "geometry": { "type": "MultiPolygon", "coordinates": [ [ [ [ -122.299620536761978, 37.174616127209987 ], [ -122.29961952386121, 37.1747258562594 ], [ -122.299436689170236, 37.174724775409892 ], [ -122.299437702335368, 37.174615046364742 ], [ -122.299620536761978, 37.174616127209987 ] ] ] ] } },
{ "type": "Feature", "properties": { "id": null }, "geometry": { "type": "MultiPolygon", "coordinates": [ [ [ [ -122.299724005658973, 37.174549068811828 ], [ -122.299722891635085, 37.174669770770109 ], [ -122.299576623986411, 37.174668906241763 ], [ -122.299577738242931, 37.174548204287241 ], [ -122.299724005658973, 37.174549068811828 ] ] ] ] } },
{ "type": "Feature", "properties": { "id": null }, "geometry": { "type": "MultiPolygon", "coordinates": [ [ [ [ -122.299507092577386, 37.174525839658394 ], [ -122.299506315897375, 37.17460996526237 ], [ -122.299332623210205, 37.174608938298803 ], [ -122.299333400082773, 37.174524812697946 ], [ -122.299507092577386, 37.174525839658394 ] ] ] ] } },
{ "type": "Feature", "properties": { "id": null }, "geometry": { "type": "MultiPolygon", "coordinates": [ [ [ [ -122.299446894713924, 37.17460961396138 ], [ -122.299445847790452, 37.174723000641663 ], [ -122.299308721781557, 37.174722189830042 ], [ -122.299309768909922, 37.17460880315307 ], [ -122.299446894713924, 37.17460961396138 ] ] ] ] } },
{ "type": "Feature", "properties": { "id": null }, "geometry": { "type": "MultiPolygon", "coordinates": [ [ [ [ -122.299491088584347, 37.174278841203744 ], [ -122.299490109277997, 37.174384912621314 ], [ -122.29939869234461, 37.174384372136188 ], [ -122.299399671778701, 37.174278300720673 ], [ -122.299491088584347, 37.174278841203744 ] ] ] ] } },
{ "type": "Feature", "properties": { "id": null }, "geometry": { "type": "MultiPolygon", "coordinates": [ [ [ [ -122.299413738913913, 37.174239976629366 ], [ -122.299412725727862, 37.174349705680903 ], [ -122.299289312927641, 37.174348975929313 ], [ -122.299290326292123, 37.174239246880646 ], [ -122.299413738913913, 37.174239976629366 ] ] ] ] } },
{ "type": "Feature", "properties": { "id": null }, "geometry": { "type": "MultiPolygon", "coordinates": [ [ [ [ -122.299037832018911, 37.174356633087555 ], [ -122.299037021032206, 37.174444416320156 ], [ -122.298954745735486, 37.17444392957146 ], [ -122.298955556817361, 37.174356146340394 ], [ -122.299037832018911, 37.174356633087555 ] ] ] ] } },
{ "type": "Feature", "properties": { "id": null }, "geometry": { "type": "MultiPolygon", "coordinates": [ [ [ [ -122.298770708052331, 37.174325789874288 ], [ -122.298769423500516, 37.174464779984746 ], [ -122.298550022667371, 37.174463481365216 ], [ -122.298551307620983, 37.174324491261267 ], [ -122.298770708052331, 37.174325789874288 ] ] ] ] } },
{ "type": "Feature", "properties": { "id": null }, "geometry": { "type": "MultiPolygon", "coordinates": [ [ [ [ -122.298547260905536, 37.174267770869754 ], [ -122.298546077391521, 37.174395788071976 ], [ -122.29842266453926, 37.174395057417023 ], [ -122.298423848261436, 37.174267040218155 ], [ -122.298547260905536, 37.174267770869754 ] ] ] ] } },
{ "type": "Feature", "properties": { "id": null }, "geometry": { "type": "MultiPolygon", "coordinates": [ [ [ [ -122.298448920235117, 37.174274504333638 ], [ -122.298448040930552, 37.174369602824889 ], [ -122.298310915589624, 37.174368790865138 ], [ -122.298311795066013, 37.174273692376666 ], [ -122.298448920235117, 37.174274504333638 ] ] ] ] } },
{ "type": "Feature", "properties": { "id": null }, "geometry": { "type": "MultiPolygon", "coordinates": [ [ [ [ -122.298221699544953, 37.174377407091399 ], [ -122.298221124427172, 37.1744395868702 ], [ -122.298102282360873, 37.174438882952224 ], [ -122.29810285757604, 37.174376703174993 ], [ -122.298221699544953, 37.174377407091399 ] ] ] ] } },
{ "type": "Feature", "properties": { "id": null }, "geometry": { "type": "MultiPolygon", "coordinates": [ [ [ [ -122.298213029635093, 37.174079242228984 ], [ -122.298212183871712, 37.17417068308437 ], [ -122.298065917232435, 37.174169816701152 ], [ -122.298066763172045, 37.174078375848602 ], [ -122.298213029635093, 37.174079242228984 ] ] ] ] } },
{ "type": "Feature", "properties": { "id": null }, "geometry": { "type": "MultiPolygon", "coordinates": [ [ [ [ -122.298498030003742, 37.174154086546423 ], [ -122.298497286032386, 37.174234554503137 ], [ -122.298383015116741, 37.174233877930611 ], [ -122.298383759209258, 37.174153409975851 ], [ -122.298498030003742, 37.174154086546423 ] ] ] ] } },
{ "type": "Feature", "properties": { "id": null }, "geometry": { "type": "MultiPolygon", "coordinates": [ [ [ [ -122.29839730259603, 37.174171779341826 ], [ -122.29839679526998, 37.174226643856549 ], [ -122.298296236876666, 37.174226048393372 ], [ -122.29829674427539, 37.174171183879828 ], [ -122.29839730259603, 37.174171779341826 ] ] ] ] } },
{ "type": "Feature", "properties": { "id": null }, "geometry": { "type": "MultiPolygon", "coordinates": [ [ [ [ -122.297961381366875, 37.17435208911413 ], [ -122.297960332233288, 37.17446547576327 ], [ -122.297814065033648, 37.174464609063335 ], [ -122.297815114385756, 37.174351222417734 ], [ -122.297961381366875, 37.17435208911413 ] ] ] ] } },
{ "type": "Feature", "properties": { "id": null }, "geometry": { "type": "MultiPolygon", "coordinates": [ [ [ [ -122.298117079168165, 37.17456882372106 ], [ -122.298115759571857, 37.174711471440098 ], [ -122.297919212379995, 37.174710307021627 ], [ -122.297920532345771, 37.174567659308572 ], [ -122.298117079168165, 37.17456882372106 ] ] ] ] } },
{ "type": "Feature", "properties": { "id": null }, "geometry": { "type": "MultiPolygon", "coordinates": [ [ [ [ -122.298170322369899, 37.174742886223314 ], [ -122.29816856302844, 37.174933083177841 ], [ -122.29789888120996, 37.17493148551624 ], [ -122.297900641227287, 37.174741288572655 ], [ -122.298170322369899, 37.174742886223314 ] ] ] ] } },
{ "type": "Feature", "properties": { "id": null }, "geometry": { "type": "MultiPolygon", "coordinates": [ [ [ [ -122.297987643196123, 37.175466055178546 ], [ -122.297986797118654, 37.175557496008082 ], [ -122.297881666054622, 37.17555687309369 ], [ -122.297882512258781, 37.175465432266215 ], [ -122.297987643196123, 37.175466055178546 ] ] ] ] } },
{ "type": "Feature", "properties": { "id": null }, "geometry": { "type": "MultiPolygon", "coordinates": [ [ [ [ -122.297884594625927, 37.175487391607504 ], [ -122.297884154601192, 37.175534940837821 ], [ -122.297788165399325, 37.175534372010752 ], [ -122.297788605484214, 37.175486822781416 ], [ -122.297884594625927, 37.175487391607504 ] ] ] ] } },
{ "type": "Feature", "properties": { "id": null }, "geometry": { "type": "MultiPolygon", "coordinates": [ [ [ [ -122.297797324154104, 37.175532597371593 ], [ -122.297796714812122, 37.175598434765561 ], [ -122.297705296449791, 37.175597892959004 ], [ -122.297705905871084, 37.175532055566322 ], [ -122.297797324154104, 37.175532597371593 ] ] ] ] } },
{ "type": "Feature", "properties": { "id": null }, "geometry": { "type": "MultiPolygon", "coordinates": [ [ [ [ -122.297729200563694, 37.175484641795499 ], [ -122.297728354174168, 37.175576082619678 ], [ -122.297595797590603, 37.175575296901094 ], [ -122.29759664413983, 37.175483856079502 ], [ -122.297729200563694, 37.175484641795499 ] ] ] ] } },
{ "type": "Feature", "properties": { "id": null }, "geometry": { "type": "MultiPolygon", "coordinates": [ [ [ [ -122.297799101390311, 37.175340571634919 ], [ -122.297797984272378, 37.175461273527283 ], [ -122.297624289699996, 37.17546024403962 ], [ -122.297625407094202, 37.17533954215174 ], [ -122.297799101390311, 37.175340571634919 ] ] ] ] } },
{ "type": "Feature", "properties": { "id": null }, "geometry": { "type": "MultiPolygon", "coordinates": [ [ [ [ -122.297926934360675, 37.17535778938813 ], [ -122.297925986675423, 37.175460203117645 ], [ -122.297793430288664, 37.175459417622228 ], [ -122.297794378152815, 37.175357003895613 ], [ -122.297926934360675, 37.17535778938813 ] ] ] ] } },
{ "type": "Feature", "properties": { "id": null }, "geometry": { "type": "MultiPolygon", "coordinates": [ [ [ [ -122.29743926947117, 37.175448173643886 ], [ -122.297438456602947, 37.175535956830196 ], [ -122.297287616442219, 37.175535062356786 ], [ -122.297288429484922, 37.175447279173312 ], [ -122.29743926947117, 37.175448173643886 ] ] ] ] } },
{ "type": "Feature", "properties": { "id": null }, "geometry": { "type": "MultiPolygon", "coordinates": [ [ [ [ -122.29751606102667, 37.175300486674892 ], [ -122.297515180520236, 37.175395585130616 ], [ -122.297364340636094, 37.175394690757756 ], [ -122.29736522133156, 37.17529959230508 ], [ -122.29751606102667, 37.175300486674892 ] ] ] ] } },
{ "type": "Feature", "properties": { "id": null }, "geometry": { "type": "MultiPolygon", "coordinates": [ [ [ [ -122.297185787333447, 37.175424723401335 ], [ -122.297185211344924, 37.175486903155303 ], [ -122.297093793128965, 37.175486360878367 ], [ -122.297094369192408, 37.175424181125599 ], [ -122.297185787333447, 37.175424723401335 ] ] ] ] } },
{ "type": "Feature", "properties": { "id": null }, "geometry": { "type": "MultiPolygon", "coordinates": [ [ [ [ -122.29772388442386, 37.175071275070643 ], [ -122.297722868763501, 37.175181004067028 ], [ -122.297553745728237, 37.175180001573622 ], [ -122.297554761633151, 37.175070272581195 ], [ -122.29772388442386, 37.175071275070643 ] ] ] ] } },
{ "type": "Feature", "properties": { "id": null }, "geometry": { "type": "MultiPolygon", "coordinates": [ [ [ [ -122.297649632927957, 37.174944639698012 ], [ -122.297648380152708, 37.175079972127328 ], [ -122.297488399118478, 37.175079023730532 ], [ -122.297489652179038, 37.174943691305842 ], [ -122.297649632927957, 37.174944639698012 ] ] ] ] } },
{ "type": "Feature", "properties": { "id": null }, "geometry": { "type": "MultiPolygon", "coordinates": [ [ [ [ -122.297735480654424, 37.174806150835444 ], [ -122.297734329602321, 37.174930510370402 ], [ -122.29756063624734, 37.174929480801921 ], [ -122.297561787584087, 37.174805121271568 ], [ -122.297735480654424, 37.174806150835444 ] ] ] ] } },
{ "type": "Feature", "properties": { "id": null }, "geometry": { "type": "MultiPolygon", "coordinates": [ [ [ [ -122.297324112374042, 37.174888251236723 ], [ -122.297323515454792, 37.17495270446873 ], [ -122.2972659825585, 37.174952363270755 ], [ -122.297266579526635, 37.174887910039544 ], [ -122.297324112374042, 37.174888251236723 ] ] ] ] } },
{ "type": "Feature", "properties": { "id": null }, "geometry": { "type": "MultiPolygon", "coordinates": [ [ [ [ -122.29739809505817, 37.174976166995968 ], [ -122.297397242402852, 37.175068243041565 ], [ -122.297293683030915, 37.175067628927906 ], [ -122.297294535811872, 37.174975552884348 ], [ -122.29739809505817, 37.174976166995968 ] ] ] ] } },
{ "type": "Feature", "properties": { "id": null }, "geometry": { "type": "MultiPolygon", "coordinates": [ [ [ [ -122.297163724074522, 37.174811333078203 ], [ -122.297162785846211, 37.174912616725997 ], [ -122.29705347340564, 37.174911968278288 ], [ -122.297054411779854, 37.17481068463286 ], [ -122.297163724074522, 37.174811333078203 ] ] ] ] } },
{ "type": "Feature", "properties": { "id": null }, "geometry": { "type": "MultiPolygon", "coordinates": [ [ [ [ -122.297403124632567, 37.174743692031583 ], [ -122.297402229358326, 37.174840371883342 ], [ -122.297264150610957, 37.174839553055101 ], [ -122.297265046061128, 37.174742873206199 ], [ -122.297403124632567, 37.174743692031583 ] ] ] ] } },
{ "type": "Feature", "properties": { "id": null }, "geometry": { "type": "MultiPolygon", "coordinates": [ [ [ [ -122.297430058808061, 37.17463105238042 ], [ -122.297429035680537, 37.174741543642185 ], [ -122.297262190744547, 37.174740554244444 ], [ -122.297263214115006, 37.17463006298663 ], [ -122.297430058808061, 37.17463105238042 ] ] ] ] } },
{ "type": "Feature", "properties": { "id": null }, "geometry": { "type": "MultiPolygon", "coordinates": [ [ [ [ -122.297262382626954, 37.174719837133765 ], [ -122.297261359251948, 37.174830328389881 ], [ -122.29711177396689, 37.174829441141064 ], [ -122.297112797559663, 37.174718949888479 ], [ -122.297262382626954, 37.174719837133765 ] ] ] ] } },
{ "type": "Feature", "properties": { "id": null }, "geometry": { "type": "MultiPolygon", "coordinates": [ [ [ [ -122.29769172585884, 37.17464411373895 ], [ -122.29769053265349, 37.174773020217756 ], [ -122.29747766142944, 37.174771758310229 ], [ -122.297478854996385, 37.174642851837291 ], [ -122.29769172585884, 37.17464411373895 ] ] ] ] } },
{ "type": "Feature", "properties": { "id": null }, "geometry": { "type": "MultiPolygon", "coordinates": [ [ [ [ -122.297839264967919, 37.174555209045991 ], [ -122.297838455466376, 37.174642681303858 ], [ -122.297723390132205, 37.174641999384832 ], [ -122.297724199766378, 37.174554527129125 ], [ -122.297839264967919, 37.174555209045991 ] ] ] ] } },
{ "type": "Feature", "properties": { "id": null }, "geometry": { "type": "MultiPolygon", "coordinates": [ [ [ [ -122.29751486646947, 37.174481923399611 ], [ -122.297513545095356, 37.174624641285178 ], [ -122.297340947148641, 37.174623617891918 ], [ -122.297342268847345, 37.174480900011609 ], [ -122.29751486646947, 37.174481923399611 ] ] ] ] } },
{ "type": "Feature", "properties": { "id": null }, "geometry": { "type": "MultiPolygon", "coordinates": [ [ [ [ -122.297344591216984, 37.174540766504272 ], [ -122.297343866416426, 37.174619031148012 ], [ -122.29722304786614, 37.174618314626215 ], [ -122.297223772791284, 37.174540049984508 ], [ -122.297344591216984, 37.174540766504272 ] ] ] ] } },
{ "type": "Feature", "properties": { "id": null }, "geometry": { "type": "MultiPolygon", "coordinates": [ [ [ [ -122.29737105643386, 37.174478768692403 ], [ -122.297370459563339, 37.174543221929518 ], [ -122.297249641133064, 37.174542505436087 ], [ -122.297250238106216, 37.17447805220062 ], [ -122.29737105643386, 37.174478768692403 ] ] ] ] } },
{ "type": "Feature", "properties": { "id": null }, "geometry": { "type": "MultiPolygon", "coordinates": [ [ [ [ -122.297395199197609, 37.174356904380254 ], [ -122.297394303925813, 37.174453584238158 ], [ -122.297215953120997, 37.174452526552116 ], [ -122.29721684862001, 37.174355846697907 ], [ -122.297395199197609, 37.174356904380254 ] ] ] ] } },
{ "type": "Feature", "properties": { "id": null }, "geometry": { "type": "MultiPolygon", "coordinates": [ [ [ [ -122.297181710803798, 37.174422397091305 ], [ -122.297180815257832, 37.17451907694371 ], [ -122.297059996870942, 37.174518360257302 ], [ -122.297060892570812, 37.174421680407391 ], [ -122.297181710803798, 37.174422397091305 ] ] ] ] } },
{ "type": "Feature", "properties": { "id": null }, "geometry": { "type": "MultiPolygon", "coordinates": [ [ [ [ -122.297225924498235, 37.174618331687675 ], [ -122.297224858431136, 37.17473342674716 ], [ -122.297104039701793, 37.174732710102148 ], [ -122.297105105952141, 37.174617615045641 ], [ -122.297225924498235, 37.174618331687675 ] ] ] ] } },
{ "type": "Feature", "properties": { "id": null }, "geometry": { "type": "MultiPolygon", "coordinates": [ [ [ [ -122.297744804896908, 37.17450400463958 ], [ -122.297744080510128, 37.174582269290489 ], [ -122.297606002222338, 37.174581450865411 ], [ -122.297606726751496, 37.17450318621681 ], [ -122.297744804896908, 37.17450400463958 ] ] ] ] } },
{ "type": "Feature", "properties": { "id": null }, "geometry": { "type": "MultiPolygon", "coordinates": [ [ [ [ -122.297837623891112, 37.174421681708672 ], [ -122.297836942207539, 37.174495342559126 ], [ -122.297733383607763, 37.174494728837772 ], [ -122.297734065391836, 37.174421067988973 ], [ -122.297837623891112, 37.174421681708672 ] ] ] ] } },
{ "type": "Feature", "properties": { "id": null }, "geometry": { "type": "MultiPolygon", "coordinates": [ [ [ [ -122.297715271311006, 37.174275928845844 ], [ -122.297713012843147, 37.174519930409033 ], [ -122.297408090217601, 37.174518122761633 ], [ -122.297410349665839, 37.174274121214346 ], [ -122.297715271311006, 37.174275928845844 ] ] ] ] } },
{ "type": "Feature", "properties": { "id": null }, "geometry": { "type": "MultiPolygon", "coordinates": [ [ [ [ -122.297205470061627, 37.174341967043276 ], [ -122.297204702479249, 37.174424835489837 ], [ -122.29710689723909, 37.174424255345585 ], [ -122.297107664928248, 37.174341386900757 ], [ -122.297205470061627, 37.174341967043276 ] ] ] ] } },
{ "type": "Feature", "properties": { "id": null }, "geometry": { "type": "MultiPolygon", "coordinates": [ [ [ [ -122.29762477503867, 37.17410734441345 ], [ -122.297623880067462, 37.174204024280201 ], [ -122.297451283073428, 37.174203001057492 ], [ -122.297452178264521, 37.174106321194301 ], [ -122.29762477503867, 37.17410734441345 ] ] ] ] } },
{ "type": "Feature", "properties": { "id": null }, "geometry": { "type": "MultiPolygon", "coordinates": [ [ [ [ -122.298333164115036, 37.173720196604066 ], [ -122.298331333424173, 37.173918160182069 ], [ -122.298003400328668, 37.173916217814515 ], [ -122.298005231874953, 37.17371825425036 ], [ -122.298333164115036, 37.173720196604066 ] ] ] ] } },
{ "type": "Feature", "properties": { "id": null }, "geometry": { "type": "MultiPolygon", "coordinates": [ [ [ [ -122.297436814732734, 37.174212123383484 ], [ -122.29743591951862, 37.174308803244635 ], [ -122.297315101459915, 37.174308086821767 ], [ -122.297315996827933, 37.174211406963117 ], [ -122.297436814732734, 37.174212123383484 ] ] ] ] } },
{ "type": "Feature", "properties": { "id": null }, "geometry": { "type": "MultiPolygon", "coordinates": [ [ [ [ -122.297300442620553, 37.174027152491846 ], [ -122.297299632513329, 37.174114624747403 ], [ -122.297144295412139, 37.174113703435104 ], [ -122.297145105698391, 37.174026231182445 ], [ -122.297300442620553, 37.174027152491846 ] ] ] ] } },
{ "type": "Feature", "properties": { "id": null }, "geometry": { "type": "MultiPolygon", "coordinates": [ [ [ [ -122.297494006672409, 37.173938521152827 ], [ -122.297492600033934, 37.174090446657083 ], [ -122.297291237182151, 37.174089252652841 ], [ -122.297292644223745, 37.173937327155109 ], [ -122.297494006672409, 37.173938521152827 ] ] ] ] } },
{ "type": "Feature", "properties": { "id": null }, "geometry": { "type": "MultiPolygon", "coordinates": [ [ [ [ -122.297641565931798, 37.17384731478203 ], [ -122.297640543141299, 37.173957806063434 ], [ -122.29750821920733, 37.173957021638195 ], [ -122.297509242190515, 37.173846530359903 ], [ -122.297641565931798, 37.17384731478203 ] ] ] ] } },
{ "type": "Feature", "properties": { "id": null }, "geometry": { "type": "MultiPolygon", "coordinates": [ [ [ [ -122.297814588180188, 37.17380229968304 ], [ -122.297813693460711, 37.173898979558707 ], [ -122.297687122834589, 37.173898229427941 ], [ -122.297688017715302, 37.173801549554874 ], [ -122.297814588180188, 37.17380229968304 ] ] ] ] } },
{ "type": "Feature", "properties": { "id": null }, "geometry": { "type": "MultiPolygon", "coordinates": [ [ [ [ -122.297979385084389, 37.173713497064121 ], [ -122.297978533173392, 37.173805573140868 ], [ -122.297742651837794, 37.173804175392213 ], [ -122.297743504034955, 37.173712099320099 ], [ -122.297979385084389, 37.173713497064121 ] ] ] ] } },
{ "type": "Feature", "properties": { "id": null }, "geometry": { "type": "MultiPolygon", "coordinates": [ [ [ [ -122.297870883789969, 37.173625377115251 ], [ -122.297869989147941, 37.17372205699499 ], [ -122.297731912421767, 37.173721238732718 ], [ -122.297732807239697, 37.173624558855828 ], [ -122.297870883789969, 37.173625377115251 ] ] ] ] } },
{ "type": "Feature", "properties": { "id": null }, "geometry": { "type": "MultiPolygon", "coordinates": [ [ [ [ -122.29806962437975, 37.173598930257093 ], [ -122.298068517041642, 37.173718629161215 ], [ -122.29789592113525, 37.173717606597471 ], [ -122.297897028745581, 37.173597907697761 ], [ -122.29806962437975, 37.173598930257093 ] ] ] ] } },
{ "type": "Feature", "properties": { "id": null }, "geometry": { "type": "MultiPolygon", "coordinates": [ [ [ [ -122.297900842539178, 37.173496641056126 ], [ -122.29789960713849, 37.173630151369572 ], [ -122.297715505059969, 37.173629060365762 ], [ -122.297716740784537, 37.173495550057552 ], [ -122.297900842539178, 37.173496641056126 ] ] ] ] } },
{ "type": "Feature", "properties": { "id": null }, "geometry": { "type": "MultiPolygon", "coordinates": [ [ [ [ -122.298260799509535, 37.17345733684887 ], [ -122.298259692478695, 37.173577035760779 ], [ -122.298029565025431, 37.173575672662288 ], [ -122.29803067241923, 37.173455973756262 ], [ -122.298260799509535, 37.17345733684887 ] ] ] ] } },
{ "type": "Feature", "properties": { "id": null }, "geometry": { "type": "MultiPolygon", "coordinates": [ [ [ [ -122.29819623709912, 37.173595076169988 ], [ -122.298195428037232, 37.173682548448745 ], [ -122.298074610955993, 37.173681832810509 ], [ -122.298075420157147, 37.173594360534004 ], [ -122.29819623709912, 37.173595076169988 ] ] ] ] } },
{ "type": "Feature", "properties": { "id": null }, "geometry": { "type": "MultiPolygon", "coordinates": [ [ [ [ -122.29852110069524, 37.173617718080287 ], [ -122.298519908943206, 37.173746624604391 ], [ -122.298307040560772, 37.173745364216352 ], [ -122.298308232674387, 37.173616457698095 ], [ -122.29852110069524, 37.173617718080287 ] ] ] ] } },
{ "type": "Feature", "properties": { "id": null }, "geometry": { "type": "MultiPolygon", "coordinates": [ [ [ [ -122.298617709311728, 37.173436429735752 ], [ -122.298616730514354, 37.173542317243324 ], [ -122.298426875436618, 37.173541193292259 ], [ -122.298427854498897, 37.173435305788971 ], [ -122.298617709311728, 37.173436429735752 ] ] ] ] } },
{ "type": "Feature", "properties": { "id": null }, "geometry": { "type": "MultiPolygon", "coordinates": [ [ [ [ -122.298856466136755, 37.173437842752229 ], [ -122.298855274962207, 37.173566749289499 ], [ -122.29863090069685, 37.173565421401953 ], [ -122.298632092252532, 37.173436514870843 ], [ -122.298856466136755, 37.173437842752229 ] ] ] ] } },
{ "type": "Feature", "properties": { "id": null }, "geometry": { "type": "MultiPolygon", "coordinates": [ [ [ [ -122.299374273397262, 37.174373227032078 ], [ -122.299373125574164, 37.174497529758597 ], [ -122.29919477459039, 37.174496475049857 ], [ -122.299195922705621, 37.174372172328049 ], [ -122.299374273397262, 37.174373227032078 ] ] ] ] } },
{ "type": "Feature", "properties": { "id": null }, "geometry": { "type": "MultiPolygon", "coordinates": [ [ [ [ -122.297128886679573, 37.174534883115875 ], [ -122.297127820468489, 37.174649978174592 ], [ -122.297012755140813, 37.174649295565402 ], [ -122.297013821526434, 37.17453420050952 ], [ -122.297128886679573, 37.174534883115875 ] ] ] ] } },
{ "type": "Feature", "properties": { "id": null }, "geometry": { "type": "MultiPolygon", "coordinates": [ [ [ [ -122.258970303904263, 37.118752404467656 ], [ -122.258969580438119, 37.118826629593357 ], [ -122.25887143976091, 37.118826016118447 ], [ -122.258872163322849, 37.118751790994395 ], [ -122.258970303904263, 37.118752404467656 ] ] ] ] } },
{ "type": "Feature", "properties": { "id": null }, "geometry": { "type": "MultiPolygon", "coordinates": [ [ [ [ -122.259123094680731, 37.118740260045811 ], [ -122.259122499008384, 37.118801386622216 ], [ -122.259013453844105, 37.118800705119455 ], [ -122.259014049604104, 37.118739578544563 ], [ -122.259123094680731, 37.118740260045811 ] ] ] ] } },
{ "type": "Feature", "properties": { "id": null }, "geometry": { "type": "MultiPolygon", "coordinates": [ [ [ [ -122.259179513724547, 37.118825758383309 ], [ -122.259178705370701, 37.118908715879556 ], [ -122.259058755519362, 37.118907966276034 ], [ -122.259059564004048, 37.118825008782025 ], [ -122.259179513724547, 37.118825758383309 ] ] ] ] } },
{ "type": "Feature", "properties": { "id": null }, "geometry": { "type": "MultiPolygon", "coordinates": [ [ [ [ -122.259029385083963, 37.118844469190236 ], [ -122.259028704226736, 37.118914328131943 ], [ -122.258919658902798, 37.118913646541152 ], [ -122.258920339860154, 37.118843787601165 ], [ -122.259029385083963, 37.118844469190236 ] ] ] ] } },
{ "type": "Feature", "properties": { "id": null }, "geometry": { "type": "MultiPolygon", "coordinates": [ [ [ [ -122.259578528002493, 37.118725639492197 ], [ -122.259577124778644, 37.118869723579323 ], [ -122.259348129708485, 37.11886829318356 ], [ -122.259349533366247, 37.11872420910386 ], [ -122.259578528002493, 37.118725639492197 ] ] ] ] } },
{ "type": "Feature", "properties": { "id": null }, "geometry": { "type": "MultiPolygon", "coordinates": [ [ [ [ -122.259911349243808, 37.118703702156708 ], [ -122.259910541692051, 37.118786659668409 ], [ -122.259785139755365, 37.118785876765372 ], [ -122.259785947443945, 37.118702919256009 ], [ -122.259911349243808, 37.118703702156708 ] ] ] ] } },
{ "type": "Feature", "properties": { "id": null }, "geometry": { "type": "MultiPolygon", "coordinates": [ [ [ [ -122.259803967604824, 37.118812193019423 ], [ -122.259803074914387, 37.118903882896802 ], [ -122.25964495918987, 37.118902895590402 ], [ -122.259645852070946, 37.118811205716291 ], [ -122.259803967604824, 37.118812193019423 ] ] ] ] } },
{ "type": "Feature", "properties": { "id": null }, "geometry": { "type": "MultiPolygon", "coordinates": [ [ [ [ -122.259778348417598, 37.118923377538465 ], [ -122.259777880800286, 37.118971405568473 ], [ -122.259674287647115, 37.11897075871336 ], [ -122.25967475532984, 37.118922730684474 ], [ -122.259778348417598, 37.118923377538465 ] ] ] ] } },
{ "type": "Feature", "properties": { "id": null }, "geometry": { "type": "MultiPolygon", "coordinates": [ [ [ [ -122.259760631239672, 37.119062993313506 ], [ -122.259759695976825, 37.11915904937046 ], [ -122.259617936576674, 37.119158164151948 ], [ -122.259618872018578, 37.119062108098042 ], [ -122.259760631239672, 37.119062993313506 ] ] ] ] } },
{ "type": "Feature", "properties": { "id": null }, "geometry": { "type": "MultiPolygon", "coordinates": [ [ [ [ -122.259487868512167, 37.119076572470256 ], [ -122.259486762793273, 37.119190093257409 ], [ -122.259323194198487, 37.119189071459104 ], [ -122.259324300161566, 37.119075550676143 ], [ -122.259487868512167, 37.119076572470256 ] ] ] ] } },
{ "type": "Feature", "properties": { "id": null }, "geometry": { "type": "MultiPolygon", "coordinates": [ [ [ [ -122.259284645339676, 37.119228128661838 ], [ -122.259283369152513, 37.119359114175907 ], [ -122.258999849642933, 37.119357342422219 ], [ -122.259001126318452, 37.119226356916528 ], [ -122.259284645339676, 37.119228128661838 ] ] ] ] } },
{ "type": "Feature", "properties": { "id": null }, "geometry": { "type": "MultiPolygon", "coordinates": [ [ [ [ -122.259302048080073, 37.119400712149897 ], [ -122.259301027148609, 37.119505500558745 ], [ -122.259142910190903, 37.119504512569193 ], [ -122.259143931340247, 37.119399724164083 ], [ -122.259302048080073, 37.119400712149897 ] ] ] ] } },
{ "type": "Feature", "properties": { "id": null }, "geometry": { "type": "MultiPolygon", "coordinates": [ [ [ [ -122.259498501049904, 37.11938447358596 ], [ -122.259497097640889, 37.119528557654426 ], [ -122.259289909832745, 37.119527263346519 ], [ -122.259291313634321, 37.119383179284767 ], [ -122.259498501049904, 37.11938447358596 ] ] ] ] } },
{ "type": "Feature", "properties": { "id": null }, "geometry": { "type": "MultiPolygon", "coordinates": [ [ [ [ -122.259574578120748, 37.119411147446584 ], [ -122.259573727657568, 37.119498471125972 ], [ -122.259475586099725, 37.119497858141749 ], [ -122.259476436675598, 37.119410534464272 ], [ -122.259574578120748, 37.119411147446584 ] ] ] ] } },
{ "type": "Feature", "properties": { "id": null }, "geometry": { "type": "MultiPolygon", "coordinates": [ [ [ [ -122.259554240594966, 37.119539830688034 ], [ -122.259553305055206, 37.119635886732759 ], [ -122.259422449409513, 37.119635069377281 ], [ -122.259423385114545, 37.119539013335384 ], [ -122.259554240594966, 37.119539830688034 ] ] ] ] } },
{ "type": "Feature", "properties": { "id": null }, "geometry": { "type": "MultiPolygon", "coordinates": [ [ [ [ -122.258750150770581, 37.119242253771532 ], [ -122.258748958802769, 37.119364506902997 ], [ -122.258629008244, 37.119363756856856 ], [ -122.258630200404639, 37.119241503728702 ], [ -122.258750150770581, 37.119242253771532 ] ] ] ] } },
{ "type": "Feature", "properties": { "id": null }, "geometry": { "type": "MultiPolygon", "coordinates": [ [ [ [ -122.259357744697695, 37.11956043552334 ], [ -122.259356511157122, 37.119687054848626 ], [ -122.259165679888966, 37.119685862505463 ], [ -122.259166913747293, 37.11955924318562 ], [ -122.259357744697695, 37.11956043552334 ] ] ] ] } },
{ "type": "Feature", "properties": { "id": null }, "geometry": { "type": "MultiPolygon", "coordinates": [ [ [ [ -122.259375509214692, 37.11969590643325 ], [ -122.259374913724685, 37.119757033003268 ], [ -122.259309485799548, 37.119756624244005 ], [ -122.259310081342178, 37.119695497674883 ], [ -122.259375509214692, 37.11969590643325 ] ] ] ] } },
{ "type": "Feature", "properties": { "id": null }, "geometry": { "type": "MultiPolygon", "coordinates": [ [ [ [ -122.259388438206841, 37.119768033615799 ], [ -122.259387885260082, 37.119824794001737 ], [ -122.259295195617, 37.119824214924698 ], [ -122.259295748632937, 37.119767454539947 ], [ -122.259388438206841, 37.119768033615799 ] ] ] ] } },
{ "type": "Feature", "properties": { "id": null }, "geometry": { "type": "MultiPolygon", "coordinates": [ [ [ [ -122.259502554345971, 37.119808044497653 ], [ -122.259502001483611, 37.119864804884664 ], [ -122.259349336106226, 37.11986385121817 ], [ -122.259349889082529, 37.119807090833106 ], [ -122.259502554345971, 37.119808044497653 ] ] ] ] } },
{ "type": "Feature", "properties": { "id": null }, "geometry": { "type": "MultiPolygon", "coordinates": [ [ [ [ -122.258864289124062, 37.119559534940628 ], [ -122.258863225019056, 37.119668689519379 ], [ -122.258721464697416, 37.119667803218647 ], [ -122.258722529005922, 37.11955864864337 ], [ -122.258864289124062, 37.119559534940628 ] ] ] ] } },
{ "type": "Feature", "properties": { "id": null }, "geometry": { "type": "MultiPolygon", "coordinates": [ [ [ [ -122.258977276888132, 37.119715250177599 ], [ -122.258976383171543, 37.119806940023835 ], [ -122.258796456278731, 37.11980581524287 ], [ -122.258797350212276, 37.119714125400364 ], [ -122.258977276888132, 37.119715250177599 ] ] ] ] } },
{ "type": "Feature", "properties": { "id": null }, "geometry": { "type": "MultiPolygon", "coordinates": [ [ [ [ -122.259106175334082, 37.119916912455039 ], [ -122.259105026460631, 37.120034799399328 ], [ -122.258925099023344, 37.120033674807736 ], [ -122.25892624817574, 37.119915787868223 ], [ -122.259106175334082, 37.119916912455039 ] ] ] ] } },
{ "type": "Feature", "properties": { "id": null }, "geometry": { "type": "MultiPolygon", "coordinates": [ [ [ [ -122.258989588424242, 37.119850687054551 ], [ -122.258988609603023, 37.119951109264981 ], [ -122.258852301091139, 37.11995025719451 ], [ -122.258853280092367, 37.119849834987164 ], [ -122.258989588424242, 37.119850687054551 ] ] ] ] } },
{ "type": "Feature", "properties": { "id": null }, "geometry": { "type": "MultiPolygon", "coordinates": [ [ [ [ -122.259009541407423, 37.119481846807133 ], [ -122.259008307290458, 37.119608466124141 ], [ -122.258850190129095, 37.119607477741873 ], [ -122.258851424509331, 37.119480858429377 ], [ -122.259009541407423, 37.119481846807133 ] ] ] ] } },
{ "type": "Feature", "properties": { "id": null }, "geometry": { "type": "MultiPolygon", "coordinates": [ [ [ [ -122.259679383605757, 37.119287358147055 ], [ -122.259678618300853, 37.119365949462072 ], [ -122.259553215415295, 37.119365166303346 ], [ -122.259553980849802, 37.119286574990532 ], [ -122.259679383605757, 37.119287358147055 ] ] ] ] } },
{ "type": "Feature", "properties": { "id": null }, "geometry": { "type": "MultiPolygon", "coordinates": [ [ [ [ -122.258891682650813, 37.120105512324123 ], [ -122.258890746254835, 37.120201568345252 ], [ -122.258787151446271, 37.120200920696767 ], [ -122.258788087973144, 37.120104864677877 ], [ -122.258891682650813, 37.120105512324123 ] ] ] ] } },
{ "type": "Feature", "properties": { "id": null }, "geometry": { "type": "MultiPolygon", "coordinates": [ [ [ [ -122.258730114548939, 37.12017873183396 ], [ -122.258729390810927, 37.120252956937712 ], [ -122.258620343574421, 37.120252275050738 ], [ -122.258621067418844, 37.120178049948805 ], [ -122.258730114548939, 37.12017873183396 ] ] ] ] } },
{ "type": "Feature", "properties": { "id": null }, "geometry": { "type": "MultiPolygon", "coordinates": [ [ [ [ -122.245721244256558, 37.067352999617732 ], [ -122.245719270175442, 37.067552347491088 ], [ -122.245480072802224, 37.067550826157444 ], [ -122.245482047509185, 37.067351478295024 ], [ -122.245721244256558, 37.067352999617732 ] ] ] ] } },
{ "type": "Feature", "properties": { "id": null }, "geometry": { "type": "MultiPolygon", "coordinates": [ [ [ [ -122.246594372842551, 37.066143216694151 ], [ -122.246592628638837, 37.066319562961688 ], [ -122.24633429960528, 37.066317921848942 ], [ -122.246336044406917, 37.066141575591836 ], [ -122.246594372842551, 37.066143216694151 ] ] ] ] } },
{ "type": "Feature", "properties": { "id": null }, "geometry": { "type": "MultiPolygon", "coordinates": [ [ [ [ -122.245019871570548, 37.066677612896335 ], [ -122.245018655653908, 37.066800288505696 ], [ -122.244865570869109, 37.066799314020351 ], [ -122.244866787032237, 37.066676638415295 ], [ -122.245019871570548, 37.066677612896335 ] ] ] ] } },
{ "type": "Feature", "properties": { "id": null }, "geometry": { "type": "MultiPolygon", "coordinates": [ [ [ [ -122.245351973096803, 37.066476531949831 ], [ -122.245350757723855, 37.066599207572743 ], [ -122.24525507997771, 37.066598598813229 ], [ -122.245256295504717, 37.066475923193011 ], [ -122.245351973096803, 37.066476531949831 ] ] ] ] } },
{ "type": "Feature", "properties": { "id": null }, "geometry": { "type": "MultiPolygon", "coordinates": [ [ [ [ -122.245453118124644, 37.066408166020828 ], [ -122.245451902917594, 37.066530841648031 ], [ -122.24535622525508, 37.066530232971047 ], [ -122.245357440616203, 37.066407557346551 ], [ -122.245453118124644, 37.066408166020828 ] ] ] ] } },
{ "type": "Feature", "properties": { "id": null }, "geometry": { "type": "MultiPolygon", "coordinates": [ [ [ [ -122.245710697165819, 37.066123223615222 ], [ -122.245709862005569, 37.066207563118269 ], [ -122.245566346113407, 37.066206650392708 ], [ -122.245567181432534, 37.066122310892453 ], [ -122.245710697165819, 37.066123223615222 ] ] ] ] } },
{ "type": "Feature", "properties": { "id": null }, "geometry": { "type": "MultiPolygon", "coordinates": [ [ [ [ -122.245360602033131, 37.066209175463442 ], [ -122.245359880421574, 37.0662820141183 ], [ -122.245264203073631, 37.066281405370574 ], [ -122.245264924776663, 37.066208566717314 ], [ -122.245360602033131, 37.066209175463442 ] ] ] ] } },
{ "type": "Feature", "properties": { "id": null }, "geometry": { "type": "MultiPolygon", "coordinates": [ [ [ [ -122.245631250973801, 37.066174475424354 ], [ -122.245630149962039, 37.066285650220557 ], [ -122.245477066189835, 37.066284676535851 ], [ -122.24547816742502, 37.066173501743556 ], [ -122.245631250973801, 37.066174475424354 ] ] ] ] } },
{ "type": "Feature", "properties": { "id": null }, "geometry": { "type": "MultiPolygon", "coordinates": [ [ [ [ -122.220326296237289, 37.105582056386879 ], [ -122.22032547123608, 37.105662541483959 ], [ -122.22022498331674, 37.105661880661145 ], [ -122.220225808424232, 37.105581395565991 ], [ -122.220326296237289, 37.105582056386879 ] ] ] ] } },
{ "type": "Feature", "properties": { "id": null }, "geometry": { "type": "MultiPolygon", "coordinates": [ [ [ [ -122.22041011464691, 37.105574941758356 ], [ -122.220409446861026, 37.105640096362215 ], [ -122.22032809951989, 37.105639561474867 ], [ -122.220328767375435, 37.105574406872265 ], [ -122.22041011464691, 37.105574941758356 ] ] ] ] } },
{ "type": "Feature", "properties": { "id": null }, "geometry": { "type": "MultiPolygon", "coordinates": [ [ [ [ -122.220233728493994, 37.105742428694555 ], [ -122.220232942680809, 37.105819081164199 ], [ -122.220161165449127, 37.105818609098897 ], [ -122.220161951334617, 37.105741956630553 ], [ -122.220233728493994, 37.105742428694555 ] ] ] ] } },
{ "type": "Feature", "properties": { "id": null }, "geometry": { "type": "MultiPolygon", "coordinates": [ [ [ [ -122.220330861447394, 37.105836973055801 ], [ -122.220329918585449, 37.105928956019937 ], [ -122.220219860002672, 37.105928232256893 ], [ -122.220220802997673, 37.105836249295159 ], [ -122.220330861447394, 37.105836973055801 ] ] ] ] } },
{ "type": "Feature", "properties": { "id": null }, "geometry": { "type": "MultiPolygon", "coordinates": [ [ [ [ -122.220349023727223, 37.105699108734875 ], [ -122.220348395170845, 37.10576043071282 ], [ -122.220262262557029, 37.105759864313868 ], [ -122.220262891182841, 37.105698542337173 ], [ -122.220349023727223, 37.105699108734875 ] ] ] ] } },
{ "type": "Feature", "properties": { "id": null }, "geometry": { "type": "MultiPolygon", "coordinates": [ [ [ [ -122.220460983563981, 37.105747755900993 ], [ -122.220460119421062, 37.10583207362204 ], [ -122.220306994627663, 37.105831066789932 ], [ -122.220307858940288, 37.105746749071947 ], [ -122.220460983563981, 37.105747755900993 ] ] ] ] } },
{ "type": "Feature", "properties": { "id": null }, "geometry": { "type": "MultiPolygon", "coordinates": [ [ [ [ -122.220551056908107, 37.105830755023177 ], [ -122.22055011431263, 37.105922737992231 ], [ -122.220392204177969, 37.105921699811141 ], [ -122.220393146964355, 37.105829716845534 ], [ -122.220551056908107, 37.105830755023177 ] ] ] ] } },
{ "type": "Feature", "properties": { "id": null }, "geometry": { "type": "MultiPolygon", "coordinates": [ [ [ [ -122.2205981063602, 37.105675832588283 ], [ -122.220597281643819, 37.105756317689305 ], [ -122.220487223303792, 37.105755594177275 ], [ -122.220488048136602, 37.105675109078376 ], [ -122.2205981063602, 37.105675832588283 ] ] ] ] } },
{ "type": "Feature", "properties": { "id": null }, "geometry": { "type": "MultiPolygon", "coordinates": [ [ [ [ -122.220654470627352, 37.105545885089747 ], [ -122.220653528166665, 37.105637868065486 ], [ -122.220466907793607, 37.105636641272362 ], [ -122.220467850479906, 37.105544658300694 ], [ -122.220654470627352, 37.105545885089747 ] ] ] ] } },
{ "type": "Feature", "properties": { "id": null }, "geometry": { "type": "MultiPolygon", "coordinates": [ [ [ [ -122.220806691845354, 37.105635041821529 ], [ -122.220806102921074, 37.105692531182754 ], [ -122.220681689243833, 37.105691713512357 ], [ -122.220682278262132, 37.105634224152837 ], [ -122.220806691845354, 37.105635041821529 ] ] ] ] } },
{ "type": "Feature", "properties": { "id": null }, "geometry": { "type": "MultiPolygon", "coordinates": [ [ [ [ -122.220921162227171, 37.105672206406616 ], [ -122.22092049487668, 37.105737361017319 ], [ -122.220805651411325, 37.105736606359308 ], [ -122.220806318860156, 37.105671451750368 ], [ -122.220921162227171, 37.105672206406616 ] ] ] ] } },
{ "type": "Feature", "properties": { "id": null }, "geometry": { "type": "MultiPolygon", "coordinates": [ [ [ [ -122.220625442723275, 37.105810163148519 ], [ -122.220624932200352, 37.105859987257986 ], [ -122.220567510378601, 37.105859609798692 ], [ -122.220568020939126, 37.1058097856899 ], [ -122.220625442723275, 37.105810163148519 ] ] ] ] } },
{ "type": "Feature", "properties": { "id": null }, "geometry": { "type": "MultiPolygon", "coordinates": [ [ [ [ -122.220671019442378, 37.105798964078602 ], [ -122.22067054821828, 37.105844955564876 ], [ -122.220622696709015, 37.105844641035901 ], [ -122.22062316796206, 37.105798649550167 ], [ -122.220671019442378, 37.105798964078602 ] ] ] ] } },
{ "type": "Feature", "properties": { "id": null }, "geometry": { "type": "MultiPolygon", "coordinates": [ [ [ [ -122.220858346887724, 37.105731203321916 ], [ -122.220857836518846, 37.105781027434816 ], [ -122.220762133577225, 37.105780398509658 ], [ -122.220762644008801, 37.105730574397889 ], [ -122.220858346887724, 37.105731203321916 ] ] ] ] } },
{ "type": "Feature", "properties": { "id": null }, "geometry": { "type": "MultiPolygon", "coordinates": [ [ [ [ -122.220925260393287, 37.105739308771071 ], [ -122.220924710812241, 37.10579296550879 ], [ -122.220867289036974, 37.105792588195257 ], [ -122.220867838658521, 37.105738931458262 ], [ -122.220925260393287, 37.105739308771071 ] ] ] ] } },
{ "type": "Feature", "properties": { "id": null }, "geometry": { "type": "MultiPolygon", "coordinates": [ [ [ [ -122.221054459300362, 37.105740157623245 ], [ -122.22105394905978, 37.105789981738397 ], [ -122.220963031250236, 37.105789384411565 ], [ -122.220963541550375, 37.105739560297508 ], [ -122.221054459300362, 37.105740157623245 ] ] ] ] } },
{ "type": "Feature", "properties": { "id": null }, "geometry": { "type": "MultiPolygon", "coordinates": [ [ [ [ -122.221137258827966, 37.105598884911494 ], [ -122.221136591664305, 37.105664039526353 ], [ -122.22099782260419, 37.105663127888356 ], [ -122.22099848988664, 37.105597973275628 ], [ -122.221137258827966, 37.105598884911494 ] ] ] ] } },
{ "type": "Feature", "properties": { "id": null }, "geometry": { "type": "MultiPolygon", "coordinates": [ [ [ [ -122.221212349462419, 37.105743111230282 ], [ -122.22121164311821, 37.105812098469094 ], [ -122.221092014382748, 37.105811312656968 ], [ -122.221092720835415, 37.10574232542011 ], [ -122.221212349462419, 37.105743111230282 ] ] ] ] } },
{ "type": "Feature", "properties": { "id": null }, "geometry": { "type": "MultiPolygon", "coordinates": [ [ [ [ -122.221354354781141, 37.105661636903122 ], [ -122.221353530865343, 37.105742122018817 ], [ -122.221214761655588, 37.105741210633063 ], [ -122.22121558571817, 37.105660725520018 ], [ -122.221354354781141, 37.105661636903122 ] ] ] ] } },
{ "type": "Feature", "properties": { "id": null }, "geometry": { "type": "MultiPolygon", "coordinates": [ [ [ [ -122.221381555785868, 37.105575575679026 ], [ -122.221380849599399, 37.105644562922571 ], [ -122.221242080566711, 37.105643651570823 ], [ -122.221242786879003, 37.105574664329552 ], [ -122.221381555785868, 37.105575575679026 ] ] ] ] } },
{ "type": "Feature", "properties": { "id": null }, "geometry": { "type": "MultiPolygon", "coordinates": [ [ [ [ -122.221211819704493, 37.105794851659461 ], [ -122.221210877909272, 37.105886834643528 ], [ -122.221081678748234, 37.105885985958942 ], [ -122.221082620699661, 37.105794002977674 ], [ -122.221211819704493, 37.105794851659461 ] ] ] ] } },
{ "type": "Feature", "properties": { "id": null }, "geometry": { "type": "MultiPolygon", "coordinates": [ [ [ [ -122.221080208501547, 37.105795903572151 ], [ -122.221079345043506, 37.105880221304943 ], [ -122.220959716204661, 37.105879435358126 ], [ -122.220960579795275, 37.105795117627714 ], [ -122.221080208501547, 37.105795903572151 ] ] ] ] } },
{ "type": "Feature", "properties": { "id": null }, "geometry": { "type": "MultiPolygon", "coordinates": [ [ [ [ -122.220471021768162, 37.10593563311059 ], [ -122.220470314746706, 37.106004620334964 ], [ -122.220374611532606, 37.106003991093822 ], [ -122.220375318640876, 37.105935003871004 ], [ -122.220471021768162, 37.10593563311059 ] ] ] ] } },
{ "type": "Feature", "properties": { "id": null }, "geometry": { "type": "MultiPolygon", "coordinates": [ [ [ [ -122.220610007303449, 37.105915465940271 ], [ -122.220609182592511, 37.105995951038231 ], [ -122.220503909065684, 37.105995258992152 ], [ -122.220504733888021, 37.105914773896188 ], [ -122.220610007303449, 37.105915465940271 ] ] ] ] } },
{ "type": "Feature", "properties": { "id": null }, "geometry": { "type": "MultiPolygon", "coordinates": [ [ [ [ -122.220910296483453, 37.105798620119153 ], [ -122.220909589863894, 37.105867607352351 ], [ -122.220799531354672, 37.105866884128368 ], [ -122.220800238074048, 37.105797896896959 ], [ -122.220910296483453, 37.105798620119153 ] ] ] ] } },
{ "type": "Feature", "properties": { "id": null }, "geometry": { "type": "MultiPolygon", "coordinates": [ [ [ [ -122.220821241216129, 37.105849778828883 ], [ -122.220820455991941, 37.105926431307878 ], [ -122.220696041931731, 37.105925613648168 ], [ -122.220696827281287, 37.105848961171439 ], [ -122.220821241216129, 37.105849778828883 ] ] ] ] } },
{ "type": "Feature", "properties": { "id": null }, "geometry": { "type": "MultiPolygon", "coordinates": [ [ [ [ -122.220721967627554, 37.105964112863759 ], [ -122.220721457165041, 37.106013936973085 ], [ -122.22062575393349, 37.106013307934496 ], [ -122.220626264458701, 37.105963483826308 ], [ -122.220721967627554, 37.105964112863759 ] ] ] ] } },
{ "type": "Feature", "properties": { "id": null }, "geometry": { "type": "MultiPolygon", "coordinates": [ [ [ [ -122.221022704730942, 37.106270803152675 ], [ -122.221021527180085, 37.10638578186812 ], [ -122.220911467918214, 37.106385058739441 ], [ -122.220912645635394, 37.106270080027002 ], [ -122.221022704730942, 37.106270803152675 ] ] ] ] } },
{ "type": "Feature", "properties": { "id": null }, "geometry": { "type": "MultiPolygon", "coordinates": [ [ [ [ -122.220949182182238, 37.106207077546721 ], [ -122.220948554098129, 37.106268399528147 ], [ -122.22089591714149, 37.106268053665275 ], [ -122.220896545268019, 37.106206731684622 ], [ -122.220949182182238, 37.106207077546721 ] ] ] ] } },
{ "type": "Feature", "properties": { "id": null }, "geometry": { "type": "MultiPolygon", "coordinates": [ [ [ [ -122.22083402391884, 37.106236983898341 ], [ -122.220832806822941, 37.106355795232929 ], [ -122.220713177243198, 37.106355009028817 ], [ -122.220714394525899, 37.106236197697591 ], [ -122.22083402391884, 37.106236983898341 ] ] ] ] } },
{ "type": "Feature", "properties": { "id": null }, "geometry": { "type": "MultiPolygon", "coordinates": [ [ [ [ -122.220769507615927, 37.105761282561836 ], [ -122.220768997188273, 37.105811106673428 ], [ -122.220678079359658, 37.105810509127828 ], [ -122.220678589846827, 37.105760685017309 ], [ -122.220769507615927, 37.105761282561836 ] ] ] ] } },
{ "type": "Feature", "properties": { "id": null }, "geometry": { "type": "MultiPolygon", "coordinates": [ [ [ [ -122.220686704451182, 37.106136360776972 ], [ -122.220685840546295, 37.106220678497031 ], [ -122.220570996357651, 37.10621992360339 ], [ -122.220571860389811, 37.106135605885633 ], [ -122.220686704451182, 37.106136360776972 ] ] ] ] } },
{ "type": "Feature", "properties": { "id": null }, "geometry": { "type": "MultiPolygon", "coordinates": [ [ [ [ -122.220733437063174, 37.10624590505693 ], [ -122.220732651739212, 37.106322557529175 ], [ -122.220589096310221, 37.10632161394922 ], [ -122.220589881778807, 37.106244961479575 ], [ -122.220733437063174, 37.10624590505693 ] ] ] ] } },
{ "type": "Feature", "properties": { "id": null }, "geometry": { "type": "MultiPolygon", "coordinates": [ [ [ [ -122.220656069207848, 37.106323970619925 ], [ -122.220655401614536, 37.106389125219337 ], [ -122.220554912727451, 37.106388464665145 ], [ -122.22055558040681, 37.106323310067275 ], [ -122.220656069207848, 37.106323970619925 ] ] ] ] } },
{ "type": "Feature", "properties": { "id": null }, "geometry": { "type": "MultiPolygon", "coordinates": [ [ [ [ -122.220291377972515, 37.10618742209811 ], [ -122.220290395762348, 37.106283237679136 ], [ -122.220194692201829, 37.106282608288758 ], [ -122.220195674532505, 37.106186792709906 ], [ -122.220291377972515, 37.10618742209811 ] ] ] ] } },
{ "type": "Feature", "properties": { "id": null }, "geometry": { "type": "MultiPolygon", "coordinates": [ [ [ [ -122.220447171032035, 37.106161616325259 ], [ -122.220446228299636, 37.10625359928688 ], [ -122.220336169244092, 37.106252875626417 ], [ -122.220337112109533, 37.106160892667191 ], [ -122.220447171032035, 37.106161616325259 ] ] ] ] } },
{ "type": "Feature", "properties": { "id": null }, "geometry": { "type": "MultiPolygon", "coordinates": [ [ [ [ -122.220496178066611, 37.106282674295215 ], [ -122.22049527466767, 37.106370824632684 ], [ -122.220380430257549, 37.106370069551879 ], [ -122.220381333789575, 37.106281919216805 ], [ -122.220496178066611, 37.106282674295215 ] ] ] ] } },
{ "type": "Feature", "properties": { "id": null }, "geometry": { "type": "MultiPolygon", "coordinates": [ [ [ [ -122.220394275124249, 37.106419988045083 ], [ -122.220392939482323, 37.106550297232971 ], [ -122.220263739219533, 37.106549447644248 ], [ -122.22026507508275, 37.106419138460353 ], [ -122.220394275124249, 37.106419988045083 ] ] ] ] } },
{ "type": "Feature", "properties": { "id": null }, "geometry": { "type": "MultiPolygon", "coordinates": [ [ [ [ -122.220748104109873, 37.10644914417972 ], [ -122.220746808338603, 37.106575620754491 ], [ -122.220584111644442, 37.106574551363977 ], [ -122.220585407686144, 37.106448074794073 ], [ -122.220748104109873, 37.10644914417972 ] ] ] ] } },
{ "type": "Feature", "properties": { "id": null }, "geometry": { "type": "MultiPolygon", "coordinates": [ [ [ [ -122.220520041732613, 37.106522386277277 ], [ -122.220519138353481, 37.10661053661169 ], [ -122.22039950838203, 37.106609750086527 ], [ -122.220400411899774, 37.106521599754615 ], [ -122.220520041732613, 37.106522386277277 ] ] ] ] } },
{ "type": "Feature", "properties": { "id": null }, "geometry": { "type": "MultiPolygon", "coordinates": [ [ [ [ -122.220562188692341, 37.106378930291939 ], [ -122.220561206816512, 37.106474745876035 ], [ -122.220422436296403, 37.106473833547717 ], [ -122.220423418347011, 37.106378017966769 ], [ -122.220562188692341, 37.106378930291939 ] ] ] ] } },
{ "type": "Feature", "properties": { "id": null }, "geometry": { "type": "MultiPolygon", "coordinates": [ [ [ [ -122.221116171217972, 37.106489891436929 ], [ -122.221114993799048, 37.106604870150676 ], [ -122.220961867426098, 37.106603864146443 ], [ -122.220963045076445, 37.106488885436875 ], [ -122.221116171217972, 37.106489891436929 ] ] ] ] } },
{ "type": "Feature", "properties": { "id": null }, "geometry": { "type": "MultiPolygon", "coordinates": [ [ [ [ -122.220976242650437, 37.106602042155934 ], [ -122.220975496815583, 37.106674862004418 ], [ -122.220879792746715, 37.10667423316135 ], [ -122.220880538673171, 37.106601413314507 ], [ -122.220976242650437, 37.106602042155934 ] ] ] ] } },
{ "type": "Feature", "properties": { "id": null }, "geometry": { "type": "MultiPolygon", "coordinates": [ [ [ [ -122.220796640641694, 37.106616193508764 ], [ -122.220795776843673, 37.106700511224176 ], [ -122.220652220699208, 37.106699567712482 ], [ -122.220653084656334, 37.10661524999994 ], [ -122.220796640641694, 37.106616193508764 ] ] ] ] } },
{ "type": "Feature", "properties": { "id": null }, "geometry": { "type": "MultiPolygon", "coordinates": [ [ [ [ -122.220487327537128, 37.106679319343563 ], [ -122.220486659790694, 37.106744473936445 ], [ -122.220410096474183, 37.106743970551733 ], [ -122.220410764286214, 37.106678815960031 ], [ -122.220487327537128, 37.106679319343563 ] ] ] ] } },
{ "type": "Feature", "properties": { "id": null }, "geometry": { "type": "MultiPolygon", "coordinates": [ [ [ [ -122.22040829311841, 37.10668646547461 ], [ -122.220407507454283, 37.106763117935223 ], [ -122.220326158912158, 37.10676258303279 ], [ -122.22032694465824, 37.106685930573654 ], [ -122.22040829311841, 37.10668646547461 ] ] ] ] } },
{ "type": "Feature", "properties": { "id": null }, "geometry": { "type": "MultiPolygon", "coordinates": [ [ [ [ -122.220221870880948, 37.106432269414853 ], [ -122.220220613527886, 37.106554913351189 ], [ -122.220096198457497, 37.106554095050321 ], [ -122.220097456011089, 37.106431451117608 ], [ -122.220221870880948, 37.106432269414853 ] ] ] ] } },
{ "type": "Feature", "properties": { "id": null }, "geometry": { "type": "MultiPolygon", "coordinates": [ [ [ [ -122.221009646302804, 37.105910426463439 ], [ -122.221008939770499, 37.105979413696964 ], [ -122.220894095937254, 37.105978659120424 ], [ -122.220894802573739, 37.105909671888767 ], [ -122.221009646302804, 37.105910426463439 ] ] ] ] } },
{ "type": "Feature", "properties": { "id": null }, "geometry": { "type": "MultiPolygon", "coordinates": [ [ [ [ -122.221080422806352, 37.106008629931694 ], [ -122.221079598590364, 37.106089115037413 ], [ -122.220955184256397, 37.106088297646565 ], [ -122.220956008604006, 37.106007812543211 ], [ -122.221080422806352, 37.106008629931694 ] ] ] ] } },
{ "type": "Feature", "properties": { "id": null }, "geometry": { "type": "MultiPolygon", "coordinates": [ [ [ [ -122.297989568681103, 37.175005246921728 ], [ -122.297988365011733, 37.175135337332385 ], [ -122.297777977642085, 37.175134090675947 ], [ -122.297779181672112, 37.17500400027113 ], [ -122.297989568681103, 37.175005246921728 ] ] ] ] } }
]
}
