{
"type": "FeatureCollection",
"name": "lupem7_mortalitree_postfire_labels",
"crs": { "type": "name", "properties": { "name": "urn:ogc:def:crs:OGC:1.3:CRS84" } },
"features": [
{ "type": "Feature", "properties": { "id": null }, "geometry": { "type": "MultiPolygon", "coordinates": [ [ [ [ -118.616019812014628, 36.24800425671318 ], [ -118.61591305699757, 36.248015962437591 ], [ -118.615908231213098, 36.247929844306441 ], [ -118.616023520915675, 36.247937983991754 ], [ -118.616019812014628, 36.24800425671318 ] ] ] ] } },
{ "type": "Feature", "properties": { "id": null }, "geometry": { "type": "MultiPolygon", "coordinates": [ [ [ [ -118.616268727924748, 36.248468492556512 ], [ -118.616253525765302, 36.248481606811147 ], [ -118.61619806214641, 36.248438553105814 ], [ -118.616215555032923, 36.248384505699157 ], [ -118.616270902895749, 36.248386537877415 ], [ -118.616268727924748, 36.248468492556512 ] ] ] ] } },
{ "type": "Feature", "properties": { "id": null }, "geometry": { "type": "MultiPolygon", "coordinates": [ [ [ [ -118.615865230119041, 36.247836464796308 ], [ -118.615771816471096, 36.247825221852004 ], [ -118.615780556554398, 36.247755227483644 ], [ -118.61588370484435, 36.247764874664618 ], [ -118.615865230119041, 36.247836464796308 ] ] ] ] } },
{ "type": "Feature", "properties": { "id": null }, "geometry": { "type": "MultiPolygon", "coordinates": [ [ [ [ -118.615971883663832, 36.248602130187571 ], [ -118.615946728421292, 36.248620738543153 ], [ -118.615914347417814, 36.248596111103588 ], [ -118.61591095272631, 36.248570594814638 ], [ -118.615935562510259, 36.248561732452352 ], [ -118.615968925309474, 36.248568817109572 ], [ -118.615971883663832, 36.248602130187571 ] ] ] ] } },
{ "type": "Feature", "properties": { "id": null }, "geometry": { "type": "MultiPolygon", "coordinates": [ [ [ [ -118.616583200201688, 36.248450740344872 ], [ -118.616518553768401, 36.248442507311204 ], [ -118.616472170356886, 36.24840955311894 ], [ -118.61647467909944, 36.248364721548022 ], [ -118.616500379513809, 36.248336367072156 ], [ -118.616555727363846, 36.248338399116328 ], [ -118.616608559718586, 36.248342291985956 ], [ -118.616631751432408, 36.248358769058221 ], [ -118.616629679067898, 36.248395803842072 ], [ -118.616627061338846, 36.248442584621195 ], [ -118.616583200201688, 36.248450740344872 ] ] ] ] } },
{ "type": "Feature", "properties": { "id": null }, "geometry": { "type": "MultiPolygon", "coordinates": [ [ [ [ -118.616508130596159, 36.24824094467872 ], [ -118.61648461171869, 36.248230315182788 ], [ -118.616472579594628, 36.248229873430198 ], [ -118.616459122725288, 36.248211800536758 ], [ -118.616458243356803, 36.248184423403259 ], [ -118.61646163145717, 36.248166968965137 ], [ -118.616473002346254, 36.248136135186712 ], [ -118.616509098676161, 36.24813746043781 ], [ -118.616557227119699, 36.248139227422357 ], [ -118.616574733341423, 36.24817112139602 ], [ -118.616555815993351, 36.248207537736974 ], [ -118.616508130596159, 36.24824094467872 ] ] ] ] } },
{ "type": "Feature", "properties": { "id": null }, "geometry": { "type": "MultiPolygon", "coordinates": [ [ [ [ -118.616354515631258, 36.247485600515745 ], [ -118.616294677980164, 36.24748340355081 ], [ -118.616295491670471, 36.247468862901734 ], [ -118.616297661508469, 36.247430087837294 ], [ -118.616299288884235, 36.247401006538716 ], [ -118.61630010257123, 36.247386465889356 ], [ -118.616365923906997, 36.247388882540619 ], [ -118.616394215359207, 36.247419062308943 ], [ -118.616354515631258, 36.247485600515745 ] ] ] ] } },
{ "type": "Feature", "properties": { "id": null }, "geometry": { "type": "MultiPolygon", "coordinates": [ [ [ [ -118.61617614639917, 36.247987126494316 ], [ -118.616136703469493, 36.247957952223665 ], [ -118.616125362352975, 36.247915946744797 ], [ -118.616127375329143, 36.247879976799915 ], [ -118.616158428503581, 36.247875571774181 ], [ -118.616199419821044, 36.247877076844539 ], [ -118.616195229668818, 36.247890786018061 ], [ -118.616166508532729, 36.247914684908963 ], [ -118.616217747706145, 36.24791656624302 ], [ -118.616215734768701, 36.247952536192052 ], [ -118.61617614639917, 36.247987126494316 ] ] ] ] } },
{ "type": "Feature", "properties": { "id": null }, "geometry": { "type": "MultiPolygon", "coordinates": [ [ [ [ -118.616071444131066, 36.24765611480651 ], [ -118.61602284683741, 36.247668193440539 ], [ -118.615961824586947, 36.247657634995115 ], [ -118.615978275583203, 36.247608332175375 ], [ -118.61598557198721, 36.247600282274782 ], [ -118.61598758500422, 36.247564312334731 ], [ -118.616005903420941, 36.247542804120485 ], [ -118.616040062700151, 36.247544058380477 ], [ -118.616111797193327, 36.247546692294783 ], [ -118.616109474548253, 36.247588196078766 ], [ -118.616107926115561, 36.247615865267846 ], [ -118.616105603462586, 36.247657369051133 ], [ -118.616071444131066, 36.24765611480651 ] ] ] ] } },
{ "type": "Feature", "properties": { "id": null }, "geometry": { "type": "MultiPolygon", "coordinates": [ [ [ [ -118.616538411183384, 36.248119649178136 ], [ -118.616505025791795, 36.248104560442677 ], [ -118.616476604697596, 36.248061927912964 ], [ -118.616478617523512, 36.248025957951995 ], [ -118.616557184402296, 36.248028842457884 ], [ -118.616589950459357, 36.248054998859288 ], [ -118.61658561524284, 36.248132472632172 ], [ -118.61656511950639, 36.248131720160352 ], [ -118.616538411183384, 36.248119649178136 ] ] ] ] } },
{ "type": "Feature", "properties": { "id": null }, "geometry": { "type": "MultiPolygon", "coordinates": [ [ [ [ -118.616242891347625, 36.246855581893747 ], [ -118.616235575960587, 36.246741636512937 ], [ -118.616284017807473, 36.246732324669267 ], [ -118.616281695322584, 36.246773828468491 ], [ -118.616279837331263, 36.246807031507579 ], [ -118.616277050338596, 36.246856836065675 ], [ -118.616242891347625, 36.246855581893747 ] ] ] ] } },
{ "type": "Feature", "properties": { "id": null }, "geometry": { "type": "MultiPolygon", "coordinates": [ [ [ [ -118.616323624669789, 36.246819729593874 ], [ -118.616302800422801, 36.246702515628385 ], [ -118.616364286493095, 36.246704773091899 ], [ -118.616361189905263, 36.246760111496968 ], [ -118.61635778364888, 36.246820983741699 ], [ -118.616323624669789, 36.246819729593874 ] ] ] ] } },
{ "type": "Feature", "properties": { "id": null }, "geometry": { "type": "MultiPolygon", "coordinates": [ [ [ [ -118.616002750616843, 36.247232156678621 ], [ -118.615948095991087, 36.247230149855746 ], [ -118.615950728384064, 36.247183112241245 ], [ -118.615994042001532, 36.247143113577941 ], [ -118.616093103411004, 36.247146750880546 ], [ -118.616091400156051, 36.247177186990093 ], [ -118.616088148480429, 36.247235292289574 ], [ -118.616002750616843, 36.247232156678621 ] ] ] ] } },
{ "type": "Feature", "properties": { "id": null }, "geometry": { "type": "MultiPolygon", "coordinates": [ [ [ [ -118.615680083338077, 36.247497089972867 ], [ -118.615672538442141, 36.247422915339698 ], [ -118.615683028003332, 36.247319085991172 ], [ -118.615769614405551, 36.247318475858265 ], [ -118.61576739202286, 36.247358185257653 ], [ -118.615750104621327, 36.247416289564455 ], [ -118.615728994909134, 36.24745909503303 ], [ -118.615711595416101, 36.247477404212162 ], [ -118.615697588672873, 36.247476889875614 ], [ -118.615680083338077, 36.247497089972867 ] ] ] ] } },
{ "type": "Feature", "properties": { "id": null }, "geometry": { "type": "MultiPolygon", "coordinates": [ [ [ [ -118.615706422140335, 36.247653431548663 ], [ -118.615686358273166, 36.247593955687819 ], [ -118.615709796310512, 36.247509549913111 ], [ -118.615732817189908, 36.247474393866618 ], [ -118.615794148046632, 36.247465277085695 ], [ -118.615792137320071, 36.247501204637835 ], [ -118.615746630935561, 36.24760374817415 ], [ -118.615706422140335, 36.247653431548663 ] ] ] ] } },
{ "type": "Feature", "properties": { "id": null }, "geometry": { "type": "MultiPolygon", "coordinates": [ [ [ [ -118.615356346704431, 36.247555309597352 ], [ -118.615308381475799, 36.247534600037952 ], [ -118.615410985743608, 36.247498577032971 ], [ -118.615407916467035, 36.247553413794449 ], [ -118.615356346704431, 36.247555309597352 ] ] ] ] } },
{ "type": "Feature", "properties": { "id": null }, "geometry": { "type": "MultiPolygon", "coordinates": [ [ [ [ -118.615128963002974, 36.246895144631353 ], [ -118.615019550213873, 36.2468020703338 ], [ -118.615098174200568, 36.24677653572234 ], [ -118.615170435833804, 36.246781084351269 ], [ -118.615172888016431, 36.246862651211195 ], [ -118.615128963002974, 36.246895144631353 ] ] ] ] } },
{ "type": "Feature", "properties": { "id": null }, "geometry": { "type": "MultiPolygon", "coordinates": [ [ [ [ -118.615687105644739, 36.24691185162964 ], [ -118.615632454860872, 36.24688521228326 ], [ -118.615700253201837, 36.246844121262207 ], [ -118.615697501684039, 36.246893285279747 ], [ -118.615687105644739, 36.24691185162964 ] ] ] ] } },
{ "type": "Feature", "properties": { "id": null }, "geometry": { "type": "MultiPolygon", "coordinates": [ [ [ [ -118.615562010670686, 36.246973576345262 ], [ -118.615512975137065, 36.246888404046103 ], [ -118.615564756123177, 36.246882726298189 ], [ -118.615596591630151, 36.246899053821565 ], [ -118.615594263363604, 36.246940654137958 ], [ -118.615581321190248, 36.246962916599429 ], [ -118.615562010670686, 36.246973576345262 ] ] ] ] } },
{ "type": "Feature", "properties": { "id": null }, "geometry": { "type": "MultiPolygon", "coordinates": [ [ [ [ -118.615455878061198, 36.246821883786289 ], [ -118.61543984840614, 36.246773924896736 ], [ -118.615468496629077, 36.246763608072271 ], [ -118.615507864534194, 36.246770738176224 ], [ -118.615502566801922, 36.246823598302875 ], [ -118.615455878061198, 36.246821883786289 ] ] ] ] } },
{ "type": "Feature", "properties": { "id": null }, "geometry": { "type": "MultiPolygon", "coordinates": [ [ [ [ -118.615984212973018, 36.246721224540131 ], [ -118.615927208374174, 36.246644663869077 ], [ -118.615973254214467, 36.24664325177605 ], [ -118.616046232329097, 36.246639725736813 ], [ -118.616042420138086, 36.246707847699277 ], [ -118.615984212973018, 36.246721224540131 ] ] ] ] } },
{ "type": "Feature", "properties": { "id": null }, "geometry": { "type": "MultiPolygon", "coordinates": [ [ [ [ -118.61488957423235, 36.248278975626398 ], [ -118.614838828639321, 36.248227466825881 ], [ -118.614848727606471, 36.24818749382181 ], [ -118.614850634324682, 36.248153432903699 ], [ -118.614892684915333, 36.248154977334103 ], [ -118.614942381072055, 36.248156802551065 ], [ -118.614945337182576, 36.248172425189047 ], [ -118.614942390496367, 36.248225064796145 ], [ -118.61488957423235, 36.248278975626398 ] ] ] ] } },
{ "type": "Feature", "properties": { "id": null }, "geometry": { "type": "MultiPolygon", "coordinates": [ [ [ [ -118.614808574423094, 36.248083626220861 ], [ -118.614602828738484, 36.247995396187228 ], [ -118.61478874856769, 36.247958785509631 ], [ -118.614870413451669, 36.247936962404488 ], [ -118.614858078459449, 36.247952023433967 ], [ -118.614837577907252, 36.247976092997071 ], [ -118.614851308964901, 36.248004522633991 ], [ -118.614849402257363, 36.248038583552983 ], [ -118.614808574423094, 36.248083626220861 ] ] ] ] } },
{ "type": "Feature", "properties": { "id": null }, "geometry": { "type": "MultiPolygon", "coordinates": [ [ [ [ -118.614465419575964, 36.246960215089707 ], [ -118.614430659304901, 36.246896882045903 ], [ -118.614558889092265, 36.246864358239563 ], [ -118.614556115629426, 36.246913901384367 ], [ -118.61451024300402, 36.246912216470825 ], [ -118.614465419575964, 36.246960215089707 ] ] ] ] } },
{ "type": "Feature", "properties": { "id": null }, "geometry": { "type": "MultiPolygon", "coordinates": [ [ [ [ -118.614275323690066, 36.246934615676338 ], [ -118.614266629184044, 36.246884651297307 ], [ -118.614346906226515, 36.246887600046058 ], [ -118.614344132627508, 36.246937143176538 ], [ -118.614275323690066, 36.246934615676338 ] ] ] ] } },
{ "type": "Feature", "properties": { "id": null }, "geometry": { "type": "MultiPolygon", "coordinates": [ [ [ [ -118.614546545033349, 36.246811157013788 ], [ -118.61449910321592, 36.246769077887855 ], [ -118.614577984210129, 36.246728535811158 ], [ -118.614578686805729, 36.246784412259331 ], [ -118.614546545033349, 36.246811157013788 ] ] ] ] } },
{ "type": "Feature", "properties": { "id": null }, "geometry": { "type": "MultiPolygon", "coordinates": [ [ [ [ -118.615976772178541, 36.246922634315368 ], [ -118.615984060609918, 36.246860845629307 ], [ -118.615997098805806, 36.246901660963054 ], [ -118.615976772178541, 36.246922634315368 ] ] ] ] } },
{ "type": "Feature", "properties": { "id": null }, "geometry": { "type": "MultiPolygon", "coordinates": [ [ [ [ -118.616416786506065, 36.247273894096629 ], [ -118.616339801040326, 36.247212114088406 ], [ -118.616451169559753, 36.247138632560457 ], [ -118.616483668279201, 36.247173956694432 ], [ -118.616442841831457, 36.247219000021808 ], [ -118.616416786506065, 36.247273894096629 ] ] ] ] } },
{ "type": "Feature", "properties": { "id": null }, "geometry": { "type": "MultiPolygon", "coordinates": [ [ [ [ -118.615950799776343, 36.247523626775681 ], [ -118.615913785262947, 36.247500547944682 ], [ -118.615943490483787, 36.247448890828785 ], [ -118.616008477273567, 36.247451277036134 ], [ -118.616009180845111, 36.247507153541257 ], [ -118.615950799776343, 36.247523626775681 ] ] ] ] } },
{ "type": "Feature", "properties": { "id": null }, "geometry": { "type": "MultiPolygon", "coordinates": [ [ [ [ -118.616015602916264, 36.247460847121054 ], [ -118.615995439009794, 36.247410461699623 ], [ -118.616056603021335, 36.247412707514215 ], [ -118.616053830448266, 36.247462250754054 ], [ -118.616015602916264, 36.247460847121054 ] ] ] ] } },
{ "type": "Feature", "properties": { "id": null }, "geometry": { "type": "MultiPolygon", "coordinates": [ [ [ [ -118.616102292240413, 36.247349225986852 ], [ -118.61605728569107, 36.247332059386146 ], [ -118.616047366546198, 36.247235507908279 ], [ -118.616193150608311, 36.247231552222487 ], [ -118.616187778944422, 36.247327542269602 ], [ -118.616102292240413, 36.247349225986852 ] ] ] ] } },
{ "type": "Feature", "properties": { "id": null }, "geometry": { "type": "MultiPolygon", "coordinates": [ [ [ [ -118.614602734834946, 36.248621928333399 ], [ -118.614533499985896, 36.2484750863984 ], [ -118.614619227305838, 36.248465687477434 ], [ -118.61473517226176, 36.248469946097785 ], [ -118.61472886322332, 36.248582643949945 ], [ -118.614602734834946, 36.248621928333399 ] ] ] ] } },
{ "type": "Feature", "properties": { "id": null }, "geometry": { "type": "MultiPolygon", "coordinates": [ [ [ [ -118.614255196553884, 36.248188813711032 ], [ -118.614223208615712, 36.248068435267648 ], [ -118.614324394738304, 36.248059604398726 ], [ -118.614455798291644, 36.248064431104176 ], [ -118.614448437384468, 36.248195911890996 ], [ -118.614255196553884, 36.248188813711032 ] ] ] ] } },
{ "type": "Feature", "properties": { "id": null }, "geometry": { "type": "MultiPolygon", "coordinates": [ [ [ [ -118.614642931254593, 36.247073759969275 ], [ -118.614458123670218, 36.247054424222796 ], [ -118.614530493368406, 36.247006891483728 ], [ -118.614723731360485, 36.247013989020694 ], [ -118.614642931254593, 36.247073759969275 ] ] ] ] } },
{ "type": "Feature", "properties": { "id": null }, "geometry": { "type": "MultiPolygon", "coordinates": [ [ [ [ -118.614849156077639, 36.246987226309379 ], [ -118.614873727348836, 36.246825008221855 ], [ -118.61497421090975, 36.246828698675706 ], [ -118.614960523540134, 36.246934851720312 ], [ -118.614934180800887, 36.246990349036011 ], [ -118.614849156077639, 36.246987226309379 ] ] ] ] } },
{ "type": "Feature", "properties": { "id": null }, "geometry": { "type": "MultiPolygon", "coordinates": [ [ [ [ -118.614852272024649, 36.246654825825757 ], [ -118.61477567810924, 36.246639464967195 ], [ -118.614750017313241, 36.246544414496562 ], [ -118.614889147881939, 36.246549524443353 ], [ -118.615003337772507, 36.2465850875898 ], [ -118.614852272024649, 36.246654825825757 ] ] ] ] } },
{ "type": "Feature", "properties": { "id": null }, "geometry": { "type": "MultiPolygon", "coordinates": [ [ [ [ -118.781192278339802, 36.332325844006903 ], [ -118.781132003809759, 36.332289468462875 ], [ -118.781168420368644, 36.332260540848793 ], [ -118.781230541039108, 36.332262737551005 ], [ -118.781229346476593, 36.33228485326012 ], [ -118.781192278339802, 36.332325844006903 ] ] ] ] } },
{ "type": "Feature", "properties": { "id": null }, "geometry": { "type": "MultiPolygon", "coordinates": [ [ [ [ -118.780847456509846, 36.332210917636026 ], [ -118.780818194789447, 36.332153480749604 ], [ -118.780854285569646, 36.332130584788672 ], [ -118.780898252127272, 36.332146240157627 ], [ -118.780895211193993, 36.332202534666663 ], [ -118.780847456509846, 36.332210917636026 ] ] ] ] } },
{ "type": "Feature", "properties": { "id": null }, "geometry": { "type": "MultiPolygon", "coordinates": [ [ [ [ -118.780640116790252, 36.33227005876558 ], [ -118.78059139780315, 36.332250206504355 ], [ -118.780592388588204, 36.332185782067754 ], [ -118.780677632831143, 36.332174696353555 ], [ -118.78067252813085, 36.332269190680215 ], [ -118.780640116790252, 36.33227005876558 ] ] ] ] } },
{ "type": "Feature", "properties": { "id": null }, "geometry": { "type": "MultiPolygon", "coordinates": [ [ [ [ -118.781252067903296, 36.332092646492903 ], [ -118.781263827952216, 36.332000077249148 ], [ -118.781311069815601, 36.331959813314171 ], [ -118.781393706823337, 36.33193174036316 ], [ -118.781419111367626, 36.332003744920883 ], [ -118.781412832506547, 36.332078275627985 ], [ -118.781347401528976, 36.332121542901092 ], [ -118.781252067903296, 36.332092646492903 ] ] ] ] } },
{ "type": "Feature", "properties": { "id": null }, "geometry": { "type": "MultiPolygon", "coordinates": [ [ [ [ -118.781243962774994, 36.331700363896751 ], [ -118.781203479861162, 36.331698932362691 ], [ -118.781229017385186, 36.331643315055523 ], [ -118.781298737913502, 36.331645780448646 ], [ -118.781296477261591, 36.331687634966251 ], [ -118.781243962774994, 36.331700363896751 ] ] ] ] } },
{ "type": "Feature", "properties": { "id": null }, "geometry": { "type": "MultiPolygon", "coordinates": [ [ [ [ -118.780897660057605, 36.331854032250256 ], [ -118.780854644976984, 36.331816046309093 ], [ -118.780856905875822, 36.331774191816251 ], [ -118.780951366061089, 36.331777532320956 ], [ -118.780971988936372, 36.33181290312406 ], [ -118.780969629798378, 36.331856577383675 ], [ -118.780897660057605, 36.331854032250256 ] ] ] ] } },
{ "type": "Feature", "properties": { "id": null }, "geometry": { "type": "MultiPolygon", "coordinates": [ [ [ [ -118.780488089298331, 36.332344583924012 ], [ -118.780466680047468, 36.332323771120421 ], [ -118.78047128857169, 36.332280176437528 ], [ -118.780535823304135, 36.332295221539965 ], [ -118.7805331689529, 36.332344355050367 ], [ -118.780488089298331, 36.332344583924012 ] ] ] ] } },
{ "type": "Feature", "properties": { "id": null }, "geometry": { "type": "MultiPolygon", "coordinates": [ [ [ [ -118.781007061386717, 36.331580769069213 ], [ -118.780962878602665, 36.331522686268627 ], [ -118.78104963186918, 36.331460117607193 ], [ -118.781157869169704, 36.331500409876192 ], [ -118.781153839195753, 36.331575020091222 ], [ -118.781110419251959, 36.331586247327891 ], [ -118.781090091242021, 36.331545417264024 ], [ -118.781061726571238, 36.331569939533885 ], [ -118.781007061386717, 36.331580769069213 ] ] ] ] } },
{ "type": "Feature", "properties": { "id": null }, "geometry": { "type": "MultiPolygon", "coordinates": [ [ [ [ -118.780094834479826, 36.332199401675005 ], [ -118.780060041623557, 36.332134357737473 ], [ -118.780079803848125, 36.332102238499751 ], [ -118.78013837770331, 36.332102487077407 ], [ -118.780131913226327, 36.332138723150827 ], [ -118.780144903750312, 36.332190233252874 ], [ -118.780094834479826, 36.332199401675005 ] ] ] ] } },
{ "type": "Feature", "properties": { "id": null }, "geometry": { "type": "MultiPolygon", "coordinates": [ [ [ [ -118.780567775587926, 36.332037452003632 ], [ -118.780497390713251, 36.331963856447018 ], [ -118.780535722978826, 36.331963388926333 ], [ -118.780603194673304, 36.331965775200636 ], [ -118.780619319310532, 36.332000986973064 ], [ -118.780606009584915, 36.332038804222513 ], [ -118.780567775587926, 36.332037452003632 ] ] ] ] } },
{ "type": "Feature", "properties": { "id": null }, "geometry": { "type": "MultiPolygon", "coordinates": [ [ [ [ -118.780271243550075, 36.331853756696482 ], [ -118.78021677471915, 36.331860946330366 ], [ -118.780160867800944, 36.331769630307342 ], [ -118.780198437834969, 36.331699852947537 ], [ -118.780318227253204, 36.331693150427412 ], [ -118.780374724183687, 36.331773547829258 ], [ -118.780370496799947, 36.331851797484212 ], [ -118.780271243550075, 36.331853756696482 ] ] ] ] } },
{ "type": "Feature", "properties": { "id": null }, "geometry": { "type": "MultiPolygon", "coordinates": [ [ [ [ -118.780521797248767, 36.331762340378098 ], [ -118.780496283265407, 36.331734089463204 ], [ -118.780520346682295, 36.331705768738665 ], [ -118.780567663019852, 36.331747553390535 ], [ -118.780521797248767, 36.331762340378098 ] ] ] ] } },
{ "type": "Feature", "properties": { "id": null }, "geometry": { "type": "MultiPolygon", "coordinates": [ [ [ [ -118.781168088697228, 36.331815593015108 ], [ -118.781103319535831, 36.331785268792281 ], [ -118.781115491305243, 36.331720286918625 ], [ -118.781233643403297, 36.331724464996597 ], [ -118.7812429034812, 36.331766843209678 ], [ -118.781228605700264, 36.331817732998978 ], [ -118.781168088697228, 36.331815593015108 ] ] ] ] } },
{ "type": "Feature", "properties": { "id": null }, "geometry": { "type": "MultiPolygon", "coordinates": [ [ [ [ -118.781117659001467, 36.332481949583439 ], [ -118.781099123844555, 36.332450924136928 ], [ -118.781101768783699, 36.332401958449303 ], [ -118.781170679691186, 36.332409067614087 ], [ -118.781146476864706, 36.332482968655341 ], [ -118.781117659001467, 36.332481949583439 ] ] ] ] } },
{ "type": "Feature", "properties": { "id": null }, "geometry": { "type": "MultiPolygon", "coordinates": [ [ [ [ -118.780497738763074, 36.331450807918493 ], [ -118.780459661673333, 36.331407410470007 ], [ -118.780495391667785, 36.331333917259023 ], [ -118.780570694836442, 36.331329572055274 ], [ -118.780567923708006, 36.331380869416321 ], [ -118.780550869806319, 36.331429325486049 ], [ -118.780497738763074, 36.331450807918493 ] ] ] ] } },
{ "type": "Feature", "properties": { "id": null }, "geometry": { "type": "MultiPolygon", "coordinates": [ [ [ [ -118.780940031513666, 36.331440752176931 ], [ -118.780916614796126, 36.331393201005319 ], [ -118.780925904882395, 36.331328117244439 ], [ -118.781000956153818, 36.331328435165631 ], [ -118.780997792409465, 36.33144045865 ], [ -118.780940031513666, 36.331440752176931 ] ] ] ] } },
{ "type": "Feature", "properties": { "id": null }, "geometry": { "type": "MultiPolygon", "coordinates": [ [ [ [ -118.780705354232495, 36.331883330433726 ], [ -118.780680315388395, 36.331812360318885 ], [ -118.780743966025682, 36.331809939067398 ], [ -118.780739935385597, 36.33188455342124 ], [ -118.780705354232495, 36.331883330433726 ] ] ] ] } },
{ "type": "Feature", "properties": { "id": null }, "geometry": { "type": "MultiPolygon", "coordinates": [ [ [ [ -118.781050664614241, 36.331133535022907 ], [ -118.78102577478424, 36.331091644299256 ], [ -118.781024293328173, 36.33105204602311 ], [ -118.781078652741982, 36.331051038990438 ], [ -118.78106560152591, 36.331091588018012 ], [ -118.781050664614241, 36.331133535022907 ] ] ] ] } },
{ "type": "Feature", "properties": { "id": null }, "geometry": { "type": "MultiPolygon", "coordinates": [ [ [ [ -118.780916304093395, 36.33097352938006 ], [ -118.780879547563742, 36.330950259589244 ], [ -118.780864165228849, 36.330899917084004 ], [ -118.780997861963286, 36.33090464508134 ], [ -118.780993755923603, 36.33098066232931 ], [ -118.780916304093395, 36.33097352938006 ] ] ] ] } },
{ "type": "Feature", "properties": { "id": null }, "geometry": { "type": "MultiPolygon", "coordinates": [ [ [ [ -118.781277419482308, 36.330957005972607 ], [ -118.781270903238266, 36.330943593589559 ], [ -118.781273271950667, 36.330899737469167 ], [ -118.781339962437642, 36.330905024999268 ], [ -118.781337830629951, 36.330944495510998 ], [ -118.781277419482308, 36.330957005972607 ] ] ] ] } },
{ "type": "Feature", "properties": { "id": null }, "geometry": { "type": "MultiPolygon", "coordinates": [ [ [ [ -118.781331713879581, 36.331191807213813 ], [ -118.781302509119683, 36.331129258688797 ], [ -118.781363937559973, 36.331131430816853 ], [ -118.781373356668922, 36.331158127805011 ], [ -118.781371461726408, 36.331193212704385 ], [ -118.781331713879581, 36.331191807213813 ] ] ] ] } },
{ "type": "Feature", "properties": { "id": null }, "geometry": { "type": "MultiPolygon", "coordinates": [ [ [ [ -118.781122937281836, 36.331404124000287 ], [ -118.781122324358734, 36.331348445150049 ], [ -118.781125087994027, 36.331297279689501 ], [ -118.781175676217885, 36.331299068585317 ], [ -118.781172754695135, 36.331353157789948 ], [ -118.781122937281836, 36.331404124000287 ] ] ] ] } },
{ "type": "Feature", "properties": { "id": null }, "geometry": { "type": "MultiPolygon", "coordinates": [ [ [ [ -118.781393086794381, 36.33139610081556 ], [ -118.781316424068748, 36.331374349390529 ], [ -118.781335220506577, 36.331294457595419 ], [ -118.781381888739546, 36.331268279200167 ], [ -118.781398516233864, 36.331362605558219 ], [ -118.781393086794381, 36.33139610081556 ] ] ] ] } },
{ "type": "Feature", "properties": { "id": null }, "geometry": { "type": "MultiPolygon", "coordinates": [ [ [ [ -118.779999668993199, 36.331220860627482 ], [ -118.78001358957485, 36.331164231204333 ], [ -118.780061344177895, 36.33118496094793 ], [ -118.780043030222302, 36.33122239437359 ], [ -118.779999668993199, 36.331220860627482 ] ] ] ] } },
{ "type": "Feature", "properties": { "id": null }, "geometry": { "type": "MultiPolygon", "coordinates": [ [ [ [ -118.779887168951063, 36.330991323346673 ], [ -118.779892056000676, 36.330934374400023 ], [ -118.779922849069891, 36.33093399895732 ], [ -118.779964403424586, 36.330935468814431 ], [ -118.779962112957236, 36.330977862992249 ], [ -118.77992872333428, 36.330992793218172 ], [ -118.779887168951063, 36.330991323346673 ] ] ] ] } },
{ "type": "Feature", "properties": { "id": null }, "geometry": { "type": "MultiPolygon", "coordinates": [ [ [ [ -118.779994061025519, 36.330788586995006 ], [ -118.77997765254544, 36.330757248701467 ], [ -118.779979311140778, 36.330726549467535 ], [ -118.780033512333816, 36.330728466634625 ], [ -118.780019670855864, 36.330783634200827 ], [ -118.779994061025519, 36.330788586995006 ] ] ] ] } },
{ "type": "Feature", "properties": { "id": null }, "geometry": { "type": "MultiPolygon", "coordinates": [ [ [ [ -118.779981325354598, 36.331091321535226 ], [ -118.779954461580118, 36.331085977330268 ], [ -118.779980713227459, 36.33103564273042 ], [ -118.78000663906522, 36.33102484247155 ], [ -118.780044570211274, 36.331059871368964 ], [ -118.780024923453496, 36.33108846967847 ], [ -118.779981325354598, 36.331091321535226 ] ] ] ] } },
{ "type": "Feature", "properties": { "id": null }, "geometry": { "type": "MultiPolygon", "coordinates": [ [ [ [ -118.779439914584543, 36.330893480989914 ], [ -118.7794164475646, 36.330825276380438 ], [ -118.779518334089303, 36.330815698750797 ], [ -118.779513051835309, 36.330879957002438 ], [ -118.779439914584543, 36.330893480989914 ] ] ] ] } },
{ "type": "Feature", "properties": { "id": null }, "geometry": { "type": "MultiPolygon", "coordinates": [ [ [ [ -118.780263131784608, 36.330699971748345 ], [ -118.780246012428023, 36.330681790304936 ], [ -118.780215308172259, 36.330647017085525 ], [ -118.78026543178737, 36.330623890667049 ], [ -118.780323404286889, 36.330623011763123 ], [ -118.780319771479526, 36.330690257734851 ], [ -118.780263131784608, 36.330699971748345 ] ] ] ] } },
{ "type": "Feature", "properties": { "id": null }, "geometry": { "type": "MultiPolygon", "coordinates": [ [ [ [ -118.780014764239141, 36.330907956914402 ], [ -118.779981463493058, 36.330887738413686 ], [ -118.780008573987544, 36.330855010126626 ], [ -118.780064443655434, 36.330792541170815 ], [ -118.78005875713329, 36.330897795696579 ], [ -118.780014764239141, 36.330907956914402 ] ] ] ] } },
{ "type": "Feature", "properties": { "id": null }, "geometry": { "type": "MultiPolygon", "coordinates": [ [ [ [ -118.780353686073028, 36.331034188186734 ], [ -118.780336023511651, 36.330992552947613 ], [ -118.780353794142556, 36.330931665659456 ], [ -118.780453943379712, 36.330954248350523 ], [ -118.780450310640617, 36.331021494329825 ], [ -118.780411185040407, 36.331042080473921 ], [ -118.780353686073028, 36.331034188186734 ] ] ] ] } },
{ "type": "Feature", "properties": { "id": null }, "geometry": { "type": "MultiPolygon", "coordinates": [ [ [ [ -118.709572348343215, 36.266232902362979 ], [ -118.709541350771914, 36.266207579789203 ], [ -118.70959704198691, 36.26619142484796 ], [ -118.70960069048401, 36.266215764525043 ], [ -118.709572348343215, 36.266232902362979 ] ] ] ] } },
{ "type": "Feature", "properties": { "id": null }, "geometry": { "type": "MultiPolygon", "coordinates": [ [ [ [ -118.70954366830567, 36.26548342379327 ], [ -118.709545433698352, 36.26545120916429 ], [ -118.709602396923685, 36.265457291094478 ], [ -118.709588310601973, 36.265487045552 ], [ -118.70954366830567, 36.26548342379327 ] ] ] ] } },
{ "type": "Feature", "properties": { "id": null }, "geometry": { "type": "MultiPolygon", "coordinates": [ [ [ [ -118.709892247382143, 36.26621413801707 ], [ -118.70986848788425, 36.266193110393111 ], [ -118.709871746485916, 36.266179105836216 ], [ -118.709911526973301, 36.266180535390774 ], [ -118.709919706810297, 36.266213107418331 ], [ -118.709892247382143, 36.26621413801707 ] ] ] ] } },
{ "type": "Feature", "properties": { "id": null }, "geometry": { "type": "MultiPolygon", "coordinates": [ [ [ [ -118.70814523740475, 36.265499731249704 ], [ -118.708117057973709, 36.265468457503708 ], [ -118.708150372607506, 36.265451498776855 ], [ -118.708174241775339, 36.265470513288705 ], [ -118.708172917307763, 36.265494674216889 ], [ -118.70814523740475, 36.265499731249704 ] ] ] ] } },
{ "type": "Feature", "properties": { "id": null }, "geometry": { "type": "MultiPolygon", "coordinates": [ [ [ [ -118.708017985840883, 36.265321661875959 ], [ -118.707987320274711, 36.26529029872205 ], [ -118.708016214239279, 36.265263094207853 ], [ -118.708047873180888, 36.265276336660769 ], [ -118.708050748553816, 36.265314770225842 ], [ -118.708017985840883, 36.265321661875959 ] ] ] ] } },
{ "type": "Feature", "properties": { "id": null }, "geometry": { "type": "MultiPolygon", "coordinates": [ [ [ [ -118.708488294427909, 36.265649245585251 ], [ -118.708452545663931, 36.265619717192138 ], [ -118.708468787595066, 36.265596092509547 ], [ -118.708514371025203, 36.265627991807982 ], [ -118.708488294427909, 36.265649245585251 ] ] ] ] } },
{ "type": "Feature", "properties": { "id": null }, "geometry": { "type": "MultiPolygon", "coordinates": [ [ [ [ -118.70852232336641, 36.265573808445033 ], [ -118.70849348156564, 36.265554615245684 ], [ -118.708549062105504, 36.265540474187958 ], [ -118.708577793554184, 36.265561680786163 ], [ -118.70852232336641, 36.265573808445033 ] ] ] ] } },
{ "type": "Feature", "properties": { "id": null }, "geometry": { "type": "MultiPolygon", "coordinates": [ [ [ [ -118.708611453527837, 36.264947590165356 ], [ -118.70860156060094, 36.264900834832922 ], [ -118.708646092129783, 36.264906470331844 ], [ -118.708611453527837, 36.264947590165356 ] ] ] ] } },
{ "type": "Feature", "properties": { "id": null }, "geometry": { "type": "MultiPolygon", "coordinates": [ [ [ [ -118.707195015750258, 36.341616138967403 ], [ -118.707144125734658, 36.341590119809347 ], [ -118.707156615947696, 36.341544209532451 ], [ -118.707241268866454, 36.341545240383553 ], [ -118.707230933414635, 36.341597275144096 ], [ -118.707195015750258, 36.341616138967403 ] ] ] ] } },
{ "type": "Feature", "properties": { "id": null }, "geometry": { "type": "MultiPolygon", "coordinates": [ [ [ [ -118.706779652976181, 36.341603205761999 ], [ -118.706725507148548, 36.341500474839378 ], [ -118.706811708657128, 36.341473342738958 ], [ -118.706901940582568, 36.341508840546844 ], [ -118.706899949469033, 36.341545050449561 ], [ -118.706840936285502, 36.341530832662443 ], [ -118.706831264289292, 36.341570797404351 ], [ -118.706826897218917, 36.341604906148731 ], [ -118.706779652976181, 36.341603205761999 ] ] ] ] } },
{ "type": "Feature", "properties": { "id": null }, "geometry": { "type": "MultiPolygon", "coordinates": [ [ [ [ -118.706189781795928, 36.340822076881778 ], [ -118.706146631518664, 36.340745944872594 ], [ -118.706203821243918, 36.34074800349449 ], [ -118.706268470505549, 36.340750330599427 ], [ -118.706266257892366, 36.340790563796226 ], [ -118.706257470785687, 36.340814435203185 ], [ -118.706189781795928, 36.340822076881778 ] ] ] ] } },
{ "type": "Feature", "properties": { "id": null }, "geometry": { "type": "MultiPolygon", "coordinates": [ [ [ [ -118.706954618805753, 36.341139858230029 ], [ -118.706886265860575, 36.341159570258498 ], [ -118.706886265860575, 36.341159570258498 ], [ -118.706923731981902, 36.341112543257914 ], [ -118.706926439735938, 36.341108609425454 ], [ -118.706973794302911, 36.341108298072747 ], [ -118.706954618805753, 36.341139858230029 ] ] ] ] } },
{ "type": "Feature", "properties": { "id": null }, "geometry": { "type": "MultiPolygon", "coordinates": [ [ [ [ -118.706939911628567, 36.341316705460095 ], [ -118.706930023139194, 36.341269989794021 ], [ -118.706985390462535, 36.341259888607439 ], [ -118.706983399405729, 36.341296098515606 ], [ -118.706939911628567, 36.341316705460095 ] ] ] ] } },
{ "type": "Feature", "properties": { "id": null }, "geometry": { "type": "MultiPolygon", "coordinates": [ [ [ [ -118.706012877587426, 36.340414596125385 ], [ -118.705896454715685, 36.340402342557653 ], [ -118.705902592282996, 36.340336047320775 ], [ -118.706016639197131, 36.340346199709053 ], [ -118.706012877587426, 36.340414596125385 ] ] ] ] } },
{ "type": "Feature", "properties": { "id": null }, "geometry": { "type": "MultiPolygon", "coordinates": [ [ [ [ -118.705576587859028, 36.340283998374431 ], [ -118.70543668036116, 36.340291055300874 ], [ -118.705514210410172, 36.340195080107677 ], [ -118.705654944565978, 36.340218287469298 ], [ -118.705653669151033, 36.340286773369805 ], [ -118.705576587859028, 36.340283998374431 ] ] ] ] } },
{ "type": "Feature", "properties": { "id": null }, "geometry": { "type": "MultiPolygon", "coordinates": [ [ [ [ -118.706465430685284, 36.340249478283937 ], [ -118.706304472303529, 36.340231590830562 ], [ -118.706293477995558, 36.340204991741082 ], [ -118.706389292238313, 36.340184252844054 ], [ -118.70652615996984, 36.340187163586613 ], [ -118.706522730693521, 36.340249525068515 ], [ -118.706465430685284, 36.340249478283937 ] ] ] ] } },
{ "type": "Feature", "properties": { "id": null }, "geometry": { "type": "MultiPolygon", "coordinates": [ [ [ [ -118.706418440697831, 36.340650915374702 ], [ -118.7063886026082, 36.340649841370563 ], [ -118.706453420304697, 36.340603799021764 ], [ -118.706453915556594, 36.34064009840791 ], [ -118.706418440697831, 36.340650915374702 ] ] ] ] } },
{ "type": "Feature", "properties": { "id": null }, "geometry": { "type": "MultiPolygon", "coordinates": [ [ [ [ -118.705153381759146, 36.341093158935578 ], [ -118.705135650862488, 36.341007863604446 ], [ -118.705212732823142, 36.34101063893155 ], [ -118.705209413055641, 36.34107098864024 ], [ -118.705153381759146, 36.341093158935578 ] ] ] ] } },
{ "type": "Feature", "properties": { "id": null }, "geometry": { "type": "MultiPolygon", "coordinates": [ [ [ [ -118.704753118648739, 36.340941683176027 ], [ -118.704714500106988, 36.340873776430911 ], [ -118.704770863351726, 36.340845571371766 ], [ -118.704823190697368, 36.340845439933666 ], [ -118.704840316072477, 36.340896447602063 ], [ -118.704837660040496, 36.340944727346397 ], [ -118.704753118648739, 36.340941683176027 ] ] ] ] } },
{ "type": "Feature", "properties": { "id": null }, "geometry": { "type": "MultiPolygon", "coordinates": [ [ [ [ -118.704665544633897, 36.340857904112426 ], [ -118.704626704859578, 36.340794020657043 ], [ -118.704692018052796, 36.340784278683678 ], [ -118.704709586014673, 36.340827239741905 ], [ -118.704665544633897, 36.340857904112426 ] ] ] ] } },
{ "type": "Feature", "properties": { "id": null }, "geometry": { "type": "MultiPolygon", "coordinates": [ [ [ [ -118.704809015644543, 36.340514364409415 ], [ -118.704773156860895, 36.340486869877367 ], [ -118.704884776037701, 36.340450576194414 ], [ -118.704876151092776, 36.340516781787969 ], [ -118.704809015644543, 36.340514364409415 ] ] ] ] } },
{ "type": "Feature", "properties": { "id": null }, "geometry": { "type": "MultiPolygon", "coordinates": [ [ [ [ -118.70500640659472, 36.340277579277348 ], [ -118.704900210247345, 36.340215301932247 ], [ -118.705112505739066, 36.340160460963425 ], [ -118.705118298703226, 36.340281608013406 ], [ -118.70500640659472, 36.340277579277348 ] ] ] ] } },
{ "type": "Feature", "properties": { "id": null }, "geometry": { "type": "MultiPolygon", "coordinates": [ [ [ [ -118.705520870620163, 36.34057224485192 ], [ -118.705425608987667, 36.340582924713736 ], [ -118.705466115383501, 36.340525929440254 ], [ -118.705579941178925, 36.340540105577254 ], [ -118.705520870620163, 36.34057224485192 ] ] ] ] } },
{ "type": "Feature", "properties": { "id": null }, "geometry": { "type": "MultiPolygon", "coordinates": [ [ [ [ -118.705560740590087, 36.340934480064895 ], [ -118.70552958085544, 36.34086684209236 ], [ -118.705622961823536, 36.340890360357612 ], [ -118.705560740590087, 36.340934480064895 ] ] ] ] } },
{ "type": "Feature", "properties": { "id": null }, "geometry": { "type": "MultiPolygon", "coordinates": [ [ [ [ -118.705462647388885, 36.34113251265051 ], [ -118.705395127276361, 36.341091784553107 ], [ -118.705439227042191, 36.341014762258169 ], [ -118.705523710136063, 36.341064163596918 ], [ -118.705462647388885, 36.34113251265051 ] ] ] ] } },
{ "type": "Feature", "properties": { "id": null }, "geometry": { "type": "MultiPolygon", "coordinates": [ [ [ [ -118.706524065534708, 36.341086064657503 ], [ -118.706433001972385, 36.341111005911266 ], [ -118.706432343407798, 36.341032372163141 ], [ -118.706519924730358, 36.341025446348759 ], [ -118.706585843909295, 36.341049991061787 ], [ -118.706524065534708, 36.341086064657503 ] ] ] ] } },
{ "type": "Feature", "properties": { "id": null }, "geometry": { "type": "MultiPolygon", "coordinates": [ [ [ [ -118.706436937028016, 36.340903536408923 ], [ -118.706352453453334, 36.3408541356903 ], [ -118.706457719308631, 36.340797455412712 ], [ -118.706462634452052, 36.340843992098968 ], [ -118.706599171483688, 36.340852937816187 ], [ -118.70659347691138, 36.34091118647887 ], [ -118.706436937028016, 36.340903536408923 ] ] ] ] } },
{ "type": "Feature", "properties": { "id": null }, "geometry": { "type": "MultiPolygon", "coordinates": [ [ [ [ -118.706680620500435, 36.340821603448823 ], [ -118.706637633194191, 36.340787805958634 ], [ -118.706682780029581, 36.340737024194809 ], [ -118.706727921987152, 36.340776946145375 ], [ -118.706725709608151, 36.340817179366312 ], [ -118.706680620500435, 36.340821603448823 ] ] ] ] } },
{ "type": "Feature", "properties": { "id": null }, "geometry": { "type": "MultiPolygon", "coordinates": [ [ [ [ -118.70598758131861, 36.340240340314232 ], [ -118.705959903634536, 36.340154687017083 ], [ -118.705989852153792, 36.340153749456434 ], [ -118.706077653753354, 36.340142800584722 ], [ -118.706097376984744, 36.340191885967478 ], [ -118.706079581569909, 36.340243652079948 ], [ -118.70598758131861, 36.340240340314232 ] ] ] ] } },
{ "type": "Feature", "properties": { "id": null }, "geometry": { "type": "MultiPolygon", "coordinates": [ [ [ [ -118.705908246224723, 36.340052045351811 ], [ -118.705845699703133, 36.340011496569808 ], [ -118.705917534027833, 36.339973769663032 ], [ -118.705965714824089, 36.340003723063667 ], [ -118.705962948937682, 36.340054014545885 ], [ -118.705908246224723, 36.340052045351811 ] ] ] ] } },
{ "type": "Feature", "properties": { "id": null }, "geometry": { "type": "MultiPolygon", "coordinates": [ [ [ [ -118.705684508838189, 36.340179038961494 ], [ -118.705666556171892, 36.340097766992251 ], [ -118.705773475144312, 36.340101616068686 ], [ -118.705769270791365, 36.340178059100857 ], [ -118.705684508838189, 36.340179038961494 ] ] ] ] } },
{ "type": "Feature", "properties": { "id": null }, "geometry": { "type": "MultiPolygon", "coordinates": [ [ [ [ -118.7059577603208, 36.33996715516377 ], [ -118.705930245866554, 36.339923836218212 ], [ -118.705942183237966, 36.339887984385591 ], [ -118.706008543812146, 36.339904482708043 ], [ -118.706005003524382, 36.339968855809879 ], [ -118.7059577603208, 36.33996715516377 ] ] ] ] } },
{ "type": "Feature", "properties": { "id": null }, "geometry": { "type": "MultiPolygon", "coordinates": [ [ [ [ -118.706161240508663, 36.34038970211104 ], [ -118.706103113416617, 36.340359390746613 ], [ -118.706129859141939, 36.34032608759032 ], [ -118.706227275024247, 36.340321531620475 ], [ -118.706213678238299, 36.340387558381629 ], [ -118.706161240508663, 36.34038970211104 ] ] ] ] } },
{ "type": "Feature", "properties": { "id": null }, "geometry": { "type": "MultiPolygon", "coordinates": [ [ [ [ -118.705052244799191, 36.339851913784024 ], [ -118.704996774399802, 36.339773322168199 ], [ -118.705109993662148, 36.339753210980035 ], [ -118.705110982981765, 36.339825809686936 ], [ -118.705052244799191, 36.339851913784024 ] ] ] ] } },
{ "type": "Feature", "properties": { "id": null }, "geometry": { "type": "MultiPolygon", "coordinates": [ [ [ [ -118.704714276965333, 36.340198528704668 ], [ -118.704716549206793, 36.340111937964643 ], [ -118.704814739442682, 36.340093301545075 ], [ -118.704809538162351, 36.340187849386709 ], [ -118.704714276965333, 36.340198528704668 ] ] ] ] } },
{ "type": "Feature", "properties": { "id": null }, "geometry": { "type": "MultiPolygon", "coordinates": [ [ [ [ -118.705188662160651, 36.340723551225977 ], [ -118.705186898236221, 36.340665034121159 ], [ -118.705271771344712, 36.340662042993088 ], [ -118.705265743846496, 36.340726326500281 ], [ -118.705188662160651, 36.340723551225977 ] ] ] ] } },
{ "type": "Feature", "properties": { "id": null }, "geometry": { "type": "MultiPolygon", "coordinates": [ [ [ [ -118.705833599192786, 36.340865693073027 ], [ -118.705800779593361, 36.340828230036344 ], [ -118.705851284309674, 36.340815938680201 ], [ -118.705896425850952, 36.340855860920406 ], [ -118.705833599192786, 36.340865693073027 ] ] ] ] } },
{ "type": "Feature", "properties": { "id": null }, "geometry": { "type": "MultiPolygon", "coordinates": [ [ [ [ -118.705978655265966, 36.340719741761859 ], [ -118.705980704904093, 36.340637174229094 ], [ -118.70606563053714, 36.340678528544132 ], [ -118.705978655265966, 36.340719741761859 ] ] ] ] } },
{ "type": "Feature", "properties": { "id": null }, "geometry": { "type": "MultiPolygon", "coordinates": [ [ [ [ -118.748304964613581, 36.346024643602156 ], [ -118.748273451481623, 36.345963079148355 ], [ -118.748273451481623, 36.345963079148355 ], [ -118.748383585331908, 36.345952901774787 ], [ -118.748379971310229, 36.346019258281451 ], [ -118.748304964613581, 36.346024643602156 ] ] ] ] } },
{ "type": "Feature", "properties": { "id": null }, "geometry": { "type": "MultiPolygon", "coordinates": [ [ [ [ -118.747976315114371, 36.346023002336686 ], [ -118.74794480225134, 36.345961437813003 ], [ -118.748064440487511, 36.345959658364222 ], [ -118.748058340573962, 36.346025926240976 ], [ -118.747976315114371, 36.346023002336686 ] ] ] ] } },
{ "type": "Feature", "properties": { "id": null }, "geometry": { "type": "MultiPolygon", "coordinates": [ [ [ [ -118.74826330405547, 36.345646408505615 ], [ -118.748235995668125, 36.345599096866543 ], [ -118.748283179242492, 36.345510116880341 ], [ -118.748359575900224, 36.345524928168864 ], [ -118.748353552584348, 36.34563552235052 ], [ -118.74826330405547, 36.345646408505615 ] ] ] ] } },
{ "type": "Feature", "properties": { "id": null }, "geometry": { "type": "MultiPolygon", "coordinates": [ [ [ [ -118.747695961975467, 36.345591934756868 ], [ -118.747620913495297, 36.345506656387663 ], [ -118.747687182133248, 36.345478798215026 ], [ -118.747799034215248, 36.345482785562851 ], [ -118.747767859054775, 36.345552188950059 ], [ -118.747695961975467, 36.345591934756868 ] ] ] ] } },
{ "type": "Feature", "properties": { "id": null }, "geometry": { "type": "MultiPolygon", "coordinates": [ [ [ [ -118.748098997271342, 36.34509658104438 ], [ -118.748048990282697, 36.345054504389701 ], [ -118.748147680561416, 36.345025786922186 ], [ -118.74814373790683, 36.345098175827488 ], [ -118.748098997271342, 36.34509658104438 ] ] ] ] } },
{ "type": "Feature", "properties": { "id": null }, "geometry": { "type": "MultiPolygon", "coordinates": [ [ [ [ -118.748019601297855, 36.345045397969862 ], [ -118.74798885537038, 36.344969757856283 ], [ -118.748093250007742, 36.34497347907601 ], [ -118.74807483185549, 36.345037293167195 ], [ -118.748019601297855, 36.345045397969862 ] ] ] ] } },
{ "type": "Feature", "properties": { "id": null }, "geometry": { "type": "MultiPolygon", "coordinates": [ [ [ [ -118.747437501903349, 36.345079044151369 ], [ -118.747500071339715, 36.344936215940805 ], [ -118.74759178522919, 36.34498985318406 ], [ -118.747550372860388, 36.345018597440664 ], [ -118.74752310724628, 36.345061948959106 ], [ -118.747437501903349, 36.345079044151369 ] ] ] ] } },
{ "type": "Feature", "properties": { "id": null }, "geometry": { "type": "MultiPolygon", "coordinates": [ [ [ [ -118.746999747211504, 36.345754481102404 ], [ -118.746916804374379, 36.345676979658244 ], [ -118.747048137296829, 36.345643382908413 ], [ -118.747077239262026, 36.345749185214714 ], [ -118.746999747211504, 36.345754481102404 ] ] ] ] } },
{ "type": "Feature", "properties": { "id": null }, "geometry": { "type": "MultiPolygon", "coordinates": [ [ [ [ -118.746729240325081, 36.34546277716678 ], [ -118.746719804553209, 36.345361705439728 ], [ -118.746814257160665, 36.345365073295611 ], [ -118.746840249946175, 36.345436514792617 ], [ -118.746729240325081, 36.34546277716678 ] ] ] ] } },
{ "type": "Feature", "properties": { "id": null }, "geometry": { "type": "MultiPolygon", "coordinates": [ [ [ [ -118.746440588796077, 36.345595528466269 ], [ -118.746416712452202, 36.345439544741915 ], [ -118.746539677544376, 36.345468106022253 ], [ -118.746533542105752, 36.345580710741544 ], [ -118.746440588796077, 36.345595528466269 ] ] ] ] } },
{ "type": "Feature", "properties": { "id": null }, "geometry": { "type": "MultiPolygon", "coordinates": [ [ [ [ -118.746308279083337, 36.345052884014848 ], [ -118.746314086033664, 36.344946311713151 ], [ -118.746463152216052, 36.345044303800357 ], [ -118.746308279083337, 36.345052884014848 ] ] ] ] } },
{ "type": "Feature", "properties": { "id": null }, "geometry": { "type": "MultiPolygon", "coordinates": [ [ [ [ -118.747131899649176, 36.345340134081738 ], [ -118.7470834267301, 36.345269905845235 ], [ -118.747243490583315, 36.345257480279969 ], [ -118.747251317781945, 36.345342376989045 ], [ -118.747131899649176, 36.345340134081738 ] ] ] ] } },
{ "type": "Feature", "properties": { "id": null }, "geometry": { "type": "MultiPolygon", "coordinates": [ [ [ [ -118.745863723208686, 36.34498464785672 ], [ -118.745872235478757, 36.344874142666811 ], [ -118.745998999893786, 36.344878663514038 ], [ -118.74600043012363, 36.344989523296945 ], [ -118.745863723208686, 36.34498464785672 ] ] ] ] } },
{ "type": "Feature", "properties": { "id": null }, "geometry": { "type": "MultiPolygon", "coordinates": [ [ [ [ -118.747248101272419, 36.344715688749254 ], [ -118.74716756908748, 36.344593949913495 ], [ -118.747336587993289, 36.34459997580818 ], [ -118.747332644649219, 36.344672364642236 ], [ -118.747248101272419, 36.344715688749254 ] ] ] ] } },
{ "type": "Feature", "properties": { "id": null }, "geometry": { "type": "MultiPolygon", "coordinates": [ [ [ [ -118.74631247697215, 36.344930136691445 ], [ -118.746310169775185, 36.34483536326794 ], [ -118.746449362085912, 36.344840326813667 ], [ -118.746444212711097, 36.34493483434494 ], [ -118.74631247697215, 36.344930136691445 ] ] ] ] } },
{ "type": "Feature", "properties": { "id": null }, "geometry": { "type": "MultiPolygon", "coordinates": [ [ [ [ -118.747640452536317, 36.345239397011419 ], [ -118.747610802252282, 36.345143648805958 ], [ -118.747643224463431, 36.345142789927145 ], [ -118.747723715552667, 36.345173865224503 ], [ -118.74771253476159, 36.345241966661227 ], [ -118.747640452536317, 36.345239397011419 ] ] ] ] } },
{ "type": "Feature", "properties": { "id": null }, "geometry": { "type": "MultiPolygon", "coordinates": [ [ [ [ -118.746877336404381, 36.345852866496244 ], [ -118.746781123295378, 36.345744671212685 ], [ -118.746781123295378, 36.345744671212685 ], [ -118.746916626623943, 36.345771664484936 ], [ -118.746984689950324, 36.345802297174536 ], [ -118.746956766405091, 36.345857713317891 ], [ -118.746877336404381, 36.345852866496244 ] ] ] ] } },
{ "type": "Feature", "properties": { "id": null }, "geometry": { "type": "MultiPolygon", "coordinates": [ [ [ [ -118.746037385080413, 36.345865223175799 ], [ -118.745928306856683, 36.345764627247405 ], [ -118.746134940824859, 36.345765952301484 ], [ -118.746171607956427, 36.345870009877281 ], [ -118.746037385080413, 36.345865223175799 ] ] ] ] } },
{ "type": "Feature", "properties": { "id": null }, "geometry": { "type": "MultiPolygon", "coordinates": [ [ [ [ -118.746533089219625, 36.346046091520016 ], [ -118.746423064733207, 36.346054256359253 ], [ -118.746410192069973, 36.34592485619055 ], [ -118.746623406905627, 36.345942532722034 ], [ -118.746613067179254, 36.346040884589812 ], [ -118.746533089219625, 36.346046091520016 ] ] ] ] } },
{ "type": "Feature", "properties": { "id": null }, "geometry": { "type": "MultiPolygon", "coordinates": [ [ [ [ -118.747386558233259, 36.345877066251163 ], [ -118.747362098406299, 36.345777473625873 ], [ -118.747480127008785, 36.345759519723472 ], [ -118.747478525931427, 36.345880345006897 ], [ -118.747386558233259, 36.345877066251163 ] ] ] ] } },
{ "type": "Feature", "properties": { "id": null }, "geometry": { "type": "MultiPolygon", "coordinates": [ [ [ [ -118.747738664101377, 36.345722398232247 ], [ -118.747860964160779, 36.345626022668327 ], [ -118.747906952392455, 36.345696162041193 ], [ -118.747836664614894, 36.34575208294865 ], [ -118.747812389721517, 36.345694805824543 ], [ -118.747738664101377, 36.345722398232247 ] ] ] ] } },
{ "type": "Feature", "properties": { "id": null }, "geometry": { "type": "MultiPolygon", "coordinates": [ [ [ [ -118.747908203066856, 36.344713029862689 ], [ -118.747872562255253, 36.344681538781501 ], [ -118.747880161971196, 36.344633456731415 ], [ -118.747964671538881, 36.344636469207401 ], [ -118.747976189844692, 36.344699335695822 ], [ -118.747908203066856, 36.344713029862689 ] ] ] ] } },
{ "type": "Feature", "properties": { "id": null }, "geometry": { "type": "MultiPolygon", "coordinates": [ [ [ [ -118.687622415459529, 36.328298410849797 ], [ -118.687556780823655, 36.328223449827377 ], [ -118.687642447616867, 36.32820638302929 ], [ -118.687730644137943, 36.328233767231708 ], [ -118.687726866865958, 36.32830218647517 ], [ -118.687622415459529, 36.328298410849797 ] ] ] ] } },
{ "type": "Feature", "properties": { "id": null }, "geometry": { "type": "MultiPolygon", "coordinates": [ [ [ [ -118.687661829485265, 36.327674768169501 ], [ -118.687637763459449, 36.327569048234125 ], [ -118.687748965210886, 36.327540806271202 ], [ -118.687731685390276, 36.327673260541438 ], [ -118.687661829485265, 36.327674768169501 ] ] ] ] } },
{ "type": "Feature", "properties": { "id": null }, "geometry": { "type": "MultiPolygon", "coordinates": [ [ [ [ -118.686653092790664, 36.328162550901837 ], [ -118.686686851887572, 36.328002463829463 ], [ -118.686798139137139, 36.328062945092519 ], [ -118.686767491606133, 36.328166687020378 ], [ -118.686653092790664, 36.328162550901837 ] ] ] ] } },
{ "type": "Feature", "properties": { "id": null }, "geometry": { "type": "MultiPolygon", "coordinates": [ [ [ [ -118.686390090980296, 36.328322414600621 ], [ -118.686387393743999, 36.328100519079669 ], [ -118.686611661776496, 36.328100562558042 ], [ -118.686624445260179, 36.328230070875932 ], [ -118.686533359918997, 36.328255006396269 ], [ -118.686467504167041, 36.328184069500288 ], [ -118.686442496784579, 36.328275917188435 ], [ -118.686390090980296, 36.328322414600621 ] ] ] ] } },
{ "type": "Feature", "properties": { "id": null }, "geometry": { "type": "MultiPolygon", "coordinates": [ [ [ [ -118.68773200901451, 36.327306297163155 ], [ -118.687674767313709, 36.327259868448017 ], [ -118.687812837266819, 36.327196303366399 ], [ -118.687807949308251, 36.327284845941541 ], [ -118.68773200901451, 36.327306297163155 ] ] ] ] } },
{ "type": "Feature", "properties": { "id": null }, "geometry": { "type": "MultiPolygon", "coordinates": [ [ [ [ -118.687758468498288, 36.327549215165583 ], [ -118.687615919401139, 36.327423081683619 ], [ -118.687704251527833, 36.327357718839693 ], [ -118.687937440417059, 36.327466964929087 ], [ -118.687758468498288, 36.327549215165583 ] ] ] ] } },
{ "type": "Feature", "properties": { "id": null }, "geometry": { "type": "MultiPolygon", "coordinates": [ [ [ [ -118.687213825055167, 36.327755357898155 ], [ -118.687185230231123, 36.327641408785141 ], [ -118.687306824287717, 36.327605477552318 ], [ -118.687298380321764, 36.32775841461374 ], [ -118.687213825055167, 36.327755357898155 ] ] ] ] } },
{ "type": "Feature", "properties": { "id": null }, "geometry": { "type": "MultiPolygon", "coordinates": [ [ [ [ -118.687044838723651, 36.326934644972837 ], [ -118.687041779868693, 36.326809520929977 ], [ -118.687166124322317, 36.326814016158124 ], [ -118.687115805004666, 36.326913014367975 ], [ -118.687044838723651, 36.326934644972837 ] ] ] ] } },
{ "type": "Feature", "properties": { "id": null }, "geometry": { "type": "MultiPolygon", "coordinates": [ [ [ [ -118.686794117433934, 36.326691684514508 ], [ -118.686754242569492, 36.326601523652343 ], [ -118.686991564923233, 36.326545580558083 ], [ -118.686939912279882, 36.326668726643803 ], [ -118.686794117433934, 36.326691684514508 ] ] ] ] } },
{ "type": "Feature", "properties": { "id": null }, "geometry": { "type": "MultiPolygon", "coordinates": [ [ [ [ -118.687899699702598, 36.327247835351592 ], [ -118.687848764806361, 36.327177438516429 ], [ -118.68798052766094, 36.327137841420416 ], [ -118.687964359250401, 36.327250172446355 ], [ -118.687899699702598, 36.327247835351592 ] ] ] ] } },
{ "type": "Feature", "properties": { "id": null }, "geometry": { "type": "MultiPolygon", "coordinates": [ [ [ [ -118.686018993624359, 36.32773232116989 ], [ -118.685953805598771, 36.327649310088667 ], [ -118.686117941808916, 36.32765524537411 ], [ -118.686118247952749, 36.32773994294535 ], [ -118.686018993624359, 36.32773232116989 ] ] ] ] } },
{ "type": "Feature", "properties": { "id": null }, "geometry": { "type": "MultiPolygon", "coordinates": [ [ [ [ -118.685723536333654, 36.327036079500971 ], [ -118.685742458803716, 36.326964175372538 ], [ -118.68578722281552, 36.326965794162035 ], [ -118.685794280714305, 36.327018474366362 ], [ -118.685723536333654, 36.327036079500971 ] ] ] ] } },
{ "type": "Feature", "properties": { "id": null }, "geometry": { "type": "MultiPolygon", "coordinates": [ [ [ [ -118.686379102862986, 36.326987196585947 ], [ -118.686343313144349, 36.326913314070964 ], [ -118.686434396920319, 36.326888378591349 ], [ -118.686430840949214, 36.326952773077785 ], [ -118.686379102862986, 36.326987196585947 ] ] ] ] } },
{ "type": "Feature", "properties": { "id": null }, "geometry": { "type": "MultiPolygon", "coordinates": [ [ [ [ -118.686709372848824, 36.326962843667516 ], [ -118.686636903897337, 36.326831177414626 ], [ -118.686846913672184, 36.326818606747459 ], [ -118.686802012200602, 36.326909735302642 ], [ -118.686709372848824, 36.326962843667516 ] ] ] ] } },
{ "type": "Feature", "properties": { "id": null }, "geometry": { "type": "MultiPolygon", "coordinates": [ [ [ [ -118.687805333629314, 36.327151672515789 ], [ -118.687805692125792, 36.327054900832898 ], [ -118.687895220500593, 36.327058136856671 ], [ -118.687890777009912, 36.327138630117474 ], [ -118.687805333629314, 36.327151672515789 ] ] ] ] } },
{ "type": "Feature", "properties": { "id": null }, "geometry": { "type": "MultiPolygon", "coordinates": [ [ [ [ -118.68693026364609, 36.327926577701405 ], [ -118.686835009170963, 36.327846512757901 ], [ -118.686902113668651, 36.327804579231525 ], [ -118.687032851767214, 36.327873828870814 ], [ -118.68693026364609, 36.327926577701405 ] ] ] ] } },
{ "type": "Feature", "properties": { "id": null }, "geometry": { "type": "MultiPolygon", "coordinates": [ [ [ [ -118.687914318938937, 36.328337190964369 ], [ -118.687900200199849, 36.328231830616346 ], [ -118.688019128824976, 36.328244194651035 ], [ -118.688005626223429, 36.328308229702067 ], [ -118.687914318938937, 36.328337190964369 ] ] ] ] } },
{ "type": "Feature", "properties": { "id": null }, "geometry": { "type": "MultiPolygon", "coordinates": [ [ [ [ -118.687697087012921, 36.326494463510308 ], [ -118.687622839226577, 36.326394995065563 ], [ -118.687843906205174, 36.326362658807163 ], [ -118.687902566470655, 36.326473661799568 ], [ -118.687801536021979, 36.32649823890992 ], [ -118.687697087012921, 36.326494463510308 ] ] ] ] } },
{ "type": "Feature", "properties": { "id": null }, "geometry": { "type": "MultiPolygon", "coordinates": [ [ [ [ -118.685824763651581, 36.327459139933694 ], [ -118.685750517579734, 36.32735967043125 ], [ -118.685835072255472, 36.327362728153517 ], [ -118.685929574555203, 36.32736614553729 ], [ -118.685924239878176, 36.327462737194466 ], [ -118.685824763651581, 36.327459139933694 ] ] ] ] } },
{ "type": "Feature", "properties": { "id": null }, "geometry": { "type": "MultiPolygon", "coordinates": [ [ [ [ -118.686140424632697, 36.328240798472812 ], [ -118.686074791547796, 36.328165836731429 ], [ -118.686240040208531, 36.328151648655272 ], [ -118.686229954167388, 36.328244035834416 ], [ -118.686140424632697, 36.328240798472812 ] ] ] ] } },
{ "type": "Feature", "properties": { "id": null }, "geometry": { "type": "MultiPolygon", "coordinates": [ [ [ [ -118.685689719633828, 36.326655783709541 ], [ -118.685685106937513, 36.326558832335451 ], [ -118.685769883020043, 36.326557865394165 ], [ -118.685764770583759, 36.326650432391993 ], [ -118.685689719633828, 36.326655783709541 ] ] ] ] } },
{ "type": "Feature", "properties": { "id": null }, "geometry": { "type": "MultiPolygon", "coordinates": [ [ [ [ -118.685977891620425, 36.326581518094862 ], [ -118.685951383134849, 36.326520069164822 ], [ -118.686048773870979, 36.326471165891434 ], [ -118.686042550453678, 36.326583856192542 ], [ -118.685977891620425, 36.326581518094862 ] ] ] ] } },
{ "type": "Feature", "properties": { "id": null }, "geometry": { "type": "MultiPolygon", "coordinates": [ [ [ [ -118.686035245027739, 36.326986861092593 ], [ -118.685996260032169, 36.326880601415645 ], [ -118.686120604427089, 36.326885097739002 ], [ -118.686114381019181, 36.326997788042952 ], [ -118.686035245027739, 36.326986861092593 ] ] ] ] } },
{ "type": "Feature", "properties": { "id": null }, "geometry": { "type": "MultiPolygon", "coordinates": [ [ [ [ -118.685430945137284, 36.326739177163951 ], [ -118.685377039808444, 36.326632377709529 ], [ -118.685502272882076, 36.326620776048159 ], [ -118.685495604054097, 36.326741515566205 ], [ -118.685430945137284, 36.326739177163951 ] ] ] ] } },
{ "type": "Feature", "properties": { "id": null }, "geometry": { "type": "MultiPolygon", "coordinates": [ [ [ [ -118.686583409932496, 36.326446137609736 ], [ -118.686537672717023, 36.32637189549375 ], [ -118.686667212371887, 36.326372546368496 ], [ -118.686663212194475, 36.326444990194183 ], [ -118.686583409932496, 36.326446137609736 ] ] ] ] } },
{ "type": "Feature", "properties": { "id": null }, "geometry": { "type": "MultiPolygon", "coordinates": [ [ [ [ -118.687324191804066, 36.326388232208856 ], [ -118.687268950787853, 36.326305581411624 ], [ -118.687272950384212, 36.326233137526323 ], [ -118.687473985402576, 36.326292829736246 ], [ -118.687448535634701, 36.326392727098572 ], [ -118.687324191804066, 36.326388232208856 ] ] ] ] } },
{ "type": "Feature", "properties": { "id": null }, "geometry": { "type": "MultiPolygon", "coordinates": [ [ [ [ -118.687961571203118, 36.326939554265138 ], [ -118.687873153827056, 36.326916194984868 ], [ -118.687867871904032, 36.326831317505381 ], [ -118.68798768707741, 36.326827582776616 ], [ -118.687961571203118, 36.326939554265138 ] ] ] ] } },
{ "type": "Feature", "properties": { "id": null }, "geometry": { "type": "MultiPolygon", "coordinates": [ [ [ [ -118.687846820708785, 36.328205705029561 ], [ -118.687828172574541, 36.328092115571174 ], [ -118.687935512077928, 36.328043570384509 ], [ -118.68801571019192, 36.328215842233355 ], [ -118.687846820708785, 36.328205705029561 ] ] ] ] } },
{ "type": "Feature", "properties": { "id": null }, "geometry": { "type": "MultiPolygon", "coordinates": [ [ [ [ -118.687276995958555, 36.32832625117284 ], [ -118.687252041484882, 36.328236629824886 ], [ -118.687308087336802, 36.328214459756417 ], [ -118.687406316737381, 36.328330926120039 ], [ -118.687276995958555, 36.32832625117284 ] ] ] ] } },
{ "type": "Feature", "properties": { "id": null }, "geometry": { "type": "MultiPolygon", "coordinates": [ [ [ [ -118.686256626172693, 36.327761077394349 ], [ -118.686169764407907, 36.327709544248158 ], [ -118.686173542959466, 36.327641125138548 ], [ -118.686329731881315, 36.327610478542198 ], [ -118.686321286004301, 36.327763415406245 ], [ -118.686256626172693, 36.327761077394349 ] ] ] ] } },
{ "type": "Feature", "properties": { "id": null }, "geometry": { "type": "MultiPolygon", "coordinates": [ [ [ [ -118.687173641973672, 36.327580499473456 ], [ -118.687094949617631, 36.327561523861398 ], [ -118.687122263142868, 36.327518151677154 ], [ -118.687257000805587, 36.327514957189877 ], [ -118.687253667641329, 36.327575327080154 ], [ -118.687173641973672, 36.327580499473456 ] ] ] ] } },
{ "type": "Feature", "properties": { "id": null }, "geometry": { "type": "MultiPolygon", "coordinates": [ [ [ [ -118.687503435827225, 36.327294002170213 ], [ -118.687460226914283, 36.327264211386641 ], [ -118.687566232266505, 36.327239814433348 ], [ -118.687563121567393, 36.327296159689894 ], [ -118.687503435827225, 36.327294002170213 ] ] ] ] } },
{ "type": "Feature", "properties": { "id": null }, "geometry": { "type": "MultiPolygon", "coordinates": [ [ [ [ -118.687273477745237, 36.327487323989835 ], [ -118.687295202406943, 36.327274376638186 ], [ -118.687405822600127, 36.327346931281006 ], [ -118.68739782331383, 36.327491819048731 ], [ -118.687273477745237, 36.327487323989835 ] ] ] ] } },
{ "type": "Feature", "properties": { "id": null }, "geometry": { "type": "MultiPolygon", "coordinates": [ [ [ [ -118.668161341560833, 36.329893896488805 ], [ -118.668147756928832, 36.329869203030185 ], [ -118.668169218528206, 36.329841748809542 ], [ -118.668196834304382, 36.329883085210064 ], [ -118.668161341560833, 36.329893896488805 ] ] ] ] } },
{ "type": "Feature", "properties": { "id": null }, "geometry": { "type": "MultiPolygon", "coordinates": [ [ [ [ -118.668244225463241, 36.329118467208936 ], [ -118.668243938839026, 36.329033756189475 ], [ -118.668325096044271, 36.329008469521384 ], [ -118.668318845441704, 36.32912117671259 ], [ -118.668244225463241, 36.329118467208936 ] ] ] ] } },
{ "type": "Feature", "properties": { "id": null }, "geometry": { "type": "MultiPolygon", "coordinates": [ [ [ [ -118.668604569790133, 36.329631688137553 ], [ -118.668587126484198, 36.329586687810078 ], [ -118.668676671036025, 36.329589938987873 ], [ -118.6686742155931, 36.329634216829689 ], [ -118.668604569790133, 36.329631688137553 ] ] ] ] } },
{ "type": "Feature", "properties": { "id": null }, "geometry": { "type": "MultiPolygon", "coordinates": [ [ [ [ -118.668467031526561, 36.329864662688912 ], [ -118.668451597380482, 36.32978343503121 ], [ -118.668506319177098, 36.329785421941274 ], [ -118.66850185452428, 36.329865927087049 ], [ -118.668467031526561, 36.329864662688912 ] ] ] ] } },
{ "type": "Feature", "properties": { "id": null }, "geometry": { "type": "MultiPolygon", "coordinates": [ [ [ [ -118.668552366221888, 36.330303364280574 ], [ -118.668517479468392, 36.330213363600009 ], [ -118.668572201570456, 36.330215350500055 ], [ -118.668618154028138, 36.330285586130728 ], [ -118.668552366221888, 36.330303364280574 ] ] ] ] } },
{ "type": "Feature", "properties": { "id": null }, "geometry": { "type": "MultiPolygon", "coordinates": [ [ [ [ -118.668160742399479, 36.328736299761253 ], [ -118.668108477045337, 36.328690034926936 ], [ -118.668111155966926, 36.328641731855377 ], [ -118.668230547188827, 36.328646067123159 ], [ -118.668231057077946, 36.328726752888933 ], [ -118.668160742399479, 36.328736299761253 ] ] ] ] } },
{ "type": "Feature", "properties": { "id": null }, "geometry": { "type": "MultiPolygon", "coordinates": [ [ [ [ -118.66869322089002, 36.32902183567203 ], [ -118.668659450478231, 36.328911708752855 ], [ -118.668793766165649, 36.328916585335641 ], [ -118.668788409104991, 36.329013191561216 ], [ -118.66869322089002, 36.32902183567203 ] ] ] ] } },
{ "type": "Feature", "properties": { "id": null }, "geometry": { "type": "MultiPolygon", "coordinates": [ [ [ [ -118.668147280867373, 36.329518283237505 ], [ -118.668092209691608, 36.329342848909619 ], [ -118.668236475376858, 36.329348087452672 ], [ -118.66824677466974, 36.32952189601346 ], [ -118.668147280867373, 36.329518283237505 ] ] ] ] } },
{ "type": "Feature", "properties": { "id": null }, "geometry": { "type": "MultiPolygon", "coordinates": [ [ [ [ -118.667830233680917, 36.330111774442166 ], [ -118.667784728593389, 36.330033488053843 ], [ -118.667964648630118, 36.329935154351126 ], [ -118.667959576554054, 36.330116471443617 ], [ -118.667830233680917, 36.330111774442166 ] ] ] ] } },
{ "type": "Feature", "properties": { "id": null }, "geometry": { "type": "MultiPolygon", "coordinates": [ [ [ [ -118.667527588328682, 36.329007742643078 ], [ -118.667456764290606, 36.328936603364163 ], [ -118.667596277728109, 36.328937636709767 ], [ -118.667562857450463, 36.329000956783744 ], [ -118.667527588328682, 36.329007742643078 ] ] ] ] } },
{ "type": "Feature", "properties": { "id": null }, "geometry": { "type": "MultiPolygon", "coordinates": [ [ [ [ -118.667535786909454, 36.32877007206821 ], [ -118.667471500625666, 36.328670936704036 ], [ -118.66764851522305, 36.328624931570445 ], [ -118.66764522895788, 36.328774046607087 ], [ -118.667535786909454, 36.32877007206821 ] ] ] ] } },
{ "type": "Feature", "properties": { "id": null }, "geometry": { "type": "MultiPolygon", "coordinates": [ [ [ [ -118.667932670736121, 36.329163621000731 ], [ -118.667926007232651, 36.32901414463187 ], [ -118.668033503567742, 36.329143082393806 ], [ -118.667932670736121, 36.329163621000731 ] ] ] ] } },
{ "type": "Feature", "properties": { "id": null }, "geometry": { "type": "MultiPolygon", "coordinates": [ [ [ [ -118.667179611363437, 36.329350040400712 ], [ -118.667109965951411, 36.32934751085461 ], [ -118.667112645553672, 36.329299207852294 ], [ -118.667281722055151, 36.329216614753797 ], [ -118.66725579450781, 36.329324573827158 ], [ -118.667179611363437, 36.329350040400712 ] ] ] ] } },
{ "type": "Feature", "properties": { "id": null }, "geometry": { "type": "MultiPolygon", "coordinates": [ [ [ [ -118.667086729880637, 36.328777963054002 ], [ -118.667110871039242, 36.328702206018896 ], [ -118.667158322230776, 36.328655529124802 ], [ -118.667221429378287, 36.328686054684489 ], [ -118.667176273328906, 36.328781215293908 ], [ -118.667086729880637, 36.328777963054002 ] ] ] ] } },
{ "type": "Feature", "properties": { "id": null }, "geometry": { "type": "MultiPolygon", "coordinates": [ [ [ [ -118.66680878229306, 36.329026002556013 ], [ -118.666805085764054, 36.328912934200815 ], [ -118.666891441154931, 36.328883803977114 ], [ -118.666886305061198, 36.328976384710337 ], [ -118.66680878229306, 36.329026002556013 ] ] ] ] } },
{ "type": "Feature", "properties": { "id": null }, "geometry": { "type": "MultiPolygon", "coordinates": [ [ [ [ -118.667591616238127, 36.329381137175993 ], [ -118.667563491810242, 36.329259114949352 ], [ -118.667681258270306, 36.32920289136878 ], [ -118.667673443797071, 36.329343775232466 ], [ -118.667591616238127, 36.329381137175993 ] ] ] ] } },
{ "type": "Feature", "properties": { "id": null }, "geometry": { "type": "MultiPolygon", "coordinates": [ [ [ [ -118.668706485881472, 36.32860284750469 ], [ -118.668695356591201, 36.328533876257225 ], [ -118.668796634870333, 36.328505286415371 ], [ -118.668790831477779, 36.328609943167265 ], [ -118.668706485881472, 36.32860284750469 ] ] ] ] } },
{ "type": "Feature", "properties": { "id": null }, "geometry": { "type": "MultiPolygon", "coordinates": [ [ [ [ -118.668294514930651, 36.328930725219315 ], [ -118.668301658464003, 36.328801917000597 ], [ -118.668391202083939, 36.328805168332131 ], [ -118.668384058697157, 36.328933976566077 ], [ -118.668294514930651, 36.328930725219315 ] ] ] ] } },
{ "type": "Feature", "properties": { "id": null }, "geometry": { "type": "MultiPolygon", "coordinates": [ [ [ [ -118.668665318477963, 36.330154197610852 ], [ -118.668665477960147, 36.330061436055985 ], [ -118.668750048336122, 36.330064506593459 ], [ -118.668745137442855, 36.3301530622782 ], [ -118.668665318477963, 36.330154197610852 ] ] ] ] } },
{ "type": "Feature", "properties": { "id": null }, "geometry": { "type": "MultiPolygon", "coordinates": [ [ [ [ -118.668234492537124, 36.330372489459052 ], [ -118.668206366888768, 36.330250467307273 ], [ -118.668290937417581, 36.330253538183271 ], [ -118.668283346990862, 36.330390396880368 ], [ -118.668234492537124, 36.330372489459052 ] ] ] ] } },
{ "type": "Feature", "properties": { "id": null }, "geometry": { "type": "MultiPolygon", "coordinates": [ [ [ [ -118.667844292657179, 36.33048738760899 ], [ -118.667805548304358, 36.33037707984758 ], [ -118.667915885709036, 36.330364953274817 ], [ -118.66794378765178, 36.330491000719697 ], [ -118.667844292657179, 36.33048738760899 ] ] ] ] } },
{ "type": "Feature", "properties": { "id": null }, "geometry": { "type": "MultiPolygon", "coordinates": [ [ [ [ -118.638289720262591, 36.300199871204214 ], [ -118.638218902009001, 36.300128671492317 ], [ -118.638325899481941, 36.300176977902602 ], [ -118.638289720262591, 36.300199871204214 ] ] ] ] } },
{ "type": "Feature", "properties": { "id": null }, "geometry": { "type": "MultiPolygon", "coordinates": [ [ [ [ -118.638400762201385, 36.30017567826107 ], [ -118.638355047866369, 36.300101360239502 ], [ -118.638504099130273, 36.300110844081082 ], [ -118.638500279592222, 36.300179315651434 ], [ -118.638400762201385, 36.30017567826107 ] ] ] ] } },
{ "type": "Feature", "properties": { "id": null }, "geometry": { "type": "MultiPolygon", "coordinates": [ [ [ [ -118.638397073700773, 36.300599318316323 ], [ -118.638317202001161, 36.300511643934961 ], [ -118.638429849995774, 36.300548048950212 ], [ -118.638397073700773, 36.300599318316323 ] ] ] ] } },
{ "type": "Feature", "properties": { "id": null }, "geometry": { "type": "MultiPolygon", "coordinates": [ [ [ [ -118.638333833239855, 36.300839163861134 ], [ -118.638284940301048, 36.300732442016027 ], [ -118.63839938609776, 36.300736625173634 ], [ -118.638394442932295, 36.300825235419296 ], [ -118.638333833239855, 36.300839163861134 ] ] ] ] } },
{ "type": "Feature", "properties": { "id": null }, "geometry": { "type": "MultiPolygon", "coordinates": [ [ [ [ -118.636495416151647, 36.300634730456061 ], [ -118.636494261624364, 36.300566077121722 ], [ -118.636568899847788, 36.30056880638756 ], [ -118.636565303336681, 36.300633250047042 ], [ -118.636495416151647, 36.300634730456061 ] ] ] ] } },
{ "type": "Feature", "properties": { "id": null }, "geometry": { "type": "MultiPolygon", "coordinates": [ [ [ [ -118.636115645170477, 36.300560303580752 ], [ -118.636062678849726, 36.300437288164154 ], [ -118.636216930846672, 36.300442929135386 ], [ -118.636205210987896, 36.300563578977368 ], [ -118.636115645170477, 36.300560303580752 ] ] ] ] } },
{ "type": "Feature", "properties": { "id": null }, "geometry": { "type": "MultiPolygon", "coordinates": [ [ [ [ -118.636564874043117, 36.301355669050267 ], [ -118.636571168096765, 36.301242892659175 ], [ -118.636695566228937, 36.301247441402388 ], [ -118.636689272353351, 36.301360217812125 ], [ -118.636564874043117, 36.301355669050267 ] ] ] ] } },
{ "type": "Feature", "properties": { "id": null }, "geometry": { "type": "MultiPolygon", "coordinates": [ [ [ [ -118.636121925973711, 36.301073098588411 ], [ -118.636178654055243, 36.300950058764542 ], [ -118.636283597637814, 36.300945824580218 ], [ -118.636315056997944, 36.301007514222952 ], [ -118.636241347849577, 36.301077465815602 ], [ -118.636121925973711, 36.301073098588411 ] ] ] ] } },
{ "type": "Feature", "properties": { "id": null }, "geometry": { "type": "MultiPolygon", "coordinates": [ [ [ [ -118.636195306365039, 36.301366370316721 ], [ -118.636236207610636, 36.301258895477098 ], [ -118.636347251529102, 36.301234704596467 ], [ -118.636339608355996, 36.301371647315904 ], [ -118.636195306365039, 36.301366370316721 ] ] ] ] } },
{ "type": "Feature", "properties": { "id": null }, "geometry": { "type": "MultiPolygon", "coordinates": [ [ [ [ -118.636303294039948, 36.301664943515284 ], [ -118.636175462916214, 36.301543226326153 ], [ -118.636413603352182, 36.301475251873285 ], [ -118.636402813044072, 36.301668582779371 ], [ -118.636303294039948, 36.301664943515284 ] ] ] ] } },
{ "type": "Feature", "properties": { "id": null }, "geometry": { "type": "MultiPolygon", "coordinates": [ [ [ [ -118.638052161907822, 36.299989390280025 ], [ -118.638082658651598, 36.299889606271392 ], [ -118.638198900723282, 36.299861567635645 ], [ -118.638191485863814, 36.29999448298728 ], [ -118.638052161907822, 36.299989390280025 ] ] ] ] } },
{ "type": "Feature", "properties": { "id": null }, "geometry": { "type": "MultiPolygon", "coordinates": [ [ [ [ -118.636209014758478, 36.299780744222701 ], [ -118.636177555879428, 36.299719054582113 ], [ -118.636241792029423, 36.29972947552772 ], [ -118.636373666724907, 36.299778693370314 ], [ -118.636209014758478, 36.299780744222701 ] ] ] ] } },
{ "type": "Feature", "properties": { "id": null }, "geometry": { "type": "MultiPolygon", "coordinates": [ [ [ [ -118.636228365176322, 36.300148723096449 ], [ -118.636184001792785, 36.3000502380198 ], [ -118.636308847548165, 36.300046731582462 ], [ -118.636318604909661, 36.300139915193775 ], [ -118.636228365176322, 36.300148723096449 ] ] ] ] } }
]
}
