{
  "type": "FeatureCollection",
  "features": [
    {
      "id": "63",
      "type": "Feature",
      "properties": {
        "id": null,
        "SOURCE_FILE": "/Users/maples/GitHub/mortalitree_testing/labels/enrique9_mortalitree_postfire_labels.geojson",
        "SUNETID": "enrique9",
        "FIRENAME": "CREEK",
        "FIRE_SLUG": "CREEK",
        "PREFIRE": 0,
        "PREFIRE_STATUS": "postfire",
        "TILE_Z": 17,
        "TILE_X": 22046,
        "TILE_Y": 50848,
        "TILEXYZ": [
          17,
          22046,
          50848
        ],
        "OUTPUT_FILE": "/Users/maples/GitHub/mortalitree_testing/notebooks/single_tiles/postfire/17/22046/50848.geojson",
        "OUTPUT_STATUS_DIR": "postfire",
        "FEATURE_COUNT": 30
      },
      "geometry": {
        "type": "Polygon",
        "coordinates": [
          [
            [
              -119.4483473012844,
              37.36835448618232
            ],
            [
              -119.44821743487199,
              37.36835058143588
            ],
            [
              -119.44821967723716,
              37.36830307487518
            ],
            [
              -119.448349543568,
              37.36830697961494
            ],
            [
              -119.4483473012844,
              37.36835448618232
            ]
          ]
        ]
      }
    },
    {
      "id": "64",
      "type": "Feature",
      "properties": {
        "id": null,
        "SOURCE_FILE": "/Users/maples/GitHub/mortalitree_testing/labels/enrique9_mortalitree_postfire_labels.geojson",
        "SUNETID": "enrique9",
        "FIRENAME": "CREEK",
        "FIRE_SLUG": "CREEK",
        "PREFIRE": 0,
        "PREFIRE_STATUS": "postfire",
        "TILE_Z": 17,
        "TILE_X": 22046,
        "TILE_Y": 50848,
        "TILEXYZ": [
          17,
          22046,
          50848
        ],
        "OUTPUT_FILE": "/Users/maples/GitHub/mortalitree_testing/notebooks/single_tiles/postfire/17/22046/50848.geojson",
        "OUTPUT_STATUS_DIR": "postfire",
        "FEATURE_COUNT": 30
      },
      "geometry": {
        "type": "Polygon",
        "coordinates": [
          [
            [
              -119.44809139525728,
              37.36832300462347
            ],
            [
              -119.44807516196568,
              37.368322516503156
            ],
            [
              -119.44807597740358,
              37.368305241392825
            ],
            [
              -119.4480922106915,
              37.36830572951282
            ],
            [
              -119.44809139525728,
              37.36832300462347
            ]
          ]
        ]
      }
    },
    {
      "id": "65",
      "type": "Feature",
      "properties": {
        "id": null,
        "SOURCE_FILE": "/Users/maples/GitHub/mortalitree_testing/labels/enrique9_mortalitree_postfire_labels.geojson",
        "SUNETID": "enrique9",
        "FIRENAME": "CREEK",
        "FIRE_SLUG": "CREEK",
        "PREFIRE": 0,
        "PREFIRE_STATUS": "postfire",
        "TILE_Z": 17,
        "TILE_X": 22046,
        "TILE_Y": 50848,
        "TILEXYZ": [
          17,
          22046,
          50848
        ],
        "OUTPUT_FILE": "/Users/maples/GitHub/mortalitree_testing/notebooks/single_tiles/postfire/17/22046/50848.geojson",
        "OUTPUT_STATUS_DIR": "postfire",
        "FEATURE_COUNT": 30
      },
      "geometry": {
        "type": "Polygon",
        "coordinates": [
          [
            [
              -119.44878956858618,
              37.36880027376384
            ],
            [
              -119.44856230092705,
              37.368793441144945
            ],
            [
              -119.44856943512931,
              37.36864228385932
            ],
            [
              -119.44879670233422,
              37.36864911644109
            ],
            [
              -119.44878956858618,
              37.36880027376384
            ]
          ]
        ]
      }
    },
    {
      "id": "66",
      "type": "Feature",
      "properties": {
        "id": null,
        "SOURCE_FILE": "/Users/maples/GitHub/mortalitree_testing/labels/enrique9_mortalitree_postfire_labels.geojson",
        "SUNETID": "enrique9",
        "FIRENAME": "CREEK",
        "FIRE_SLUG": "CREEK",
        "PREFIRE": 0,
        "PREFIRE_STATUS": "postfire",
        "TILE_Z": 17,
        "TILE_X": 22046,
        "TILE_Y": 50848,
        "TILEXYZ": [
          17,
          22046,
          50848
        ],
        "OUTPUT_FILE": "/Users/maples/GitHub/mortalitree_testing/notebooks/single_tiles/postfire/17/22046/50848.geojson",
        "OUTPUT_STATUS_DIR": "postfire",
        "FEATURE_COUNT": 30
      },
      "geometry": {
        "type": "Polygon",
        "coordinates": [
          [
            [
              -119.4481751456893,
              37.36872990173777
            ],
            [
              -119.44811021216857,
              37.36872794927119
            ],
            [
              -119.44811530866856,
              37.368619979833795
            ],
            [
              -119.4481802420966,
              37.368621932292804
            ],
            [
              -119.4481751456893,
              37.36872990173777
            ]
          ]
        ]
      }
    },
    {
      "id": "67",
      "type": "Feature",
      "properties": {
        "id": null,
        "SOURCE_FILE": "/Users/maples/GitHub/mortalitree_testing/labels/enrique9_mortalitree_postfire_labels.geojson",
        "SUNETID": "enrique9",
        "FIRENAME": "CREEK",
        "FIRE_SLUG": "CREEK",
        "PREFIRE": 0,
        "PREFIRE_STATUS": "postfire",
        "TILE_Z": 17,
        "TILE_X": 22046,
        "TILE_Y": 50848,
        "TILEXYZ": [
          17,
          22046,
          50848
        ],
        "OUTPUT_FILE": "/Users/maples/GitHub/mortalitree_testing/notebooks/single_tiles/postfire/17/22046/50848.geojson",
        "OUTPUT_STATUS_DIR": "postfire",
        "FEATURE_COUNT": 30
      },
      "geometry": {
        "type": "Polygon",
        "coordinates": [
          [
            [
              -119.44847779806327,
              37.36857465513293
            ],
            [
              -119.4482829978572,
              37.36856879814562
            ],
            [
              -119.44828666714055,
              37.36849106013427
            ],
            [
              -119.44848146714641,
              37.368496917105226
            ],
            [
              -119.44847779806327,
              37.36857465513293
            ]
          ]
        ]
      }
    },
    {
      "id": "68",
      "type": "Feature",
      "properties": {
        "id": null,
        "SOURCE_FILE": "/Users/maples/GitHub/mortalitree_testing/labels/enrique9_mortalitree_postfire_labels.geojson",
        "SUNETID": "enrique9",
        "FIRENAME": "CREEK",
        "FIRE_SLUG": "CREEK",
        "PREFIRE": 0,
        "PREFIRE_STATUS": "postfire",
        "TILE_Z": 17,
        "TILE_X": 22046,
        "TILE_Y": 50848,
        "TILEXYZ": [
          17,
          22046,
          50848
        ],
        "OUTPUT_FILE": "/Users/maples/GitHub/mortalitree_testing/notebooks/single_tiles/postfire/17/22046/50848.geojson",
        "OUTPUT_STATUS_DIR": "postfire",
        "FEATURE_COUNT": 30
      },
      "geometry": {
        "type": "Polygon",
        "coordinates": [
          [
            [
              -119.4482197972181,
              37.36853013613166
            ],
            [
              -119.44813863052943,
              37.36852769558457
            ],
            [
              -119.44814535780128,
              37.368385175917446
            ],
            [
              -119.44822652433699,
              37.368387616452026
            ],
            [
              -119.4482197972181,
              37.36853013613166
            ]
          ]
        ]
      }
    },
    {
      "id": "69",
      "type": "Feature",
      "properties": {
        "id": null,
        "SOURCE_FILE": "/Users/maples/GitHub/mortalitree_testing/labels/enrique9_mortalitree_postfire_labels.geojson",
        "SUNETID": "enrique9",
        "FIRENAME": "CREEK",
        "FIRE_SLUG": "CREEK",
        "PREFIRE": 0,
        "PREFIRE_STATUS": "postfire",
        "TILE_Z": 17,
        "TILE_X": 22046,
        "TILE_Y": 50848,
        "TILEXYZ": [
          17,
          22046,
          50848
        ],
        "OUTPUT_FILE": "/Users/maples/GitHub/mortalitree_testing/notebooks/single_tiles/postfire/17/22046/50848.geojson",
        "OUTPUT_STATUS_DIR": "postfire",
        "FEATURE_COUNT": 30
      },
      "geometry": {
        "type": "Polygon",
        "coordinates": [
          [
            [
              -119.4487938092612,
              37.36825113790325
            ],
            [
              -119.44873969830098,
              37.368249511150935
            ],
            [
              -119.44874357089095,
              37.36816745431601
            ],
            [
              -119.44879768179248,
              37.36816908106352
            ],
            [
              -119.4487938092612,
              37.36825113790325
            ]
          ]
        ]
      }
    },
    {
      "id": "70",
      "type": "Feature",
      "properties": {
        "id": null,
        "SOURCE_FILE": "/Users/maples/GitHub/mortalitree_testing/labels/enrique9_mortalitree_postfire_labels.geojson",
        "SUNETID": "enrique9",
        "FIRENAME": "CREEK",
        "FIRE_SLUG": "CREEK",
        "PREFIRE": 0,
        "PREFIRE_STATUS": "postfire",
        "TILE_Z": 17,
        "TILE_X": 22046,
        "TILE_Y": 50848,
        "TILEXYZ": [
          17,
          22046,
          50848
        ],
        "OUTPUT_FILE": "/Users/maples/GitHub/mortalitree_testing/notebooks/single_tiles/postfire/17/22046/50848.geojson",
        "OUTPUT_STATUS_DIR": "postfire",
        "FEATURE_COUNT": 30
      },
      "geometry": {
        "type": "Polygon",
        "coordinates": [
          [
            [
              -119.44879129760402,
              37.368132127413986
            ],
            [
              -119.44874800890399,
              37.36813082601671
            ],
            [
              -119.4487522891057,
              37.36804013161749
            ],
            [
              -119.44879557775386,
              37.368041433010525
            ],
            [
              -119.44879129760402,
              37.368132127413986
            ]
          ]
        ]
      }
    },
    {
      "id": "71",
      "type": "Feature",
      "properties": {
        "id": null,
        "SOURCE_FILE": "/Users/maples/GitHub/mortalitree_testing/labels/enrique9_mortalitree_postfire_labels.geojson",
        "SUNETID": "enrique9",
        "FIRENAME": "CREEK",
        "FIRE_SLUG": "CREEK",
        "PREFIRE": 0,
        "PREFIRE_STATUS": "postfire",
        "TILE_Z": 17,
        "TILE_X": 22046,
        "TILE_Y": 50848,
        "TILEXYZ": [
          17,
          22046,
          50848
        ],
        "OUTPUT_FILE": "/Users/maples/GitHub/mortalitree_testing/notebooks/single_tiles/postfire/17/22046/50848.geojson",
        "OUTPUT_STATUS_DIR": "postfire",
        "FEATURE_COUNT": 30
      },
      "geometry": {
        "type": "Polygon",
        "coordinates": [
          [
            [
              -119.44812767969277,
              37.368185698613495
            ],
            [
              -119.4480735688187,
              37.36818407155884
            ],
            [
              -119.44807458811134,
              37.36816247767044
            ],
            [
              -119.44812869897,
              37.36816410472383
            ],
            [
              -119.44812767969277,
              37.368185698613495
            ]
          ]
        ]
      }
    },
    {
      "id": "72",
      "type": "Feature",
      "properties": {
        "id": null,
        "SOURCE_FILE": "/Users/maples/GitHub/mortalitree_testing/labels/enrique9_mortalitree_postfire_labels.geojson",
        "SUNETID": "enrique9",
        "FIRENAME": "CREEK",
        "FIRE_SLUG": "CREEK",
        "PREFIRE": 0,
        "PREFIRE_STATUS": "postfire",
        "TILE_Z": 17,
        "TILE_X": 22046,
        "TILE_Y": 50848,
        "TILEXYZ": [
          17,
          22046,
          50848
        ],
        "OUTPUT_FILE": "/Users/maples/GitHub/mortalitree_testing/notebooks/single_tiles/postfire/17/22046/50848.geojson",
        "OUTPUT_STATUS_DIR": "postfire",
        "FEATURE_COUNT": 30
      },
      "geometry": {
        "type": "Polygon",
        "coordinates": [
          [
            [
              -119.44873359619999,
              37.36912512159288
            ],
            [
              -119.44852797220244,
              37.3691189395755
            ],
            [
              -119.44853531039537,
              37.36896346352457
            ],
            [
              -119.44874093397024,
              37.36896964550741
            ],
            [
              -119.44873359619999,
              37.36912512159288
            ]
          ]
        ]
      }
    },
    {
      "id": "73",
      "type": "Feature",
      "properties": {
        "id": null,
        "SOURCE_FILE": "/Users/maples/GitHub/mortalitree_testing/labels/enrique9_mortalitree_postfire_labels.geojson",
        "SUNETID": "enrique9",
        "FIRENAME": "CREEK",
        "FIRE_SLUG": "CREEK",
        "PREFIRE": 0,
        "PREFIRE_STATUS": "postfire",
        "TILE_Z": 17,
        "TILE_X": 22046,
        "TILE_Y": 50848,
        "TILEXYZ": [
          17,
          22046,
          50848
        ],
        "OUTPUT_FILE": "/Users/maples/GitHub/mortalitree_testing/notebooks/single_tiles/postfire/17/22046/50848.geojson",
        "OUTPUT_STATUS_DIR": "postfire",
        "FEATURE_COUNT": 30
      },
      "geometry": {
        "type": "Polygon",
        "coordinates": [
          [
            [
              -119.44836528535598,
              37.369178921807034
            ],
            [
              -119.44823000636067,
              37.36917485430425
            ],
            [
              -119.44823775289406,
              37.36901074074945
            ],
            [
              -119.4483730315958,
              37.36901480822825
            ],
            [
              -119.44836528535598,
              37.369178921807034
            ]
          ]
        ]
      }
    },
    {
      "id": "74",
      "type": "Feature",
      "properties": {
        "id": null,
        "SOURCE_FILE": "/Users/maples/GitHub/mortalitree_testing/labels/enrique9_mortalitree_postfire_labels.geojson",
        "SUNETID": "enrique9",
        "FIRENAME": "CREEK",
        "FIRE_SLUG": "CREEK",
        "PREFIRE": 0,
        "PREFIRE_STATUS": "postfire",
        "TILE_Z": 17,
        "TILE_X": 22046,
        "TILE_Y": 50848,
        "TILEXYZ": [
          17,
          22046,
          50848
        ],
        "OUTPUT_FILE": "/Users/maples/GitHub/mortalitree_testing/notebooks/single_tiles/postfire/17/22046/50848.geojson",
        "OUTPUT_STATUS_DIR": "postfire",
        "FEATURE_COUNT": 30
      },
      "geometry": {
        "type": "Polygon",
        "coordinates": [
          [
            [
              -119.44795838238583,
              37.36924669755657
            ],
            [
              -119.44781228100524,
              37.36924230413749
            ],
            [
              -119.4478175819072,
              37.36913001596866
            ],
            [
              -119.4479636830709,
              37.36913440937
            ],
            [
              -119.44795838238583,
              37.36924669755657
            ]
          ]
        ]
      }
    },
    {
      "id": "75",
      "type": "Feature",
      "properties": {
        "id": null,
        "SOURCE_FILE": "/Users/maples/GitHub/mortalitree_testing/labels/enrique9_mortalitree_postfire_labels.geojson",
        "SUNETID": "enrique9",
        "FIRENAME": "CREEK",
        "FIRE_SLUG": "CREEK",
        "PREFIRE": 0,
        "PREFIRE_STATUS": "postfire",
        "TILE_Z": 17,
        "TILE_X": 22046,
        "TILE_Y": 50848,
        "TILEXYZ": [
          17,
          22046,
          50848
        ],
        "OUTPUT_FILE": "/Users/maples/GitHub/mortalitree_testing/notebooks/single_tiles/postfire/17/22046/50848.geojson",
        "OUTPUT_STATUS_DIR": "postfire",
        "FEATURE_COUNT": 30
      },
      "geometry": {
        "type": "Polygon",
        "coordinates": [
          [
            [
              -119.44872007428513,
              37.36949773837086
            ],
            [
              -119.44847386539722,
              37.36949033608561
            ],
            [
              -119.44847947112684,
              37.36937156967276
            ],
            [
              -119.44872567962817,
              37.369378971926395
            ],
            [
              -119.44872007428513,
              37.36949773837086
            ]
          ]
        ]
      }
    },
    {
      "id": "76",
      "type": "Feature",
      "properties": {
        "id": null,
        "SOURCE_FILE": "/Users/maples/GitHub/mortalitree_testing/labels/enrique9_mortalitree_postfire_labels.geojson",
        "SUNETID": "enrique9",
        "FIRENAME": "CREEK",
        "FIRE_SLUG": "CREEK",
        "PREFIRE": 0,
        "PREFIRE_STATUS": "postfire",
        "TILE_Z": 17,
        "TILE_X": 22046,
        "TILE_Y": 50848,
        "TILEXYZ": [
          17,
          22046,
          50848
        ],
        "OUTPUT_FILE": "/Users/maples/GitHub/mortalitree_testing/notebooks/single_tiles/postfire/17/22046/50848.geojson",
        "OUTPUT_STATUS_DIR": "postfire",
        "FEATURE_COUNT": 30
      },
      "geometry": {
        "type": "Polygon",
        "coordinates": [
          [
            [
              -119.44829751555066,
              37.36946665294513
            ],
            [
              -119.44810812425548,
              37.369460958252304
            ],
            [
              -119.44811607499881,
              37.36929252595013
            ],
            [
              -119.44830546587222,
              37.369298220608464
            ],
            [
              -119.44829751555066,
              37.36946665294513
            ]
          ]
        ]
      }
    },
    {
      "id": "77",
      "type": "Feature",
      "properties": {
        "id": null,
        "SOURCE_FILE": "/Users/maples/GitHub/mortalitree_testing/labels/enrique9_mortalitree_postfire_labels.geojson",
        "SUNETID": "enrique9",
        "FIRENAME": "CREEK",
        "FIRE_SLUG": "CREEK",
        "PREFIRE": 0,
        "PREFIRE_STATUS": "postfire",
        "TILE_Z": 17,
        "TILE_X": 22046,
        "TILE_Y": 50848,
        "TILEXYZ": [
          17,
          22046,
          50848
        ],
        "OUTPUT_FILE": "/Users/maples/GitHub/mortalitree_testing/notebooks/single_tiles/postfire/17/22046/50848.geojson",
        "OUTPUT_STATUS_DIR": "postfire",
        "FEATURE_COUNT": 30
      },
      "geometry": {
        "type": "Polygon",
        "coordinates": [
          [
            [
              -119.44854375242386,
              37.36981788658041
            ],
            [
              -119.44843552828661,
              37.369814632706664
            ],
            [
              -119.44844082836927,
              37.369702344472685
            ],
            [
              -119.44854905234584,
              37.3697055983333
            ],
            [
              -119.44854375242386,
              37.36981788658041
            ]
          ]
        ]
      }
    },
    {
      "id": "78",
      "type": "Feature",
      "properties": {
        "id": null,
        "SOURCE_FILE": "/Users/maples/GitHub/mortalitree_testing/labels/enrique9_mortalitree_postfire_labels.geojson",
        "SUNETID": "enrique9",
        "FIRENAME": "CREEK",
        "FIRE_SLUG": "CREEK",
        "PREFIRE": 0,
        "PREFIRE_STATUS": "postfire",
        "TILE_Z": 17,
        "TILE_X": 22046,
        "TILE_Y": 50848,
        "TILEXYZ": [
          17,
          22046,
          50848
        ],
        "OUTPUT_FILE": "/Users/maples/GitHub/mortalitree_testing/notebooks/single_tiles/postfire/17/22046/50848.geojson",
        "OUTPUT_STATUS_DIR": "postfire",
        "FEATURE_COUNT": 30
      },
      "geometry": {
        "type": "Polygon",
        "coordinates": [
          [
            [
              -119.44878995267054,
              37.369710678428774
            ],
            [
              -119.44864926145809,
              37.36970644867677
            ],
            [
              -119.44865680339176,
              37.36954665384144
            ],
            [
              -119.44879749430694,
              37.36955088356913
            ],
            [
              -119.44878995267054,
              37.369710678428774
            ]
          ]
        ]
      }
    },
    {
      "id": "79",
      "type": "Feature",
      "properties": {
        "id": null,
        "SOURCE_FILE": "/Users/maples/GitHub/mortalitree_testing/labels/enrique9_mortalitree_postfire_labels.geojson",
        "SUNETID": "enrique9",
        "FIRENAME": "CREEK",
        "FIRE_SLUG": "CREEK",
        "PREFIRE": 0,
        "PREFIRE_STATUS": "postfire",
        "TILE_Z": 17,
        "TILE_X": 22046,
        "TILE_Y": 50848,
        "TILEXYZ": [
          17,
          22046,
          50848
        ],
        "OUTPUT_FILE": "/Users/maples/GitHub/mortalitree_testing/notebooks/single_tiles/postfire/17/22046/50848.geojson",
        "OUTPUT_STATUS_DIR": "postfire",
        "FEATURE_COUNT": 30
      },
      "geometry": {
        "type": "Polygon",
        "coordinates": [
          [
            [
              -119.44861735007574,
              37.369636290746676
            ],
            [
              -119.4484333694815,
              37.36963075923979
            ],
            [
              -119.44843703875048,
              37.36955302122972
            ],
            [
              -119.44862101915561,
              37.36955855272114
            ],
            [
              -119.44861735007574,
              37.369636290746676
            ]
          ]
        ]
      }
    },
    {
      "id": "80",
      "type": "Feature",
      "properties": {
        "id": null,
        "SOURCE_FILE": "/Users/maples/GitHub/mortalitree_testing/labels/enrique9_mortalitree_postfire_labels.geojson",
        "SUNETID": "enrique9",
        "FIRENAME": "CREEK",
        "FIRE_SLUG": "CREEK",
        "PREFIRE": 0,
        "PREFIRE_STATUS": "postfire",
        "TILE_Z": 17,
        "TILE_X": 22046,
        "TILE_Y": 50848,
        "TILEXYZ": [
          17,
          22046,
          50848
        ],
        "OUTPUT_FILE": "/Users/maples/GitHub/mortalitree_testing/notebooks/single_tiles/postfire/17/22046/50848.geojson",
        "OUTPUT_STATUS_DIR": "postfire",
        "FEATURE_COUNT": 30
      },
      "geometry": {
        "type": "Polygon",
        "coordinates": [
          [
            [
              -119.44729411149817,
              37.36922780201367
            ],
            [
              -119.447250822239,
              37.36922650003606
            ],
            [
              -119.4472520457191,
              37.3692005873977
            ],
            [
              -119.44729533496341,
              37.36920188937409
            ],
            [
              -119.44729411149817,
              37.36922780201367
            ]
          ]
        ]
      }
    },
    {
      "id": "81",
      "type": "Feature",
      "properties": {
        "id": null,
        "SOURCE_FILE": "/Users/maples/GitHub/mortalitree_testing/labels/enrique9_mortalitree_postfire_labels.geojson",
        "SUNETID": "enrique9",
        "FIRENAME": "CREEK",
        "FIRE_SLUG": "CREEK",
        "PREFIRE": 0,
        "PREFIRE_STATUS": "postfire",
        "TILE_Z": 17,
        "TILE_X": 22046,
        "TILE_Y": 50848,
        "TILEXYZ": [
          17,
          22046,
          50848
        ],
        "OUTPUT_FILE": "/Users/maples/GitHub/mortalitree_testing/notebooks/single_tiles/postfire/17/22046/50848.geojson",
        "OUTPUT_STATUS_DIR": "postfire",
        "FEATURE_COUNT": 30
      },
      "geometry": {
        "type": "Polygon",
        "coordinates": [
          [
            [
              -119.44726391121199,
              37.36915012662199
            ],
            [
              -119.44720709412034,
              37.36914841776164
            ],
            [
              -119.44720943914469,
              37.369098751873025
            ],
            [
              -119.447266256199,
              37.369100460730316
            ],
            [
              -119.44726391121199,
              37.36915012662199
            ]
          ]
        ]
      }
    },
    {
      "id": "82",
      "type": "Feature",
      "properties": {
        "id": null,
        "SOURCE_FILE": "/Users/maples/GitHub/mortalitree_testing/labels/enrique9_mortalitree_postfire_labels.geojson",
        "SUNETID": "enrique9",
        "FIRENAME": "CREEK",
        "FIRE_SLUG": "CREEK",
        "PREFIRE": 0,
        "PREFIRE_STATUS": "postfire",
        "TILE_Z": 17,
        "TILE_X": 22046,
        "TILE_Y": 50848,
        "TILEXYZ": [
          17,
          22046,
          50848
        ],
        "OUTPUT_FILE": "/Users/maples/GitHub/mortalitree_testing/notebooks/single_tiles/postfire/17/22046/50848.geojson",
        "OUTPUT_STATUS_DIR": "postfire",
        "FEATURE_COUNT": 30
      },
      "geometry": {
        "type": "Polygon",
        "coordinates": [
          [
            [
              -119.44779566731007,
              37.369278566241974
            ],
            [
              -119.44767662170896,
              37.36927498626624
            ],
            [
              -119.44768059754453,
              37.36919077015276
            ],
            [
              -119.44779964301307,
              37.36919435011765
            ],
            [
              -119.44779566731007,
              37.369278566241974
            ]
          ]
        ]
      }
    },
    {
      "id": "83",
      "type": "Feature",
      "properties": {
        "id": null,
        "SOURCE_FILE": "/Users/maples/GitHub/mortalitree_testing/labels/enrique9_mortalitree_postfire_labels.geojson",
        "SUNETID": "enrique9",
        "FIRENAME": "CREEK",
        "FIRE_SLUG": "CREEK",
        "PREFIRE": 0,
        "PREFIRE_STATUS": "postfire",
        "TILE_Z": 17,
        "TILE_X": 22046,
        "TILE_Y": 50848,
        "TILEXYZ": [
          17,
          22046,
          50848
        ],
        "OUTPUT_FILE": "/Users/maples/GitHub/mortalitree_testing/notebooks/single_tiles/postfire/17/22046/50848.geojson",
        "OUTPUT_STATUS_DIR": "postfire",
        "FEATURE_COUNT": 30
      },
      "geometry": {
        "type": "Polygon",
        "coordinates": [
          [
            [
              -119.44760190039412,
              37.36910731148959
            ],
            [
              -119.44749908853818,
              37.36910421954299
            ],
            [
              -119.44750418598323,
              37.36899625018416
            ],
            [
              -119.44760699769239,
              37.36899934211876
            ],
            [
              -119.44760190039412,
              37.36910731148959
            ]
          ]
        ]
      }
    },
    {
      "id": "85",
      "type": "Feature",
      "properties": {
        "id": null,
        "SOURCE_FILE": "/Users/maples/GitHub/mortalitree_testing/labels/enrique9_mortalitree_postfire_labels.geojson",
        "SUNETID": "enrique9",
        "FIRENAME": "CREEK",
        "FIRE_SLUG": "CREEK",
        "PREFIRE": 0,
        "PREFIRE_STATUS": "postfire",
        "TILE_Z": 17,
        "TILE_X": 22046,
        "TILE_Y": 50848,
        "TILEXYZ": [
          17,
          22046,
          50848
        ],
        "OUTPUT_FILE": "/Users/maples/GitHub/mortalitree_testing/notebooks/single_tiles/postfire/17/22046/50848.geojson",
        "OUTPUT_STATUS_DIR": "postfire",
        "FEATURE_COUNT": 30
      },
      "geometry": {
        "type": "Polygon",
        "coordinates": [
          [
            [
              -119.44696283878356,
              37.369759532596895
            ],
            [
              -119.44682755895185,
              37.36975546343642
            ],
            [
              -119.44683082201249,
              37.36968636310511
            ],
            [
              -119.44696610172062,
              37.36969043225547
            ],
            [
              -119.44696283878356,
              37.369759532596895
            ]
          ]
        ]
      }
    },
    {
      "id": "86",
      "type": "Feature",
      "properties": {
        "id": null,
        "SOURCE_FILE": "/Users/maples/GitHub/mortalitree_testing/labels/enrique9_mortalitree_postfire_labels.geojson",
        "SUNETID": "enrique9",
        "FIRENAME": "CREEK",
        "FIRE_SLUG": "CREEK",
        "PREFIRE": 0,
        "PREFIRE_STATUS": "postfire",
        "TILE_Z": 17,
        "TILE_X": 22046,
        "TILE_Y": 50848,
        "TILEXYZ": [
          17,
          22046,
          50848
        ],
        "OUTPUT_FILE": "/Users/maples/GitHub/mortalitree_testing/notebooks/single_tiles/postfire/17/22046/50848.geojson",
        "OUTPUT_STATUS_DIR": "postfire",
        "FEATURE_COUNT": 30
      },
      "geometry": {
        "type": "Polygon",
        "coordinates": [
          [
            [
              -119.44732408810188,
              37.369396293698294
            ],
            [
              -119.4471238748473,
              37.36939027194712
            ],
            [
              -119.4471281571989,
              37.36929957772723
            ],
            [
              -119.4473283702134,
              37.369305599458784
            ],
            [
              -119.44732408810188,
              37.369396293698294
            ]
          ]
        ]
      }
    },
    {
      "id": "87",
      "type": "Feature",
      "properties": {
        "id": null,
        "SOURCE_FILE": "/Users/maples/GitHub/mortalitree_testing/labels/enrique9_mortalitree_postfire_labels.geojson",
        "SUNETID": "enrique9",
        "FIRENAME": "CREEK",
        "FIRE_SLUG": "CREEK",
        "PREFIRE": 0,
        "PREFIRE_STATUS": "postfire",
        "TILE_Z": 17,
        "TILE_X": 22046,
        "TILE_Y": 50848,
        "TILEXYZ": [
          17,
          22046,
          50848
        ],
        "OUTPUT_FILE": "/Users/maples/GitHub/mortalitree_testing/notebooks/single_tiles/postfire/17/22046/50848.geojson",
        "OUTPUT_STATUS_DIR": "postfire",
        "FEATURE_COUNT": 30
      },
      "geometry": {
        "type": "Polygon",
        "coordinates": [
          [
            [
              -119.44804458955372,
              37.36940066155402
            ],
            [
              -119.4478660208223,
              37.36939529190654
            ],
            [
              -119.44787111779513,
              37.36928732250998
            ],
            [
              -119.44804968627163,
              37.36929269213661
            ],
            [
              -119.44804458955372,
              37.36940066155402
            ]
          ]
        ]
      }
    },
    {
      "id": "88",
      "type": "Feature",
      "properties": {
        "id": null,
        "SOURCE_FILE": "/Users/maples/GitHub/mortalitree_testing/labels/enrique9_mortalitree_postfire_labels.geojson",
        "SUNETID": "enrique9",
        "FIRENAME": "CREEK",
        "FIRE_SLUG": "CREEK",
        "PREFIRE": 0,
        "PREFIRE_STATUS": "postfire",
        "TILE_Z": 17,
        "TILE_X": 22046,
        "TILE_Y": 50848,
        "TILEXYZ": [
          17,
          22046,
          50848
        ],
        "OUTPUT_FILE": "/Users/maples/GitHub/mortalitree_testing/notebooks/single_tiles/postfire/17/22046/50848.geojson",
        "OUTPUT_STATUS_DIR": "postfire",
        "FEATURE_COUNT": 30
      },
      "geometry": {
        "type": "Polygon",
        "coordinates": [
          [
            [
              -119.4481422700665,
              37.36905328126156
            ],
            [
              -119.44799075788293,
              37.36904872537535
            ],
            [
              -119.44799728169279,
              37.36891052452047
            ],
            [
              -119.44814879359949,
              37.36891508038404
            ],
            [
              -119.4481422700665,
              37.36905328126156
            ]
          ]
        ]
      }
    },
    {
      "id": "89",
      "type": "Feature",
      "properties": {
        "id": null,
        "SOURCE_FILE": "/Users/maples/GitHub/mortalitree_testing/labels/enrique9_mortalitree_postfire_labels.geojson",
        "SUNETID": "enrique9",
        "FIRENAME": "CREEK",
        "FIRE_SLUG": "CREEK",
        "PREFIRE": 0,
        "PREFIRE_STATUS": "postfire",
        "TILE_Z": 17,
        "TILE_X": 22046,
        "TILE_Y": 50848,
        "TILEXYZ": [
          17,
          22046,
          50848
        ],
        "OUTPUT_FILE": "/Users/maples/GitHub/mortalitree_testing/notebooks/single_tiles/postfire/17/22046/50848.geojson",
        "OUTPUT_STATUS_DIR": "postfire",
        "FEATURE_COUNT": 30
      },
      "geometry": {
        "type": "Polygon",
        "coordinates": [
          [
            [
              -119.44795725451061,
              37.368840122383816
            ],
            [
              -119.44793019884304,
              37.368839308808504
            ],
            [
              -119.4479318298151,
              37.36880475859625
            ],
            [
              -119.44795888547033,
              37.36880557217052
            ],
            [
              -119.44795725451061,
              37.368840122383816
            ]
          ]
        ]
      }
    },
    {
      "id": "90",
      "type": "Feature",
      "properties": {
        "id": null,
        "SOURCE_FILE": "/Users/maples/GitHub/mortalitree_testing/labels/enrique9_mortalitree_postfire_labels.geojson",
        "SUNETID": "enrique9",
        "FIRENAME": "CREEK",
        "FIRE_SLUG": "CREEK",
        "PREFIRE": 0,
        "PREFIRE_STATUS": "postfire",
        "TILE_Z": 17,
        "TILE_X": 22046,
        "TILE_Y": 50848,
        "TILEXYZ": [
          17,
          22046,
          50848
        ],
        "OUTPUT_FILE": "/Users/maples/GitHub/mortalitree_testing/notebooks/single_tiles/postfire/17/22046/50848.geojson",
        "OUTPUT_STATUS_DIR": "postfire",
        "FEATURE_COUNT": 30
      },
      "geometry": {
        "type": "Polygon",
        "coordinates": [
          [
            [
              -119.44877539447627,
              37.36930153697135
            ],
            [
              -119.44843990192234,
              37.369291450416384
            ],
            [
              -119.44844540574293,
              37.36917484339325
            ],
            [
              -119.44878089777963,
              37.36918492990593
            ],
            [
              -119.44877539447627,
              37.36930153697135
            ]
          ]
        ]
      }
    },
    {
      "id": "91",
      "type": "Feature",
      "properties": {
        "id": null,
        "SOURCE_FILE": "/Users/maples/GitHub/mortalitree_testing/labels/enrique9_mortalitree_postfire_labels.geojson",
        "SUNETID": "enrique9",
        "FIRENAME": "CREEK",
        "FIRE_SLUG": "CREEK",
        "PREFIRE": 0,
        "PREFIRE_STATUS": "postfire",
        "TILE_Z": 17,
        "TILE_X": 22046,
        "TILE_Y": 50848,
        "TILEXYZ": [
          17,
          22046,
          50848
        ],
        "OUTPUT_FILE": "/Users/maples/GitHub/mortalitree_testing/notebooks/single_tiles/postfire/17/22046/50848.geojson",
        "OUTPUT_STATUS_DIR": "postfire",
        "FEATURE_COUNT": 30
      },
      "geometry": {
        "type": "Polygon",
        "coordinates": [
          [
            [
              -119.44696511560663,
              37.36942442090408
            ],
            [
              -119.4468568922202,
              37.36942116561488
            ],
            [
              -119.44686382606983,
              37.36927432739659
            ],
            [
              -119.44697204924617,
              37.36927758266859
            ],
            [
              -119.44696511560663,
              37.36942442090408
            ]
          ]
        ]
      }
    },
    {
      "id": "92",
      "type": "Feature",
      "properties": {
        "id": null,
        "SOURCE_FILE": "/Users/maples/GitHub/mortalitree_testing/labels/enrique9_mortalitree_postfire_labels.geojson",
        "SUNETID": "enrique9",
        "FIRENAME": "CREEK",
        "FIRE_SLUG": "CREEK",
        "PREFIRE": 0,
        "PREFIRE_STATUS": "postfire",
        "TILE_Z": 17,
        "TILE_X": 22046,
        "TILE_Y": 50848,
        "TILEXYZ": [
          17,
          22046,
          50848
        ],
        "OUTPUT_FILE": "/Users/maples/GitHub/mortalitree_testing/notebooks/single_tiles/postfire/17/22046/50848.geojson",
        "OUTPUT_STATUS_DIR": "postfire",
        "FEATURE_COUNT": 30
      },
      "geometry": {
        "type": "Polygon",
        "coordinates": [
          [
            [
              -119.44626878439514,
              37.36988353839104
            ],
            [
              -119.44618761642046,
              37.369881096430106
            ],
            [
              -119.44619128803988,
              37.36980335861302
            ],
            [
              -119.44627245593112,
              37.369805800567136
            ],
            [
              -119.44626878439514,
              37.36988353839104
            ]
          ]
        ]
      }
    },
    {
      "id": "93",
      "type": "Feature",
      "properties": {
        "id": null,
        "SOURCE_FILE": "/Users/maples/GitHub/mortalitree_testing/labels/enrique9_mortalitree_postfire_labels.geojson",
        "SUNETID": "enrique9",
        "FIRENAME": "CREEK",
        "FIRE_SLUG": "CREEK",
        "PREFIRE": 0,
        "PREFIRE_STATUS": "postfire",
        "TILE_Z": 17,
        "TILE_X": 22046,
        "TILE_Y": 50848,
        "TILEXYZ": [
          17,
          22046,
          50848
        ],
        "OUTPUT_FILE": "/Users/maples/GitHub/mortalitree_testing/notebooks/single_tiles/postfire/17/22046/50848.geojson",
        "OUTPUT_STATUS_DIR": "postfire",
        "FEATURE_COUNT": 30
      },
      "geometry": {
        "type": "Polygon",
        "coordinates": [
          [
            [
              -119.4468063830992,
              37.36991701040694
            ],
            [
              -119.44672521504104,
              37.36991456881309
            ],
            [
              -119.44672725452563,
              37.369871381112105
            ],
            [
              -119.44680842253743,
              37.36987382270216
            ],
            [
              -119.4468063830992,
              37.36991701040694
            ]
          ]
        ]
      }
    }
  ],
  "properties": {
    "SOURCE_FILE": "/Users/maples/GitHub/mortalitree_testing/labels/enrique9_mortalitree_postfire_labels.geojson",
    "SUNETID": "enrique9",
    "FIRENAME": "CREEK",
    "FIRE_SLUG": "CREEK",
    "PREFIRE": 0,
    "PREFIRE_STATUS": "postfire",
    "TILE_Z": 17,
    "TILE_X": 22046,
    "TILE_Y": 50848,
    "TILEXYZ": [
      17,
      22046,
      50848
    ],
    "OUTPUT_FILE": "/Users/maples/GitHub/mortalitree_testing/notebooks/single_tiles/postfire/17/22046/50848.geojson",
    "OUTPUT_STATUS_DIR": "postfire",
    "FEATURE_COUNT": 30
  }
}