{
  "type": "FeatureCollection",
  "features": [
    {
      "id": "1202",
      "type": "Feature",
      "properties": {
        "id": null,
        "SOURCE_FILE": "/Users/maples/GitHub/mortalitree_testing/labels/annayu_mortalitree_postfire_labels.geojson",
        "SUNETID": "annayu",
        "FIRENAME": "CASTLE",
        "FIRE_SLUG": "CASTLE",
        "PREFIRE": 0,
        "PREFIRE_STATUS": "postfire",
        "TILE_Z": 17,
        "TILE_X": 22327,
        "TILE_Y": 51325,
        "TILEXYZ": [
          17,
          22327,
          51325
        ],
        "OUTPUT_FILE": "/Users/maples/GitHub/mortalitree_testing/notebooks/single_tiles/postfire/17/22327/51325.geojson",
        "OUTPUT_STATUS_DIR": "postfire",
        "FEATURE_COUNT": 2
      },
      "geometry": {
        "type": "Polygon",
        "coordinates": [
          [
            [
              -118.6744996618645,
              36.319566314796326
            ],
            [
              -118.67439539933487,
              36.31956253475048
            ],
            [
              -118.67439602354942,
              36.319551259461186
            ],
            [
              -118.67450049532721,
              36.319551259461186
            ],
            [
              -118.6744996618645,
              36.319566314796326
            ]
          ]
        ]
      }
    },
    {
      "id": "1203",
      "type": "Feature",
      "properties": {
        "id": null,
        "SOURCE_FILE": "/Users/maples/GitHub/mortalitree_testing/labels/annayu_mortalitree_postfire_labels.geojson",
        "SUNETID": "annayu",
        "FIRENAME": "CASTLE",
        "FIRE_SLUG": "CASTLE",
        "PREFIRE": 0,
        "PREFIRE_STATUS": "postfire",
        "TILE_Z": 17,
        "TILE_X": 22327,
        "TILE_Y": 51325,
        "TILEXYZ": [
          17,
          22327,
          51325
        ],
        "OUTPUT_FILE": "/Users/maples/GitHub/mortalitree_testing/notebooks/single_tiles/postfire/17/22327/51325.geojson",
        "OUTPUT_STATUS_DIR": "postfire",
        "FEATURE_COUNT": 2
      },
      "geometry": {
        "type": "Polygon",
        "coordinates": [
          [
            [
              -118.67464656360386,
              36.319554731785665
            ],
            [
              -118.67455078547403,
              36.319551259461186
            ],
            [
              -118.67464675582508,
              36.319551259461186
            ],
            [
              -118.67464656360386,
              36.319554731785665
            ]
          ]
        ]
      }
    }
  ],
  "properties": {
    "SOURCE_FILE": "/Users/maples/GitHub/mortalitree_testing/labels/annayu_mortalitree_postfire_labels.geojson",
    "SUNETID": "annayu",
    "FIRENAME": "CASTLE",
    "FIRE_SLUG": "CASTLE",
    "PREFIRE": 0,
    "PREFIRE_STATUS": "postfire",
    "TILE_Z": 17,
    "TILE_X": 22327,
    "TILE_Y": 51325,
    "TILEXYZ": [
      17,
      22327,
      51325
    ],
    "OUTPUT_FILE": "/Users/maples/GitHub/mortalitree_testing/notebooks/single_tiles/postfire/17/22327/51325.geojson",
    "OUTPUT_STATUS_DIR": "postfire",
    "FEATURE_COUNT": 2
  }
}