{
  "type": "FeatureCollection",
  "features": [
    {
      "id": "523",
      "type": "Feature",
      "properties": {
        "id": null,
        "SOURCE_FILE": "/Users/maples/GitHub/mortalitree_testing/labels/agaleana_mortalitree_postfire_labels.geojson",
        "SUNETID": "agaleana",
        "FIRENAME": "CASTLE",
        "FIRE_SLUG": "CASTLE",
        "PREFIRE": 0,
        "PREFIRE_STATUS": "postfire",
        "TILE_Z": 17,
        "TILE_X": 22429,
        "TILE_Y": 51345,
        "TILEXYZ": [
          17,
          22429,
          51345
        ],
        "OUTPUT_FILE": "/Users/maples/GitHub/mortalitree_testing/notebooks/single_tiles/postfire/17/22429/51345.geojson",
        "OUTPUT_STATUS_DIR": "postfire",
        "FEATURE_COUNT": 2
      },
      "geometry": {
        "type": "Polygon",
        "coordinates": [
          [
            [
              -118.39686207989463,
              36.27640131320226
            ],
            [
              -118.39686574570266,
              36.27633900671187
            ],
            [
              -118.39691162109375,
              36.27634077627014
            ],
            [
              -118.39691162109375,
              36.2764032241651
            ],
            [
              -118.39686207989463,
              36.27640131320226
            ]
          ]
        ]
      }
    },
    {
      "id": "524",
      "type": "Feature",
      "properties": {
        "id": null,
        "SOURCE_FILE": "/Users/maples/GitHub/mortalitree_testing/labels/agaleana_mortalitree_postfire_labels.geojson",
        "SUNETID": "agaleana",
        "FIRENAME": "CASTLE",
        "FIRE_SLUG": "CASTLE",
        "PREFIRE": 0,
        "PREFIRE_STATUS": "postfire",
        "TILE_Z": 17,
        "TILE_X": 22429,
        "TILE_Y": 51345,
        "TILEXYZ": [
          17,
          22429,
          51345
        ],
        "OUTPUT_FILE": "/Users/maples/GitHub/mortalitree_testing/notebooks/single_tiles/postfire/17/22429/51345.geojson",
        "OUTPUT_STATUS_DIR": "postfire",
        "FEATURE_COUNT": 2
      },
      "geometry": {
        "type": "Polygon",
        "coordinates": [
          [
            [
              -118.39686299768937,
              36.276331094724895
            ],
            [
              -118.39686452510651,
              36.27630513368701
            ],
            [
              -118.39691162109375,
              36.27630695032987
            ],
            [
              -118.39691162109375,
              36.27633297028627
            ],
            [
              -118.39686299768937,
              36.276331094724895
            ]
          ]
        ]
      }
    }
  ],
  "properties": {
    "SOURCE_FILE": "/Users/maples/GitHub/mortalitree_testing/labels/agaleana_mortalitree_postfire_labels.geojson",
    "SUNETID": "agaleana",
    "FIRENAME": "CASTLE",
    "FIRE_SLUG": "CASTLE",
    "PREFIRE": 0,
    "PREFIRE_STATUS": "postfire",
    "TILE_Z": 17,
    "TILE_X": 22429,
    "TILE_Y": 51345,
    "TILEXYZ": [
      17,
      22429,
      51345
    ],
    "OUTPUT_FILE": "/Users/maples/GitHub/mortalitree_testing/notebooks/single_tiles/postfire/17/22429/51345.geojson",
    "OUTPUT_STATUS_DIR": "postfire",
    "FEATURE_COUNT": 2
  }
}