{
  "type": "FeatureCollection",
  "features": [
    {
      "id": "1",
      "type": "Feature",
      "properties": {
        "id": null,
        "SOURCE_FILE": "/Users/maples/GitHub/mortalitree_testing/labels/snick_mortalitree_postfire_labels.geojson",
        "SUNETID": "snick",
        "FIRENAME": "SCU LIGHTNING COMPLEX",
        "FIRE_SLUG": "SCU_LIGHTNING_COMPLEX",
        "PREFIRE": 0,
        "PREFIRE_STATUS": "postfire",
        "TILE_Z": 17,
        "TILE_X": 21221,
        "TILE_Y": 50830,
        "TILEXYZ": [
          17,
          21221,
          50830
        ],
        "OUTPUT_FILE": "/Users/maples/GitHub/mortalitree_testing/notebooks/single_tiles/postfire/17/21221/50830.geojson",
        "OUTPUT_STATUS_DIR": "postfire",
        "FEATURE_COUNT": 6
      },
      "geometry": {
        "type": "Polygon",
        "coordinates": [
          [
            [
              -121.71461457381402,
              37.40943717748788
            ],
            [
              -121.71445244173928,
              37.40943717748788
            ],
            [
              -121.71445256050488,
              37.40943022829406
            ],
            [
              -121.71461466244237,
              37.40943199102534
            ],
            [
              -121.71461457381402,
              37.40943717748788
            ]
          ]
        ]
      }
    },
    {
      "id": "51",
      "type": "Feature",
      "properties": {
        "id": null,
        "SOURCE_FILE": "/Users/maples/GitHub/mortalitree_testing/labels/snick_mortalitree_postfire_labels.geojson",
        "SUNETID": "snick",
        "FIRENAME": "SCU LIGHTNING COMPLEX",
        "FIRE_SLUG": "SCU_LIGHTNING_COMPLEX",
        "PREFIRE": 0,
        "PREFIRE_STATUS": "postfire",
        "TILE_Z": 17,
        "TILE_X": 21221,
        "TILE_Y": 50830,
        "TILEXYZ": [
          17,
          21221,
          50830
        ],
        "OUTPUT_FILE": "/Users/maples/GitHub/mortalitree_testing/notebooks/single_tiles/postfire/17/21221/50830.geojson",
        "OUTPUT_STATUS_DIR": "postfire",
        "FEATURE_COUNT": 6
      },
      "geometry": {
        "type": "Polygon",
        "coordinates": [
          [
            [
              -121.71395130625227,
              37.40943717748788
            ],
            [
              -121.713759695632,
              37.40943717748788
            ],
            [
              -121.71376024481057,
              37.40940506129216
            ],
            [
              -121.71395181971295,
              37.40940714561677
            ],
            [
              -121.71395130625227,
              37.40943717748788
            ]
          ]
        ]
      }
    },
    {
      "id": "53",
      "type": "Feature",
      "properties": {
        "id": null,
        "SOURCE_FILE": "/Users/maples/GitHub/mortalitree_testing/labels/snick_mortalitree_postfire_labels.geojson",
        "SUNETID": "snick",
        "FIRENAME": "SCU LIGHTNING COMPLEX",
        "FIRE_SLUG": "SCU_LIGHTNING_COMPLEX",
        "PREFIRE": 0,
        "PREFIRE_STATUS": "postfire",
        "TILE_Z": 17,
        "TILE_X": 21221,
        "TILE_Y": 50830,
        "TILEXYZ": [
          17,
          21221,
          50830
        ],
        "OUTPUT_FILE": "/Users/maples/GitHub/mortalitree_testing/notebooks/single_tiles/postfire/17/21221/50830.geojson",
        "OUTPUT_STATUS_DIR": "postfire",
        "FEATURE_COUNT": 6
      },
      "geometry": {
        "type": "Polygon",
        "coordinates": [
          [
            [
              -121.71357545465447,
              37.40943717748788
            ],
            [
              -121.7134280618751,
              37.40943717748788
            ],
            [
              -121.71342907503517,
              37.40937794263804
            ],
            [
              -121.71357644027063,
              37.409379546403976
            ],
            [
              -121.71357545465447,
              37.40943717748788
            ]
          ]
        ]
      }
    },
    {
      "id": "71",
      "type": "Feature",
      "properties": {
        "id": null,
        "SOURCE_FILE": "/Users/maples/GitHub/mortalitree_testing/labels/snick_mortalitree_postfire_labels.geojson",
        "SUNETID": "snick",
        "FIRENAME": "SCU LIGHTNING COMPLEX",
        "FIRE_SLUG": "SCU_LIGHTNING_COMPLEX",
        "PREFIRE": 0,
        "PREFIRE_STATUS": "postfire",
        "TILE_Z": 17,
        "TILE_X": 21221,
        "TILE_Y": 50830,
        "TILEXYZ": [
          17,
          21221,
          50830
        ],
        "OUTPUT_FILE": "/Users/maples/GitHub/mortalitree_testing/notebooks/single_tiles/postfire/17/21221/50830.geojson",
        "OUTPUT_STATUS_DIR": "postfire",
        "FEATURE_COUNT": 6
      },
      "geometry": {
        "type": "Polygon",
        "coordinates": [
          [
            [
              -121.71276482520717,
              37.409435377100735
            ],
            [
              -121.71293017945811,
              37.40943717748788
            ],
            [
              -121.71276479439706,
              37.40943717748788
            ],
            [
              -121.71276482520717,
              37.409435377100735
            ]
          ]
        ]
      }
    },
    {
      "id": "73",
      "type": "Feature",
      "properties": {
        "id": null,
        "SOURCE_FILE": "/Users/maples/GitHub/mortalitree_testing/labels/snick_mortalitree_postfire_labels.geojson",
        "SUNETID": "snick",
        "FIRENAME": "SCU LIGHTNING COMPLEX",
        "FIRE_SLUG": "SCU_LIGHTNING_COMPLEX",
        "PREFIRE": 0,
        "PREFIRE_STATUS": "postfire",
        "TILE_Z": 17,
        "TILE_X": 21221,
        "TILE_Y": 50830,
        "TILEXYZ": [
          17,
          21221,
          50830
        ],
        "OUTPUT_FILE": "/Users/maples/GitHub/mortalitree_testing/notebooks/single_tiles/postfire/17/21221/50830.geojson",
        "OUTPUT_STATUS_DIR": "postfire",
        "FEATURE_COUNT": 6
      },
      "geometry": {
        "type": "Polygon",
        "coordinates": [
          [
            [
              -121.71306694957615,
              37.40943717748788
            ],
            [
              -121.7129637746358,
              37.40943717748788
            ],
            [
              -121.71296457291774,
              37.409390522398866
            ],
            [
              -121.71306772857976,
              37.4093916454599
            ],
            [
              -121.71306694957615,
              37.40943717748788
            ]
          ]
        ]
      }
    },
    {
      "id": "75",
      "type": "Feature",
      "properties": {
        "id": null,
        "SOURCE_FILE": "/Users/maples/GitHub/mortalitree_testing/labels/snick_mortalitree_postfire_labels.geojson",
        "SUNETID": "snick",
        "FIRENAME": "SCU LIGHTNING COMPLEX",
        "FIRE_SLUG": "SCU_LIGHTNING_COMPLEX",
        "PREFIRE": 0,
        "PREFIRE_STATUS": "postfire",
        "TILE_Z": 17,
        "TILE_X": 21221,
        "TILE_Y": 50830,
        "TILEXYZ": [
          17,
          21221,
          50830
        ],
        "OUTPUT_FILE": "/Users/maples/GitHub/mortalitree_testing/notebooks/single_tiles/postfire/17/21221/50830.geojson",
        "OUTPUT_STATUS_DIR": "postfire",
        "FEATURE_COUNT": 6
      },
      "geometry": {
        "type": "Polygon",
        "coordinates": [
          [
            [
              -121.71248474814028,
              37.40943717748788
            ],
            [
              -121.71238157320609,
              37.40943717748788
            ],
            [
              -121.7123820779092,
              37.409407693865795
            ],
            [
              -121.71248523357114,
              37.40940881743548
            ],
            [
              -121.71248474814028,
              37.40943717748788
            ]
          ]
        ]
      }
    }
  ],
  "properties": {
    "SOURCE_FILE": "/Users/maples/GitHub/mortalitree_testing/labels/snick_mortalitree_postfire_labels.geojson",
    "SUNETID": "snick",
    "FIRENAME": "SCU LIGHTNING COMPLEX",
    "FIRE_SLUG": "SCU_LIGHTNING_COMPLEX",
    "PREFIRE": 0,
    "PREFIRE_STATUS": "postfire",
    "TILE_Z": 17,
    "TILE_X": 21221,
    "TILE_Y": 50830,
    "TILEXYZ": [
      17,
      21221,
      50830
    ],
    "OUTPUT_FILE": "/Users/maples/GitHub/mortalitree_testing/notebooks/single_tiles/postfire/17/21221/50830.geojson",
    "OUTPUT_STATUS_DIR": "postfire",
    "FEATURE_COUNT": 6
  }
}