{
  "type": "FeatureCollection",
  "features": [
    {
      "id": "106",
      "type": "Feature",
      "properties": {
        "id": null,
        "SOURCE_FILE": "/Users/maples/GitHub/mortalitree_testing/labels/izzyip_mortalitree_postfire_labels.geojson",
        "SUNETID": "izzyip",
        "FIRENAME": "CZU AUG LIGHTNING",
        "FIRE_SLUG": "CZU_AUG_LIGHTNING",
        "PREFIRE": 0,
        "PREFIRE_STATUS": "postfire",
        "TILE_Z": 17,
        "TILE_X": 21009,
        "TILE_Y": 50937,
        "TILEXYZ": [
          17,
          21009,
          50937
        ],
        "OUTPUT_FILE": "/Users/maples/GitHub/mortalitree_testing/notebooks/single_tiles/postfire/17/21009/50937.geojson",
        "OUTPUT_STATUS_DIR": "postfire",
        "FEATURE_COUNT": 2
      },
      "geometry": {
        "type": "Polygon",
        "coordinates": [
          [
            [
              -122.29705347340564,
              37.17491196827829
            ],
            [
              -122.29705441177985,
              37.17481068463286
            ],
            [
              -122.29705810546875,
              37.17481070654399
            ],
            [
              -122.29705810546875,
              37.174911995755956
            ],
            [
              -122.29705347340564,
              37.17491196827829
            ]
          ]
        ]
      }
    },
    {
      "id": "139",
      "type": "Feature",
      "properties": {
        "id": null,
        "SOURCE_FILE": "/Users/maples/GitHub/mortalitree_testing/labels/izzyip_mortalitree_postfire_labels.geojson",
        "SUNETID": "izzyip",
        "FIRENAME": "CZU AUG LIGHTNING",
        "FIRE_SLUG": "CZU_AUG_LIGHTNING",
        "PREFIRE": 0,
        "PREFIRE_STATUS": "postfire",
        "TILE_Z": 17,
        "TILE_X": 21009,
        "TILE_Y": 50937,
        "TILEXYZ": [
          17,
          21009,
          50937
        ],
        "OUTPUT_FILE": "/Users/maples/GitHub/mortalitree_testing/notebooks/single_tiles/postfire/17/21009/50937.geojson",
        "OUTPUT_STATUS_DIR": "postfire",
        "FEATURE_COUNT": 2
      },
      "geometry": {
        "type": "Polygon",
        "coordinates": [
          [
            [
              -122.29701275514081,
              37.1746492955654
            ],
            [
              -122.29701382152643,
              37.17453420050952
            ],
            [
              -122.29705810546875,
              37.174534463217206
            ],
            [
              -122.29705810546875,
              37.17464956459997
            ],
            [
              -122.29701275514081,
              37.1746492955654
            ]
          ]
        ]
      }
    }
  ],
  "properties": {
    "SOURCE_FILE": "/Users/maples/GitHub/mortalitree_testing/labels/izzyip_mortalitree_postfire_labels.geojson",
    "SUNETID": "izzyip",
    "FIRENAME": "CZU AUG LIGHTNING",
    "FIRE_SLUG": "CZU_AUG_LIGHTNING",
    "PREFIRE": 0,
    "PREFIRE_STATUS": "postfire",
    "TILE_Z": 17,
    "TILE_X": 21009,
    "TILE_Y": 50937,
    "TILEXYZ": [
      17,
      21009,
      50937
    ],
    "OUTPUT_FILE": "/Users/maples/GitHub/mortalitree_testing/notebooks/single_tiles/postfire/17/21009/50937.geojson",
    "OUTPUT_STATUS_DIR": "postfire",
    "FEATURE_COUNT": 2
  }
}