{
  "type": "FeatureCollection",
  "features": [
    {
      "id": "465",
      "type": "Feature",
      "properties": {
        "id": null,
        "SOURCE_FILE": "/Users/maples/GitHub/mortalitree_testing/labels/annayu_mortalitree_postfire_labels.geojson",
        "SUNETID": "annayu",
        "FIRENAME": "CASTLE",
        "FIRE_SLUG": "CASTLE",
        "PREFIRE": 0,
        "PREFIRE_STATUS": "postfire",
        "TILE_Z": 17,
        "TILE_X": 22363,
        "TILE_Y": 51360,
        "TILEXYZ": [
          17,
          22363,
          51360
        ],
        "OUTPUT_FILE": "/Users/maples/GitHub/mortalitree_testing/notebooks/single_tiles/postfire/17/22363/51360.geojson",
        "OUTPUT_STATUS_DIR": "postfire",
        "FEATURE_COUNT": 1
      },
      "geometry": {
        "type": "Polygon",
        "coordinates": [
          [
            [
              -118.57695757480326,
              36.24427318493909
            ],
            [
              -118.57687809560232,
              36.24427318493909
            ],
            [
              -118.5768783884145,
              36.244267998596705
            ],
            [
              -118.57695770172725,
              36.244270936797925
            ],
            [
              -118.57695757480326,
              36.24427318493909
            ]
          ]
        ]
      }
    }
  ],
  "properties": {
    "SOURCE_FILE": "/Users/maples/GitHub/mortalitree_testing/labels/annayu_mortalitree_postfire_labels.geojson",
    "SUNETID": "annayu",
    "FIRENAME": "CASTLE",
    "FIRE_SLUG": "CASTLE",
    "PREFIRE": 0,
    "PREFIRE_STATUS": "postfire",
    "TILE_Z": 17,
    "TILE_X": 22363,
    "TILE_Y": 51360,
    "TILEXYZ": [
      17,
      22363,
      51360
    ],
    "OUTPUT_FILE": "/Users/maples/GitHub/mortalitree_testing/notebooks/single_tiles/postfire/17/22363/51360.geojson",
    "OUTPUT_STATUS_DIR": "postfire",
    "FEATURE_COUNT": 1
  }
}