{
  "type": "FeatureCollection",
  "features": [
    {
      "id": "852",
      "type": "Feature",
      "properties": {
        "id": null,
        "SOURCE_FILE": "/Users/maples/GitHub/mortalitree_testing/labels/agaleana_mortalitree_postfire_labels.geojson",
        "SUNETID": "agaleana",
        "FIRENAME": "CASTLE",
        "FIRE_SLUG": "CASTLE",
        "PREFIRE": 0,
        "PREFIRE_STATUS": "postfire",
        "TILE_Z": 17,
        "TILE_X": 22446,
        "TILE_Y": 51368,
        "TILEXYZ": [
          17,
          22446,
          51368
        ],
        "OUTPUT_FILE": "/Users/maples/GitHub/mortalitree_testing/notebooks/single_tiles/postfire/17/22446/51368.geojson",
        "OUTPUT_STATUS_DIR": "postfire",
        "FEATURE_COUNT": 1
      },
      "geometry": {
        "type": "Polygon",
        "coordinates": [
          [
            [
              -118.35020738539427,
              36.224851919398425
            ],
            [
              -118.35020897925736,
              36.22482505128167
            ],
            [
              -118.3502197265625,
              36.22482546982255
            ],
            [
              -118.3502197265625,
              36.2248524000107
            ],
            [
              -118.35020738539427,
              36.224851919398425
            ]
          ]
        ]
      }
    }
  ],
  "properties": {
    "SOURCE_FILE": "/Users/maples/GitHub/mortalitree_testing/labels/agaleana_mortalitree_postfire_labels.geojson",
    "SUNETID": "agaleana",
    "FIRENAME": "CASTLE",
    "FIRE_SLUG": "CASTLE",
    "PREFIRE": 0,
    "PREFIRE_STATUS": "postfire",
    "TILE_Z": 17,
    "TILE_X": 22446,
    "TILE_Y": 51368,
    "TILEXYZ": [
      17,
      22446,
      51368
    ],
    "OUTPUT_FILE": "/Users/maples/GitHub/mortalitree_testing/notebooks/single_tiles/postfire/17/22446/51368.geojson",
    "OUTPUT_STATUS_DIR": "postfire",
    "FEATURE_COUNT": 1
  }
}