{
  "type": "FeatureCollection",
  "features": [
    {
      "id": "369",
      "type": "Feature",
      "properties": {
        "id": null,
        "SOURCE_FILE": "/Users/maples/GitHub/mortalitree_testing/labels/alee8558_mortalitree_postfire_labels.geojson",
        "SUNETID": "alee8558",
        "FIRENAME": "CASTLE",
        "FIRE_SLUG": "CASTLE",
        "PREFIRE": 0,
        "PREFIRE_STATUS": "postfire",
        "TILE_Z": 17,
        "TILE_X": 22323,
        "TILE_Y": 51344,
        "TILEXYZ": [
          17,
          22323,
          51344
        ],
        "OUTPUT_FILE": "/Users/maples/GitHub/mortalitree_testing/notebooks/single_tiles/postfire/17/22323/51344.geojson",
        "OUTPUT_STATUS_DIR": "postfire",
        "FEATURE_COUNT": 1
      },
      "geometry": {
        "type": "Polygon",
        "coordinates": [
          [
            [
              -118.6871046155042,
              36.279704929676356
            ],
            [
              -118.68716759384155,
              36.27970720524017
            ],
            [
              -118.68710449008076,
              36.27970720524017
            ],
            [
              -118.6871046155042,
              36.279704929676356
            ]
          ]
        ]
      }
    }
  ],
  "properties": {
    "SOURCE_FILE": "/Users/maples/GitHub/mortalitree_testing/labels/alee8558_mortalitree_postfire_labels.geojson",
    "SUNETID": "alee8558",
    "FIRENAME": "CASTLE",
    "FIRE_SLUG": "CASTLE",
    "PREFIRE": 0,
    "PREFIRE_STATUS": "postfire",
    "TILE_Z": 17,
    "TILE_X": 22323,
    "TILE_Y": 51344,
    "TILEXYZ": [
      17,
      22323,
      51344
    ],
    "OUTPUT_FILE": "/Users/maples/GitHub/mortalitree_testing/notebooks/single_tiles/postfire/17/22323/51344.geojson",
    "OUTPUT_STATUS_DIR": "postfire",
    "FEATURE_COUNT": 1
  }
}