{
  "type": "FeatureCollection",
  "features": [
    {
      "id": "17",
      "type": "Feature",
      "properties": {
        "id": null,
        "SOURCE_FILE": "/Users/maples/GitHub/mortalitree_testing/labels/enrique9_mortalitree_postfire_labels.geojson",
        "SUNETID": "enrique9",
        "FIRENAME": "CREEK",
        "FIRE_SLUG": "CREEK",
        "PREFIRE": 0,
        "PREFIRE_STATUS": "postfire",
        "TILE_Z": 17,
        "TILE_X": 22049,
        "TILE_Y": 50880,
        "TILEXYZ": [
          17,
          22049,
          50880
        ],
        "OUTPUT_FILE": "/Users/maples/GitHub/mortalitree_testing/notebooks/single_tiles/postfire/17/22049/50880.geojson",
        "OUTPUT_STATUS_DIR": "postfire",
        "FEATURE_COUNT": 45
      },
      "geometry": {
        "type": "Polygon",
        "coordinates": [
          [
            [
              -119.43915501794153,
              37.29833182305357
            ],
            [
              -119.43886281449456,
              37.298323020086045
            ],
            [
              -119.4388697526944,
              37.29817604151102
            ],
            [
              -119.439161955575,
              37.298184844431994
            ],
            [
              -119.43915501794153,
              37.29833182305357
            ]
          ]
        ]
      }
    },
    {
      "id": "18",
      "type": "Feature",
      "properties": {
        "id": null,
        "SOURCE_FILE": "/Users/maples/GitHub/mortalitree_testing/labels/enrique9_mortalitree_postfire_labels.geojson",
        "SUNETID": "enrique9",
        "FIRENAME": "CREEK",
        "FIRE_SLUG": "CREEK",
        "PREFIRE": 0,
        "PREFIRE_STATUS": "postfire",
        "TILE_Z": 17,
        "TILE_X": 22049,
        "TILE_Y": 50880,
        "TILEXYZ": [
          17,
          22049,
          50880
        ],
        "OUTPUT_FILE": "/Users/maples/GitHub/mortalitree_testing/notebooks/single_tiles/postfire/17/22049/50880.geojson",
        "OUTPUT_STATUS_DIR": "postfire",
        "FEATURE_COUNT": 45
      },
      "geometry": {
        "type": "Polygon",
        "coordinates": [
          [
            [
              -119.44035793195462,
              37.29833342222062
            ],
            [
              -119.4397410573389,
              37.298314843603094
            ],
            [
              -119.43974758580043,
              37.298176510694226
            ],
            [
              -119.4403644592908,
              37.29819508921929
            ],
            [
              -119.44035793195462,
              37.29833342222062
            ]
          ]
        ]
      }
    },
    {
      "id": "19",
      "type": "Feature",
      "properties": {
        "id": null,
        "SOURCE_FILE": "/Users/maples/GitHub/mortalitree_testing/labels/enrique9_mortalitree_postfire_labels.geojson",
        "SUNETID": "enrique9",
        "FIRENAME": "CREEK",
        "FIRE_SLUG": "CREEK",
        "PREFIRE": 0,
        "PREFIRE_STATUS": "postfire",
        "TILE_Z": 17,
        "TILE_X": 22049,
        "TILE_Y": 50880,
        "TILEXYZ": [
          17,
          22049,
          50880
        ],
        "OUTPUT_FILE": "/Users/maples/GitHub/mortalitree_testing/notebooks/single_tiles/postfire/17/22049/50880.geojson",
        "OUTPUT_STATUS_DIR": "postfire",
        "FEATURE_COUNT": 45
      },
      "geometry": {
        "type": "Polygon",
        "coordinates": [
          [
            [
              -119.43991340909349,
              37.29856679046251
            ],
            [
              -119.43951298060358,
              37.29855472945544
            ],
            [
              -119.4395207337099,
              37.298390459173156
            ],
            [
              -119.43992116133238,
              37.298402520108944
            ],
            [
              -119.43991340909349,
              37.29856679046251
            ]
          ]
        ]
      }
    },
    {
      "id": "20",
      "type": "Feature",
      "properties": {
        "id": null,
        "SOURCE_FILE": "/Users/maples/GitHub/mortalitree_testing/labels/enrique9_mortalitree_postfire_labels.geojson",
        "SUNETID": "enrique9",
        "FIRENAME": "CREEK",
        "FIRE_SLUG": "CREEK",
        "PREFIRE": 0,
        "PREFIRE_STATUS": "postfire",
        "TILE_Z": 17,
        "TILE_X": 22049,
        "TILE_Y": 50880,
        "TILEXYZ": [
          17,
          22049,
          50880
        ],
        "OUTPUT_FILE": "/Users/maples/GitHub/mortalitree_testing/notebooks/single_tiles/postfire/17/22049/50880.geojson",
        "OUTPUT_STATUS_DIR": "postfire",
        "FEATURE_COUNT": 45
      },
      "geometry": {
        "type": "Polygon",
        "coordinates": [
          [
            [
              -119.44042114971211,
              37.298716282302166
            ],
            [
              -119.44002072020831,
              37.298704222971935
            ],
            [
              -119.4400292882533,
              37.29852266098485
            ],
            [
              -119.44042971679832,
              37.29853472023631
            ],
            [
              -119.44042114971211,
              37.298716282302166
            ]
          ]
        ]
      }
    },
    {
      "id": "21",
      "type": "Feature",
      "properties": {
        "id": null,
        "SOURCE_FILE": "/Users/maples/GitHub/mortalitree_testing/labels/enrique9_mortalitree_postfire_labels.geojson",
        "SUNETID": "enrique9",
        "FIRENAME": "CREEK",
        "FIRE_SLUG": "CREEK",
        "PREFIRE": 0,
        "PREFIRE_STATUS": "postfire",
        "TILE_Z": 17,
        "TILE_X": 22049,
        "TILE_Y": 50880,
        "TILEXYZ": [
          17,
          22049,
          50880
        ],
        "OUTPUT_FILE": "/Users/maples/GitHub/mortalitree_testing/notebooks/single_tiles/postfire/17/22049/50880.geojson",
        "OUTPUT_STATUS_DIR": "postfire",
        "FEATURE_COUNT": 45
      },
      "geometry": {
        "type": "Polygon",
        "coordinates": [
          [
            [
              -119.44047790176916,
              37.298432274098154
            ],
            [
              -119.44039132271696,
              37.29842966684828
            ],
            [
              -119.4403941784152,
              37.29836914615951
            ],
            [
              -119.4404807573983,
              37.2983717534037
            ],
            [
              -119.44047790176916,
              37.298432274098154
            ]
          ]
        ]
      }
    },
    {
      "id": "22",
      "type": "Feature",
      "properties": {
        "id": null,
        "SOURCE_FILE": "/Users/maples/GitHub/mortalitree_testing/labels/enrique9_mortalitree_postfire_labels.geojson",
        "SUNETID": "enrique9",
        "FIRENAME": "CREEK",
        "FIRE_SLUG": "CREEK",
        "PREFIRE": 0,
        "PREFIRE_STATUS": "postfire",
        "TILE_Z": 17,
        "TILE_X": 22049,
        "TILE_Y": 50880,
        "TILEXYZ": [
          17,
          22049,
          50880
        ],
        "OUTPUT_FILE": "/Users/maples/GitHub/mortalitree_testing/notebooks/single_tiles/postfire/17/22049/50880.geojson",
        "OUTPUT_STATUS_DIR": "postfire",
        "FEATURE_COUNT": 45
      },
      "geometry": {
        "type": "Polygon",
        "coordinates": [
          [
            [
              -119.43980815784833,
              37.298845008531075
            ],
            [
              -119.43975404568319,
              37.29884337868579
            ],
            [
              -119.43975771800508,
              37.29876556643093
            ],
            [
              -119.43981183011468,
              37.29876719627165
            ],
            [
              -119.43980815784833,
              37.298845008531075
            ]
          ]
        ]
      }
    },
    {
      "id": "23",
      "type": "Feature",
      "properties": {
        "id": null,
        "SOURCE_FILE": "/Users/maples/GitHub/mortalitree_testing/labels/enrique9_mortalitree_postfire_labels.geojson",
        "SUNETID": "enrique9",
        "FIRENAME": "CREEK",
        "FIRE_SLUG": "CREEK",
        "PREFIRE": 0,
        "PREFIRE_STATUS": "postfire",
        "TILE_Z": 17,
        "TILE_X": 22049,
        "TILE_Y": 50880,
        "TILEXYZ": [
          17,
          22049,
          50880
        ],
        "OUTPUT_FILE": "/Users/maples/GitHub/mortalitree_testing/notebooks/single_tiles/postfire/17/22049/50880.geojson",
        "OUTPUT_STATUS_DIR": "postfire",
        "FEATURE_COUNT": 45
      },
      "geometry": {
        "type": "Polygon",
        "coordinates": [
          [
            [
              -119.43976078775403,
              37.29893016271724
            ],
            [
              -119.43972832041948,
              37.29892918479813
            ],
            [
              -119.43972872846017,
              37.29892053899248
            ],
            [
              -119.439761195791,
              37.29892151691127
            ],
            [
              -119.43976078775403,
              37.29893016271724
            ]
          ]
        ]
      }
    },
    {
      "id": "25",
      "type": "Feature",
      "properties": {
        "id": null,
        "SOURCE_FILE": "/Users/maples/GitHub/mortalitree_testing/labels/enrique9_mortalitree_postfire_labels.geojson",
        "SUNETID": "enrique9",
        "FIRENAME": "CREEK",
        "FIRE_SLUG": "CREEK",
        "PREFIRE": 0,
        "PREFIRE_STATUS": "postfire",
        "TILE_Z": 17,
        "TILE_X": 22049,
        "TILE_Y": 50880,
        "TILEXYZ": [
          17,
          22049,
          50880
        ],
        "OUTPUT_FILE": "/Users/maples/GitHub/mortalitree_testing/notebooks/single_tiles/postfire/17/22049/50880.geojson",
        "OUTPUT_STATUS_DIR": "postfire",
        "FEATURE_COUNT": 45
      },
      "geometry": {
        "type": "Polygon",
        "coordinates": [
          [
            [
              -119.43952606490437,
              37.29896638311939
            ],
            [
              -119.43927714865723,
              37.298958885012766
            ],
            [
              -119.43928122957689,
              37.29887242699833
            ],
            [
              -119.43953014554022,
              37.29887992508163
            ],
            [
              -119.43952606490437,
              37.29896638311939
            ]
          ]
        ]
      }
    },
    {
      "id": "26",
      "type": "Feature",
      "properties": {
        "id": null,
        "SOURCE_FILE": "/Users/maples/GitHub/mortalitree_testing/labels/enrique9_mortalitree_postfire_labels.geojson",
        "SUNETID": "enrique9",
        "FIRENAME": "CREEK",
        "FIRE_SLUG": "CREEK",
        "PREFIRE": 0,
        "PREFIRE_STATUS": "postfire",
        "TILE_Z": 17,
        "TILE_X": 22049,
        "TILE_Y": 50880,
        "TILEXYZ": [
          17,
          22049,
          50880
        ],
        "OUTPUT_FILE": "/Users/maples/GitHub/mortalitree_testing/notebooks/single_tiles/postfire/17/22049/50880.geojson",
        "OUTPUT_STATUS_DIR": "postfire",
        "FEATURE_COUNT": 45
      },
      "geometry": {
        "type": "Polygon",
        "coordinates": [
          [
            [
              -119.44004668002644,
              37.29930241348862
            ],
            [
              -119.43991681001722,
              37.299298502039534
            ],
            [
              -119.43992537849607,
              37.29911694009124
            ],
            [
              -119.44005524819431,
              37.299120851514786
            ],
            [
              -119.44004668002644,
              37.29930241348862
            ]
          ]
        ]
      }
    },
    {
      "id": "27",
      "type": "Feature",
      "properties": {
        "id": null,
        "SOURCE_FILE": "/Users/maples/GitHub/mortalitree_testing/labels/enrique9_mortalitree_postfire_labels.geojson",
        "SUNETID": "enrique9",
        "FIRENAME": "CREEK",
        "FIRE_SLUG": "CREEK",
        "PREFIRE": 0,
        "PREFIRE_STATUS": "postfire",
        "TILE_Z": 17,
        "TILE_X": 22049,
        "TILE_Y": 50880,
        "TILEXYZ": [
          17,
          22049,
          50880
        ],
        "OUTPUT_FILE": "/Users/maples/GitHub/mortalitree_testing/notebooks/single_tiles/postfire/17/22049/50880.geojson",
        "OUTPUT_STATUS_DIR": "postfire",
        "FEATURE_COUNT": 45
      },
      "geometry": {
        "type": "Polygon",
        "coordinates": [
          [
            [
              -119.44034869020678,
              37.299333154177624
            ],
            [
              -119.44014306255248,
              37.29932696150464
            ],
            [
              -119.44015040650902,
              37.29917133694039
            ],
            [
              -119.4403560337413,
              37.29917752957871
            ],
            [
              -119.44034869020678,
              37.299333154177624
            ]
          ]
        ]
      }
    },
    {
      "id": "28",
      "type": "Feature",
      "properties": {
        "id": null,
        "SOURCE_FILE": "/Users/maples/GitHub/mortalitree_testing/labels/enrique9_mortalitree_postfire_labels.geojson",
        "SUNETID": "enrique9",
        "FIRENAME": "CREEK",
        "FIRE_SLUG": "CREEK",
        "PREFIRE": 0,
        "PREFIRE_STATUS": "postfire",
        "TILE_Z": 17,
        "TILE_X": 22049,
        "TILE_Y": 50880,
        "TILEXYZ": [
          17,
          22049,
          50880
        ],
        "OUTPUT_FILE": "/Users/maples/GitHub/mortalitree_testing/notebooks/single_tiles/postfire/17/22049/50880.geojson",
        "OUTPUT_STATUS_DIR": "postfire",
        "FEATURE_COUNT": 45
      },
      "geometry": {
        "type": "Polygon",
        "coordinates": [
          [
            [
              -119.44029458862087,
              37.299560964459005
            ],
            [
              -119.44009978289705,
              37.29955509760561
            ],
            [
              -119.44010467897415,
              37.29945134790562
            ],
            [
              -119.44029948443143,
              37.2994572147371
            ],
            [
              -119.44029458862087,
              37.299560964459005
            ]
          ]
        ]
      }
    },
    {
      "id": "29",
      "type": "Feature",
      "properties": {
        "id": null,
        "SOURCE_FILE": "/Users/maples/GitHub/mortalitree_testing/labels/enrique9_mortalitree_postfire_labels.geojson",
        "SUNETID": "enrique9",
        "FIRENAME": "CREEK",
        "FIRE_SLUG": "CREEK",
        "PREFIRE": 0,
        "PREFIRE_STATUS": "postfire",
        "TILE_Z": 17,
        "TILE_X": 22049,
        "TILE_Y": 50880,
        "TILEXYZ": [
          17,
          22049,
          50880
        ],
        "OUTPUT_FILE": "/Users/maples/GitHub/mortalitree_testing/notebooks/single_tiles/postfire/17/22049/50880.geojson",
        "OUTPUT_STATUS_DIR": "postfire",
        "FEATURE_COUNT": 45
      },
      "geometry": {
        "type": "Polygon",
        "coordinates": [
          [
            [
              -119.4399428659406,
              37.299779811131835
            ],
            [
              -119.43979134999174,
              37.29977524757831
            ],
            [
              -119.43979828674898,
              37.29962826889074
            ],
            [
              -119.43994980240413,
              37.29963283242016
            ],
            [
              -119.4399428659406,
              37.299779811131835
            ]
          ]
        ]
      }
    },
    {
      "id": "30",
      "type": "Feature",
      "properties": {
        "id": null,
        "SOURCE_FILE": "/Users/maples/GitHub/mortalitree_testing/labels/enrique9_mortalitree_postfire_labels.geojson",
        "SUNETID": "enrique9",
        "FIRENAME": "CREEK",
        "FIRE_SLUG": "CREEK",
        "PREFIRE": 0,
        "PREFIRE_STATUS": "postfire",
        "TILE_Z": 17,
        "TILE_X": 22049,
        "TILE_Y": 50880,
        "TILEXYZ": [
          17,
          22049,
          50880
        ],
        "OUTPUT_FILE": "/Users/maples/GitHub/mortalitree_testing/notebooks/single_tiles/postfire/17/22049/50880.geojson",
        "OUTPUT_STATUS_DIR": "postfire",
        "FEATURE_COUNT": 45
      },
      "geometry": {
        "type": "Polygon",
        "coordinates": [
          [
            [
              -119.43964942351649,
              37.299567507442326
            ],
            [
              -119.43957366577497,
              37.29956522551293
            ],
            [
              -119.43957937870769,
              37.29944418426556
            ],
            [
              -119.4396551363283,
              37.299446466185024
            ],
            [
              -119.43964942351649,
              37.299567507442326
            ]
          ]
        ]
      }
    },
    {
      "id": "31",
      "type": "Feature",
      "properties": {
        "id": null,
        "SOURCE_FILE": "/Users/maples/GitHub/mortalitree_testing/labels/enrique9_mortalitree_postfire_labels.geojson",
        "SUNETID": "enrique9",
        "FIRENAME": "CREEK",
        "FIRE_SLUG": "CREEK",
        "PREFIRE": 0,
        "PREFIRE_STATUS": "postfire",
        "TILE_Z": 17,
        "TILE_X": 22049,
        "TILE_Y": 50880,
        "TILEXYZ": [
          17,
          22049,
          50880
        ],
        "OUTPUT_FILE": "/Users/maples/GitHub/mortalitree_testing/notebooks/single_tiles/postfire/17/22049/50880.geojson",
        "OUTPUT_STATUS_DIR": "postfire",
        "FEATURE_COUNT": 45
      },
      "geometry": {
        "type": "Polygon",
        "coordinates": [
          [
            [
              -119.43981052796242,
              37.29936889472461
            ],
            [
              -119.43963736784782,
              37.29936367907416
            ],
            [
              -119.43964063230287,
              37.299294512640344
            ],
            [
              -119.43981379225953,
              37.299299728277795
            ],
            [
              -119.43981052796242,
              37.29936889472461
            ]
          ]
        ]
      }
    },
    {
      "id": "32",
      "type": "Feature",
      "properties": {
        "id": null,
        "SOURCE_FILE": "/Users/maples/GitHub/mortalitree_testing/labels/enrique9_mortalitree_postfire_labels.geojson",
        "SUNETID": "enrique9",
        "FIRENAME": "CREEK",
        "FIRE_SLUG": "CREEK",
        "PREFIRE": 0,
        "PREFIRE_STATUS": "postfire",
        "TILE_Z": 17,
        "TILE_X": 22049,
        "TILE_Y": 50880,
        "TILEXYZ": [
          17,
          22049,
          50880
        ],
        "OUTPUT_FILE": "/Users/maples/GitHub/mortalitree_testing/notebooks/single_tiles/postfire/17/22049/50880.geojson",
        "OUTPUT_STATUS_DIR": "postfire",
        "FEATURE_COUNT": 45
      },
      "geometry": {
        "type": "Polygon",
        "coordinates": [
          [
            [
              -119.43944787619854,
              37.299474855500065
            ],
            [
              -119.4392314258441,
              37.299468335218585
            ],
            [
              -119.43924040412489,
              37.29927812761048
            ],
            [
              -119.43945685393638,
              37.299284647847344
            ],
            [
              -119.43944787619854,
              37.299474855500065
            ]
          ]
        ]
      }
    },
    {
      "id": "33",
      "type": "Feature",
      "properties": {
        "id": null,
        "SOURCE_FILE": "/Users/maples/GitHub/mortalitree_testing/labels/enrique9_mortalitree_postfire_labels.geojson",
        "SUNETID": "enrique9",
        "FIRENAME": "CREEK",
        "FIRE_SLUG": "CREEK",
        "PREFIRE": 0,
        "PREFIRE_STATUS": "postfire",
        "TILE_Z": 17,
        "TILE_X": 22049,
        "TILE_Y": 50880,
        "TILEXYZ": [
          17,
          22049,
          50880
        ],
        "OUTPUT_FILE": "/Users/maples/GitHub/mortalitree_testing/notebooks/single_tiles/postfire/17/22049/50880.geojson",
        "OUTPUT_STATUS_DIR": "postfire",
        "FEATURE_COUNT": 45
      },
      "geometry": {
        "type": "Polygon",
        "coordinates": [
          [
            [
              -119.43928952919619,
              37.299729828371376
            ],
            [
              -119.43919212621607,
              37.299726894146225
            ],
            [
              -119.43920069656959,
              37.29954533235437
            ],
            [
              -119.43929809931647,
              37.29954826656034
            ],
            [
              -119.43928952919619,
              37.299729828371376
            ]
          ]
        ]
      }
    },
    {
      "id": "34",
      "type": "Feature",
      "properties": {
        "id": null,
        "SOURCE_FILE": "/Users/maples/GitHub/mortalitree_testing/labels/enrique9_mortalitree_postfire_labels.geojson",
        "SUNETID": "enrique9",
        "FIRENAME": "CREEK",
        "FIRE_SLUG": "CREEK",
        "PREFIRE": 0,
        "PREFIRE_STATUS": "postfire",
        "TILE_Z": 17,
        "TILE_X": 22049,
        "TILE_Y": 50880,
        "TILEXYZ": [
          17,
          22049,
          50880
        ],
        "OUTPUT_FILE": "/Users/maples/GitHub/mortalitree_testing/notebooks/single_tiles/postfire/17/22049/50880.geojson",
        "OUTPUT_STATUS_DIR": "postfire",
        "FEATURE_COUNT": 45
      },
      "geometry": {
        "type": "Polygon",
        "coordinates": [
          [
            [
              -119.43900292865166,
              37.29948742589212
            ],
            [
              -119.43874318831732,
              37.2994796005282
            ],
            [
              -119.43874849440392,
              37.29936720518435
            ],
            [
              -119.43900823435327,
              37.29937503051662
            ],
            [
              -119.43900292865166,
              37.29948742589212
            ]
          ]
        ]
      }
    },
    {
      "id": "35",
      "type": "Feature",
      "properties": {
        "id": null,
        "SOURCE_FILE": "/Users/maples/GitHub/mortalitree_testing/labels/enrique9_mortalitree_postfire_labels.geojson",
        "SUNETID": "enrique9",
        "FIRENAME": "CREEK",
        "FIRE_SLUG": "CREEK",
        "PREFIRE": 0,
        "PREFIRE_STATUS": "postfire",
        "TILE_Z": 17,
        "TILE_X": 22049,
        "TILE_Y": 50880,
        "TILEXYZ": [
          17,
          22049,
          50880
        ],
        "OUTPUT_FILE": "/Users/maples/GitHub/mortalitree_testing/notebooks/single_tiles/postfire/17/22049/50880.geojson",
        "OUTPUT_STATUS_DIR": "postfire",
        "FEATURE_COUNT": 45
      },
      "geometry": {
        "type": "Polygon",
        "coordinates": [
          [
            [
              -119.43858370791612,
              37.29941418882823
            ],
            [
              -119.43819409800795,
              37.29940244920862
            ],
            [
              -119.43820348709899,
              37.299203596022394
            ],
            [
              -119.43859309598544,
              37.299215335558
            ],
            [
              -119.43858370791612,
              37.29941418882823
            ]
          ]
        ]
      }
    },
    {
      "id": "36",
      "type": "Feature",
      "properties": {
        "id": null,
        "SOURCE_FILE": "/Users/maples/GitHub/mortalitree_testing/labels/enrique9_mortalitree_postfire_labels.geojson",
        "SUNETID": "enrique9",
        "FIRENAME": "CREEK",
        "FIRE_SLUG": "CREEK",
        "PREFIRE": 0,
        "PREFIRE_STATUS": "postfire",
        "TILE_Z": 17,
        "TILE_X": 22049,
        "TILE_Y": 50880,
        "TILEXYZ": [
          17,
          22049,
          50880
        ],
        "OUTPUT_FILE": "/Users/maples/GitHub/mortalitree_testing/notebooks/single_tiles/postfire/17/22049/50880.geojson",
        "OUTPUT_STATUS_DIR": "postfire",
        "FEATURE_COUNT": 45
      },
      "geometry": {
        "type": "Polygon",
        "coordinates": [
          [
            [
              -119.43855378296709,
              37.299015014917586
            ],
            [
              -119.43843473610421,
              37.29901142794981
            ],
            [
              -119.43843677705223,
              37.298968198982834
            ],
            [
              -119.43855582384725,
              37.29897178594504
            ],
            [
              -119.43855378296709,
              37.299015014917586
            ]
          ]
        ]
      }
    },
    {
      "id": "37",
      "type": "Feature",
      "properties": {
        "id": null,
        "SOURCE_FILE": "/Users/maples/GitHub/mortalitree_testing/labels/enrique9_mortalitree_postfire_labels.geojson",
        "SUNETID": "enrique9",
        "FIRENAME": "CREEK",
        "FIRE_SLUG": "CREEK",
        "PREFIRE": 0,
        "PREFIRE_STATUS": "postfire",
        "TILE_Z": 17,
        "TILE_X": 22049,
        "TILE_Y": 50880,
        "TILEXYZ": [
          17,
          22049,
          50880
        ],
        "OUTPUT_FILE": "/Users/maples/GitHub/mortalitree_testing/notebooks/single_tiles/postfire/17/22049/50880.geojson",
        "OUTPUT_STATUS_DIR": "postfire",
        "FEATURE_COUNT": 45
      },
      "geometry": {
        "type": "Polygon",
        "coordinates": [
          [
            [
              -119.43888029296247,
              37.29898589086089
            ],
            [
              -119.43876124610314,
              37.2989823042239
            ],
            [
              -119.43876777651663,
              37.29884397147827
            ],
            [
              -119.43888682315877,
              37.29884755809741
            ],
            [
              -119.43888029296247,
              37.29898589086089
            ]
          ]
        ]
      }
    },
    {
      "id": "38",
      "type": "Feature",
      "properties": {
        "id": null,
        "SOURCE_FILE": "/Users/maples/GitHub/mortalitree_testing/labels/enrique9_mortalitree_postfire_labels.geojson",
        "SUNETID": "enrique9",
        "FIRENAME": "CREEK",
        "FIRE_SLUG": "CREEK",
        "PREFIRE": 0,
        "PREFIRE_STATUS": "postfire",
        "TILE_Z": 17,
        "TILE_X": 22049,
        "TILE_Y": 50880,
        "TILEXYZ": [
          17,
          22049,
          50880
        ],
        "OUTPUT_FILE": "/Users/maples/GitHub/mortalitree_testing/notebooks/single_tiles/postfire/17/22049/50880.geojson",
        "OUTPUT_STATUS_DIR": "postfire",
        "FEATURE_COUNT": 45
      },
      "geometry": {
        "type": "Polygon",
        "coordinates": [
          [
            [
              -119.43911164541673,
              37.298906279747264
            ],
            [
              -119.43884108462028,
              37.29889812867045
            ],
            [
              -119.43884802300666,
              37.2987511501132
            ],
            [
              -119.43911858327866,
              37.29875930114691
            ],
            [
              -119.43911164541673,
              37.298906279747264
            ]
          ]
        ]
      }
    },
    {
      "id": "39",
      "type": "Feature",
      "properties": {
        "id": null,
        "SOURCE_FILE": "/Users/maples/GitHub/mortalitree_testing/labels/enrique9_mortalitree_postfire_labels.geojson",
        "SUNETID": "enrique9",
        "FIRENAME": "CREEK",
        "FIRE_SLUG": "CREEK",
        "PREFIRE": 0,
        "PREFIRE_STATUS": "postfire",
        "TILE_Z": 17,
        "TILE_X": 22049,
        "TILE_Y": 50880,
        "TILEXYZ": [
          17,
          22049,
          50880
        ],
        "OUTPUT_FILE": "/Users/maples/GitHub/mortalitree_testing/notebooks/single_tiles/postfire/17/22049/50880.geojson",
        "OUTPUT_STATUS_DIR": "postfire",
        "FEATURE_COUNT": 45
      },
      "geometry": {
        "type": "Polygon",
        "coordinates": [
          [
            [
              -119.43926662029098,
              37.29860791501128
            ],
            [
              -119.43897441574045,
              37.29859911226401
            ],
            [
              -119.43897808883303,
              37.298521300072004
            ],
            [
              -119.43927029308372,
              37.29853010279462
            ],
            [
              -119.43926662029098,
              37.29860791501128
            ]
          ]
        ]
      }
    },
    {
      "id": "40",
      "type": "Feature",
      "properties": {
        "id": null,
        "SOURCE_FILE": "/Users/maples/GitHub/mortalitree_testing/labels/enrique9_mortalitree_postfire_labels.geojson",
        "SUNETID": "enrique9",
        "FIRENAME": "CREEK",
        "FIRE_SLUG": "CREEK",
        "PREFIRE": 0,
        "PREFIRE_STATUS": "postfire",
        "TILE_Z": 17,
        "TILE_X": 22049,
        "TILE_Y": 50880,
        "TILEXYZ": [
          17,
          22049,
          50880
        ],
        "OUTPUT_FILE": "/Users/maples/GitHub/mortalitree_testing/notebooks/single_tiles/postfire/17/22049/50880.geojson",
        "OUTPUT_STATUS_DIR": "postfire",
        "FEATURE_COUNT": 45
      },
      "geometry": {
        "type": "Polygon",
        "coordinates": [
          [
            [
              -119.43904067275962,
              37.29845824977902
            ],
            [
              -119.43866188995115,
              37.298446837987846
            ],
            [
              -119.4386635225726,
              37.29841225480246
            ],
            [
              -119.43904230520832,
              37.29842366657942
            ],
            [
              -119.43904067275962,
              37.29845824977902
            ]
          ]
        ]
      }
    },
    {
      "id": "41",
      "type": "Feature",
      "properties": {
        "id": null,
        "SOURCE_FILE": "/Users/maples/GitHub/mortalitree_testing/labels/enrique9_mortalitree_postfire_labels.geojson",
        "SUNETID": "enrique9",
        "FIRENAME": "CREEK",
        "FIRE_SLUG": "CREEK",
        "PREFIRE": 0,
        "PREFIRE_STATUS": "postfire",
        "TILE_Z": 17,
        "TILE_X": 22049,
        "TILE_Y": 50880,
        "TILEXYZ": [
          17,
          22049,
          50880
        ],
        "OUTPUT_FILE": "/Users/maples/GitHub/mortalitree_testing/notebooks/single_tiles/postfire/17/22049/50880.geojson",
        "OUTPUT_STATUS_DIR": "postfire",
        "FEATURE_COUNT": 45
      },
      "geometry": {
        "type": "Polygon",
        "coordinates": [
          [
            [
              -119.43852195014676,
              37.29991882644229
            ],
            [
              -119.43844619214589,
              37.29991654377295
            ],
            [
              -119.43845476435122,
              37.29973498213441
            ],
            [
              -119.43853052217074,
              37.299737264788845
            ],
            [
              -119.43852195014676,
              37.29991882644229
            ]
          ]
        ]
      }
    },
    {
      "id": "42",
      "type": "Feature",
      "properties": {
        "id": null,
        "SOURCE_FILE": "/Users/maples/GitHub/mortalitree_testing/labels/enrique9_mortalitree_postfire_labels.geojson",
        "SUNETID": "enrique9",
        "FIRENAME": "CREEK",
        "FIRE_SLUG": "CREEK",
        "PREFIRE": 0,
        "PREFIRE_STATUS": "postfire",
        "TILE_Z": 17,
        "TILE_X": 22049,
        "TILE_Y": 50880,
        "TILEXYZ": [
          17,
          22049,
          50880
        ],
        "OUTPUT_FILE": "/Users/maples/GitHub/mortalitree_testing/notebooks/single_tiles/postfire/17/22049/50880.geojson",
        "OUTPUT_STATUS_DIR": "postfire",
        "FEATURE_COUNT": 45
      },
      "geometry": {
        "type": "Polygon",
        "coordinates": [
          [
            [
              -119.43835807831073,
              37.299831636877286
            ],
            [
              -119.43808751442168,
              37.2998234839062
            ],
            [
              -119.43809322978935,
              37.299702442860045
            ],
            [
              -119.43836379324648,
              37.29971059579561
            ],
            [
              -119.43835807831073,
              37.299831636877286
            ]
          ]
        ]
      }
    },
    {
      "id": "43",
      "type": "Feature",
      "properties": {
        "id": null,
        "SOURCE_FILE": "/Users/maples/GitHub/mortalitree_testing/labels/enrique9_mortalitree_postfire_labels.geojson",
        "SUNETID": "enrique9",
        "FIRENAME": "CREEK",
        "FIRE_SLUG": "CREEK",
        "PREFIRE": 0,
        "PREFIRE_STATUS": "postfire",
        "TILE_Z": 17,
        "TILE_X": 22049,
        "TILE_Y": 50880,
        "TILEXYZ": [
          17,
          22049,
          50880
        ],
        "OUTPUT_FILE": "/Users/maples/GitHub/mortalitree_testing/notebooks/single_tiles/postfire/17/22049/50880.geojson",
        "OUTPUT_STATUS_DIR": "postfire",
        "FEATURE_COUNT": 45
      },
      "geometry": {
        "type": "Polygon",
        "coordinates": [
          [
            [
              -119.43938796052511,
              37.29994058775577
            ],
            [
              -119.4391931540145,
              37.29993471935943
            ],
            [
              -119.43919927574767,
              37.29980503237038
            ],
            [
              -119.43939408192507,
              37.29981090073935
            ],
            [
              -119.43938796052511,
              37.29994058775577
            ]
          ]
        ]
      }
    },
    {
      "id": "44",
      "type": "Feature",
      "properties": {
        "id": null,
        "SOURCE_FILE": "/Users/maples/GitHub/mortalitree_testing/labels/enrique9_mortalitree_postfire_labels.geojson",
        "SUNETID": "enrique9",
        "FIRENAME": "CREEK",
        "FIRE_SLUG": "CREEK",
        "PREFIRE": 0,
        "PREFIRE_STATUS": "postfire",
        "TILE_Z": 17,
        "TILE_X": 22049,
        "TILE_Y": 50880,
        "TILEXYZ": [
          17,
          22049,
          50880
        ],
        "OUTPUT_FILE": "/Users/maples/GitHub/mortalitree_testing/notebooks/single_tiles/postfire/17/22049/50880.geojson",
        "OUTPUT_STATUS_DIR": "postfire",
        "FEATURE_COUNT": 45
      },
      "geometry": {
        "type": "Polygon",
        "coordinates": [
          [
            [
              -119.43981024551505,
              37.299948978614744
            ],
            [
              -119.43956132595272,
              37.29994148093825
            ],
            [
              -119.43956663091049,
              37.29982908550303
            ],
            [
              -119.43981555010383,
              37.299836583149194
            ],
            [
              -119.43981024551505,
              37.299948978614744
            ]
          ]
        ]
      }
    },
    {
      "id": "45",
      "type": "Feature",
      "properties": {
        "id": null,
        "SOURCE_FILE": "/Users/maples/GitHub/mortalitree_testing/labels/enrique9_mortalitree_postfire_labels.geojson",
        "SUNETID": "enrique9",
        "FIRENAME": "CREEK",
        "FIRE_SLUG": "CREEK",
        "PREFIRE": 0,
        "PREFIRE_STATUS": "postfire",
        "TILE_Z": 17,
        "TILE_X": 22049,
        "TILE_Y": 50880,
        "TILEXYZ": [
          17,
          22049,
          50880
        ],
        "OUTPUT_FILE": "/Users/maples/GitHub/mortalitree_testing/notebooks/single_tiles/postfire/17/22049/50880.geojson",
        "OUTPUT_STATUS_DIR": "postfire",
        "FEATURE_COUNT": 45
      },
      "geometry": {
        "type": "Polygon",
        "coordinates": [
          [
            [
              -119.44047093957336,
              37.30007277391729
            ],
            [
              -119.44012461591235,
              37.300062344129216
            ],
            [
              -119.440132368111,
              37.29989807377941
            ],
            [
              -119.44047869102172,
              37.299908503505854
            ],
            [
              -119.44047093957336,
              37.30007277391729
            ]
          ]
        ]
      }
    },
    {
      "id": "46",
      "type": "Feature",
      "properties": {
        "id": null,
        "SOURCE_FILE": "/Users/maples/GitHub/mortalitree_testing/labels/enrique9_mortalitree_postfire_labels.geojson",
        "SUNETID": "enrique9",
        "FIRENAME": "CREEK",
        "FIRE_SLUG": "CREEK",
        "PREFIRE": 0,
        "PREFIRE_STATUS": "postfire",
        "TILE_Z": 17,
        "TILE_X": 22049,
        "TILE_Y": 50880,
        "TILEXYZ": [
          17,
          22049,
          50880
        ],
        "OUTPUT_FILE": "/Users/maples/GitHub/mortalitree_testing/notebooks/single_tiles/postfire/17/22049/50880.geojson",
        "OUTPUT_STATUS_DIR": "postfire",
        "FEATURE_COUNT": 45
      },
      "geometry": {
        "type": "Polygon",
        "coordinates": [
          [
            [
              -119.44034064921884,
              37.29984806878628
            ],
            [
              -119.44022160081131,
              37.299844483547915
            ],
            [
              -119.44022608877654,
              37.299749379648354
            ],
            [
              -119.44034513703474,
              37.29975296487446
            ],
            [
              -119.44034064921884,
              37.29984806878628
            ]
          ]
        ]
      }
    },
    {
      "id": "47",
      "type": "Feature",
      "properties": {
        "id": null,
        "SOURCE_FILE": "/Users/maples/GitHub/mortalitree_testing/labels/enrique9_mortalitree_postfire_labels.geojson",
        "SUNETID": "enrique9",
        "FIRENAME": "CREEK",
        "FIRE_SLUG": "CREEK",
        "PREFIRE": 0,
        "PREFIRE_STATUS": "postfire",
        "TILE_Z": 17,
        "TILE_X": 22049,
        "TILE_Y": 50880,
        "TILEXYZ": [
          17,
          22049,
          50880
        ],
        "OUTPUT_FILE": "/Users/maples/GitHub/mortalitree_testing/notebooks/single_tiles/postfire/17/22049/50880.geojson",
        "OUTPUT_STATUS_DIR": "postfire",
        "FEATURE_COUNT": 45
      },
      "geometry": {
        "type": "Polygon",
        "coordinates": [
          [
            [
              -119.4405459665465,
              37.2997460255853
            ],
            [
              -119.44023211205324,
              37.29973657390198
            ],
            [
              -119.44023782396617,
              37.29961553257134
            ],
            [
              -119.4405516779584,
              37.29962498421349
            ],
            [
              -119.4405459665465,
              37.2997460255853
            ]
          ]
        ]
      }
    },
    {
      "id": "48",
      "type": "Feature",
      "properties": {
        "id": null,
        "SOURCE_FILE": "/Users/maples/GitHub/mortalitree_testing/labels/enrique9_mortalitree_postfire_labels.geojson",
        "SUNETID": "enrique9",
        "FIRENAME": "CREEK",
        "FIRE_SLUG": "CREEK",
        "PREFIRE": 0,
        "PREFIRE_STATUS": "postfire",
        "TILE_Z": 17,
        "TILE_X": 22049,
        "TILE_Y": 50880,
        "TILEXYZ": [
          17,
          22049,
          50880
        ],
        "OUTPUT_FILE": "/Users/maples/GitHub/mortalitree_testing/notebooks/single_tiles/postfire/17/22049/50880.geojson",
        "OUTPUT_STATUS_DIR": "postfire",
        "FEATURE_COUNT": 45
      },
      "geometry": {
        "type": "Polygon",
        "coordinates": [
          [
            [
              -119.44007100780678,
              37.29993518720188
            ],
            [
              -119.43991949152512,
              37.29993062379626
            ],
            [
              -119.43992316382091,
              37.29985281154168
            ],
            [
              -119.44007467994709,
              37.29985737493453
            ],
            [
              -119.44007100780678,
              37.29993518720188
            ]
          ]
        ]
      }
    },
    {
      "id": "49",
      "type": "Feature",
      "properties": {
        "id": null,
        "SOURCE_FILE": "/Users/maples/GitHub/mortalitree_testing/labels/enrique9_mortalitree_postfire_labels.geojson",
        "SUNETID": "enrique9",
        "FIRENAME": "CREEK",
        "FIRE_SLUG": "CREEK",
        "PREFIRE": 0,
        "PREFIRE_STATUS": "postfire",
        "TILE_Z": 17,
        "TILE_X": 22049,
        "TILE_Y": 50880,
        "TILEXYZ": [
          17,
          22049,
          50880
        ],
        "OUTPUT_FILE": "/Users/maples/GitHub/mortalitree_testing/notebooks/single_tiles/postfire/17/22049/50880.geojson",
        "OUTPUT_STATUS_DIR": "postfire",
        "FEATURE_COUNT": 45
      },
      "geometry": {
        "type": "Polygon",
        "coordinates": [
          [
            [
              -119.43956276280223,
              37.30014066039286
            ],
            [
              -119.43938960096501,
              37.30013544428838
            ],
            [
              -119.43939286573804,
              37.30006627788222
            ],
            [
              -119.43956602741729,
              37.30007149397373
            ],
            [
              -119.43956276280223,
              37.30014066039286
            ]
          ]
        ]
      }
    },
    {
      "id": "50",
      "type": "Feature",
      "properties": {
        "id": null,
        "SOURCE_FILE": "/Users/maples/GitHub/mortalitree_testing/labels/enrique9_mortalitree_postfire_labels.geojson",
        "SUNETID": "enrique9",
        "FIRENAME": "CREEK",
        "FIRE_SLUG": "CREEK",
        "PREFIRE": 0,
        "PREFIRE_STATUS": "postfire",
        "TILE_Z": 17,
        "TILE_X": 22049,
        "TILE_Y": 50880,
        "TILEXYZ": [
          17,
          22049,
          50880
        ],
        "OUTPUT_FILE": "/Users/maples/GitHub/mortalitree_testing/notebooks/single_tiles/postfire/17/22049/50880.geojson",
        "OUTPUT_STATUS_DIR": "postfire",
        "FEATURE_COUNT": 45
      },
      "geometry": {
        "type": "Polygon",
        "coordinates": [
          [
            [
              -119.43893605828933,
              37.2996412569812
            ],
            [
              -119.43874125264661,
              37.29963538788098
            ],
            [
              -119.43874410979147,
              37.29957486731328
            ],
            [
              -119.4389389152787,
              37.29958073640073
            ],
            [
              -119.43893605828933,
              37.2996412569812
            ]
          ]
        ]
      }
    },
    {
      "id": "51",
      "type": "Feature",
      "properties": {
        "id": null,
        "SOURCE_FILE": "/Users/maples/GitHub/mortalitree_testing/labels/enrique9_mortalitree_postfire_labels.geojson",
        "SUNETID": "enrique9",
        "FIRENAME": "CREEK",
        "FIRE_SLUG": "CREEK",
        "PREFIRE": 0,
        "PREFIRE_STATUS": "postfire",
        "TILE_Z": 17,
        "TILE_X": 22049,
        "TILE_Y": 50880,
        "TILEXYZ": [
          17,
          22049,
          50880
        ],
        "OUTPUT_FILE": "/Users/maples/GitHub/mortalitree_testing/notebooks/single_tiles/postfire/17/22049/50880.geojson",
        "OUTPUT_STATUS_DIR": "postfire",
        "FEATURE_COUNT": 45
      },
      "geometry": {
        "type": "Polygon",
        "coordinates": [
          [
            [
              -119.43908625102749,
              37.299788640309934
            ],
            [
              -119.43882650963376,
              37.29978081507528
            ],
            [
              -119.43883181565414,
              37.299668419726956
            ],
            [
              -119.43909155666289,
              37.29967624492996
            ],
            [
              -119.43908625102749,
              37.299788640309934
            ]
          ]
        ]
      }
    },
    {
      "id": "52",
      "type": "Feature",
      "properties": {
        "id": null,
        "SOURCE_FILE": "/Users/maples/GitHub/mortalitree_testing/labels/enrique9_mortalitree_postfire_labels.geojson",
        "SUNETID": "enrique9",
        "FIRENAME": "CREEK",
        "FIRE_SLUG": "CREEK",
        "PREFIRE": 0,
        "PREFIRE_STATUS": "postfire",
        "TILE_Z": 17,
        "TILE_X": 22049,
        "TILE_Y": 50880,
        "TILEXYZ": [
          17,
          22049,
          50880
        ],
        "OUTPUT_FILE": "/Users/maples/GitHub/mortalitree_testing/notebooks/single_tiles/postfire/17/22049/50880.geojson",
        "OUTPUT_STATUS_DIR": "postfire",
        "FEATURE_COUNT": 45
      },
      "geometry": {
        "type": "Polygon",
        "coordinates": [
          [
            [
              -119.43855624912803,
              37.299651459032134
            ],
            [
              -119.43820992812095,
              37.29964102374124
            ],
            [
              -119.43821850080884,
              37.29945946214096
            ],
            [
              -119.43856482098667,
              37.299469897363686
            ],
            [
              -119.43855624912803,
              37.299651459032134
            ]
          ]
        ]
      }
    },
    {
      "id": "53",
      "type": "Feature",
      "properties": {
        "id": null,
        "SOURCE_FILE": "/Users/maples/GitHub/mortalitree_testing/labels/enrique9_mortalitree_postfire_labels.geojson",
        "SUNETID": "enrique9",
        "FIRENAME": "CREEK",
        "FIRE_SLUG": "CREEK",
        "PREFIRE": 0,
        "PREFIRE_STATUS": "postfire",
        "TILE_Z": 17,
        "TILE_X": 22049,
        "TILE_Y": 50880,
        "TILEXYZ": [
          17,
          22049,
          50880
        ],
        "OUTPUT_FILE": "/Users/maples/GitHub/mortalitree_testing/notebooks/single_tiles/postfire/17/22049/50880.geojson",
        "OUTPUT_STATUS_DIR": "postfire",
        "FEATURE_COUNT": 45
      },
      "geometry": {
        "type": "Polygon",
        "coordinates": [
          [
            [
              -119.4397048485895,
              37.29919687878733
            ],
            [
              -119.4394018191432,
              37.29918775099833
            ],
            [
              -119.43940630803407,
              37.299092647173104
            ],
            [
              -119.4397093371003,
              37.299101774930875
            ],
            [
              -119.4397048485895,
              37.29919687878733
            ]
          ]
        ]
      }
    },
    {
      "id": "54",
      "type": "Feature",
      "properties": {
        "id": null,
        "SOURCE_FILE": "/Users/maples/GitHub/mortalitree_testing/labels/enrique9_mortalitree_postfire_labels.geojson",
        "SUNETID": "enrique9",
        "FIRENAME": "CREEK",
        "FIRE_SLUG": "CREEK",
        "PREFIRE": 0,
        "PREFIRE_STATUS": "postfire",
        "TILE_Z": 17,
        "TILE_X": 22049,
        "TILE_Y": 50880,
        "TILEXYZ": [
          17,
          22049,
          50880
        ],
        "OUTPUT_FILE": "/Users/maples/GitHub/mortalitree_testing/notebooks/single_tiles/postfire/17/22049/50880.geojson",
        "OUTPUT_STATUS_DIR": "postfire",
        "FEATURE_COUNT": 45
      },
      "geometry": {
        "type": "Polygon",
        "coordinates": [
          [
            [
              -119.43924417513975,
              37.299083434084054
            ],
            [
              -119.43911430562052,
              37.29907952177386
            ],
            [
              -119.4391183867444,
              37.2989930637765
            ],
            [
              -119.43924825611555,
              37.29899697607454
            ],
            [
              -119.43924417513975,
              37.299083434084054
            ]
          ]
        ]
      }
    },
    {
      "id": "55",
      "type": "Feature",
      "properties": {
        "id": null,
        "SOURCE_FILE": "/Users/maples/GitHub/mortalitree_testing/labels/enrique9_mortalitree_postfire_labels.geojson",
        "SUNETID": "enrique9",
        "FIRENAME": "CREEK",
        "FIRE_SLUG": "CREEK",
        "PREFIRE": 0,
        "PREFIRE_STATUS": "postfire",
        "TILE_Z": 17,
        "TILE_X": 22049,
        "TILE_Y": 50880,
        "TILEXYZ": [
          17,
          22049,
          50880
        ],
        "OUTPUT_FILE": "/Users/maples/GitHub/mortalitree_testing/notebooks/single_tiles/postfire/17/22049/50880.geojson",
        "OUTPUT_STATUS_DIR": "postfire",
        "FEATURE_COUNT": 45
      },
      "geometry": {
        "type": "Polygon",
        "coordinates": [
          [
            [
              -119.44011844380174,
              37.2990448319213
            ],
            [
              -119.43985870467387,
              37.29903700908427
            ],
            [
              -119.43986278493938,
              37.29895055101622
            ],
            [
              -119.44012252377112,
              37.2989583738289
            ],
            [
              -119.44011844380174,
              37.2990448319213
            ]
          ]
        ]
      }
    },
    {
      "id": "56",
      "type": "Feature",
      "properties": {
        "id": null,
        "SOURCE_FILE": "/Users/maples/GitHub/mortalitree_testing/labels/enrique9_mortalitree_postfire_labels.geojson",
        "SUNETID": "enrique9",
        "FIRENAME": "CREEK",
        "FIRE_SLUG": "CREEK",
        "PREFIRE": 0,
        "PREFIRE_STATUS": "postfire",
        "TILE_Z": 17,
        "TILE_X": 22049,
        "TILE_Y": 50880,
        "TILEXYZ": [
          17,
          22049,
          50880
        ],
        "OUTPUT_FILE": "/Users/maples/GitHub/mortalitree_testing/notebooks/single_tiles/postfire/17/22049/50880.geojson",
        "OUTPUT_STATUS_DIR": "postfire",
        "FEATURE_COUNT": 45
      },
      "geometry": {
        "type": "Polygon",
        "coordinates": [
          [
            [
              -119.44014018543012,
              37.298928602402555
            ],
            [
              -119.43988044669578,
              37.29892077963393
            ],
            [
              -119.43988738306538,
              37.29877380091087
            ],
            [
              -119.44014712129625,
              37.29878162363813
            ],
            [
              -119.44014018543012,
              37.298928602402555
            ]
          ]
        ]
      }
    },
    {
      "id": "57",
      "type": "Feature",
      "properties": {
        "id": null,
        "SOURCE_FILE": "/Users/maples/GitHub/mortalitree_testing/labels/enrique9_mortalitree_postfire_labels.geojson",
        "SUNETID": "enrique9",
        "FIRENAME": "CREEK",
        "FIRE_SLUG": "CREEK",
        "PREFIRE": 0,
        "PREFIRE_STATUS": "postfire",
        "TILE_Z": 17,
        "TILE_X": 22049,
        "TILE_Y": 50880,
        "TILEXYZ": [
          17,
          22049,
          50880
        ],
        "OUTPUT_FILE": "/Users/maples/GitHub/mortalitree_testing/notebooks/single_tiles/postfire/17/22049/50880.geojson",
        "OUTPUT_STATUS_DIR": "postfire",
        "FEATURE_COUNT": 45
      },
      "geometry": {
        "type": "Polygon",
        "coordinates": [
          [
            [
              -119.44047244090356,
              37.29946675233581
            ],
            [
              -119.44032092549534,
              37.29946218949273
            ],
            [
              -119.44032500529454,
              37.29937573138738
            ],
            [
              -119.44047652052998,
              37.29938029421628
            ],
            [
              -119.44047244090356,
              37.29946675233581
            ]
          ]
        ]
      }
    },
    {
      "id": "58",
      "type": "Feature",
      "properties": {
        "id": null,
        "SOURCE_FILE": "/Users/maples/GitHub/mortalitree_testing/labels/enrique9_mortalitree_postfire_labels.geojson",
        "SUNETID": "enrique9",
        "FIRENAME": "CREEK",
        "FIRE_SLUG": "CREEK",
        "PREFIRE": 0,
        "PREFIRE_STATUS": "postfire",
        "TILE_Z": 17,
        "TILE_X": 22049,
        "TILE_Y": 50880,
        "TILEXYZ": [
          17,
          22049,
          50880
        ],
        "OUTPUT_FILE": "/Users/maples/GitHub/mortalitree_testing/notebooks/single_tiles/postfire/17/22049/50880.geojson",
        "OUTPUT_STATUS_DIR": "postfire",
        "FEATURE_COUNT": 45
      },
      "geometry": {
        "type": "Polygon",
        "coordinates": [
          [
            [
              -119.43802428935673,
              37.298408145202686
            ],
            [
              -119.43794312173777,
              37.29840569922641
            ],
            [
              -119.43794597939511,
              37.298345178698746
            ],
            [
              -119.43802714694927,
              37.29834762466969
            ],
            [
              -119.43802428935673,
              37.298408145202686
            ]
          ]
        ]
      }
    },
    {
      "id": "59",
      "type": "Feature",
      "properties": {
        "id": null,
        "SOURCE_FILE": "/Users/maples/GitHub/mortalitree_testing/labels/enrique9_mortalitree_postfire_labels.geojson",
        "SUNETID": "enrique9",
        "FIRENAME": "CREEK",
        "FIRE_SLUG": "CREEK",
        "PREFIRE": 0,
        "PREFIRE_STATUS": "postfire",
        "TILE_Z": 17,
        "TILE_X": 22049,
        "TILE_Y": 50880,
        "TILEXYZ": [
          17,
          22049,
          50880
        ],
        "OUTPUT_FILE": "/Users/maples/GitHub/mortalitree_testing/notebooks/single_tiles/postfire/17/22049/50880.geojson",
        "OUTPUT_STATUS_DIR": "postfire",
        "FEATURE_COUNT": 45
      },
      "geometry": {
        "type": "Polygon",
        "coordinates": [
          [
            [
              -119.4380737065442,
              37.29850920241668
            ],
            [
              -119.43803041708598,
              37.298507897917986
            ],
            [
              -119.43803286645615,
              37.298456023176
            ],
            [
              -119.43807615588479,
              37.29845732767227
            ],
            [
              -119.4380737065442,
              37.29850920241668
            ]
          ]
        ]
      }
    },
    {
      "id": "60",
      "type": "Feature",
      "properties": {
        "id": null,
        "SOURCE_FILE": "/Users/maples/GitHub/mortalitree_testing/labels/enrique9_mortalitree_postfire_labels.geojson",
        "SUNETID": "enrique9",
        "FIRENAME": "CREEK",
        "FIRE_SLUG": "CREEK",
        "PREFIRE": 0,
        "PREFIRE_STATUS": "postfire",
        "TILE_Z": 17,
        "TILE_X": 22049,
        "TILE_Y": 50880,
        "TILEXYZ": [
          17,
          22049,
          50880
        ],
        "OUTPUT_FILE": "/Users/maples/GitHub/mortalitree_testing/notebooks/single_tiles/postfire/17/22049/50880.geojson",
        "OUTPUT_STATUS_DIR": "postfire",
        "FEATURE_COUNT": 45
      },
      "geometry": {
        "type": "Polygon",
        "coordinates": [
          [
            [
              -119.43799279914576,
              37.298788152298584
            ],
            [
              -119.43798197674194,
              37.29878782616592
            ],
            [
              -119.43798585500042,
              37.29870569116571
            ],
            [
              -119.43799667739253,
              37.29870601729741
            ],
            [
              -119.43799279914576,
              37.298788152298584
            ]
          ]
        ]
      }
    },
    {
      "id": "61",
      "type": "Feature",
      "properties": {
        "id": null,
        "SOURCE_FILE": "/Users/maples/GitHub/mortalitree_testing/labels/enrique9_mortalitree_postfire_labels.geojson",
        "SUNETID": "enrique9",
        "FIRENAME": "CREEK",
        "FIRE_SLUG": "CREEK",
        "PREFIRE": 0,
        "PREFIRE_STATUS": "postfire",
        "TILE_Z": 17,
        "TILE_X": 22049,
        "TILE_Y": 50880,
        "TILEXYZ": [
          17,
          22049,
          50880
        ],
        "OUTPUT_FILE": "/Users/maples/GitHub/mortalitree_testing/notebooks/single_tiles/postfire/17/22049/50880.geojson",
        "OUTPUT_STATUS_DIR": "postfire",
        "FEATURE_COUNT": 45
      },
      "geometry": {
        "type": "Polygon",
        "coordinates": [
          [
            [
              -119.43848991559432,
              37.29881828347354
            ],
            [
              -119.43844662593933,
              37.298816979117916
            ],
            [
              -119.4384484627737,
              37.29877807304588
            ],
            [
              -119.4384917524065,
              37.298779377399676
            ],
            [
              -119.43848991559432,
              37.29881828347354
            ]
          ]
        ]
      }
    },
    {
      "id": "62",
      "type": "Feature",
      "properties": {
        "id": null,
        "SOURCE_FILE": "/Users/maples/GitHub/mortalitree_testing/labels/enrique9_mortalitree_postfire_labels.geojson",
        "SUNETID": "enrique9",
        "FIRENAME": "CREEK",
        "FIRE_SLUG": "CREEK",
        "PREFIRE": 0,
        "PREFIRE_STATUS": "postfire",
        "TILE_Z": 17,
        "TILE_X": 22049,
        "TILE_Y": 50880,
        "TILEXYZ": [
          17,
          22049,
          50880
        ],
        "OUTPUT_FILE": "/Users/maples/GitHub/mortalitree_testing/notebooks/single_tiles/postfire/17/22049/50880.geojson",
        "OUTPUT_STATUS_DIR": "postfire",
        "FEATURE_COUNT": 45
      },
      "geometry": {
        "type": "Polygon",
        "coordinates": [
          [
            [
              -119.43964227668121,
              37.29828372948078
            ],
            [
              -119.43927972801741,
              37.2982728086774
            ],
            [
              -119.4392872775124,
              37.29811286133035
            ],
            [
              -119.43964982541151,
              37.29812378207088
            ],
            [
              -119.43964227668121,
              37.29828372948078
            ]
          ]
        ]
      }
    }
  ],
  "properties": {
    "SOURCE_FILE": "/Users/maples/GitHub/mortalitree_testing/labels/enrique9_mortalitree_postfire_labels.geojson",
    "SUNETID": "enrique9",
    "FIRENAME": "CREEK",
    "FIRE_SLUG": "CREEK",
    "PREFIRE": 0,
    "PREFIRE_STATUS": "postfire",
    "TILE_Z": 17,
    "TILE_X": 22049,
    "TILE_Y": 50880,
    "TILEXYZ": [
      17,
      22049,
      50880
    ],
    "OUTPUT_FILE": "/Users/maples/GitHub/mortalitree_testing/notebooks/single_tiles/postfire/17/22049/50880.geojson",
    "OUTPUT_STATUS_DIR": "postfire",
    "FEATURE_COUNT": 45
  }
}