{
  "type": "FeatureCollection",
  "features": [
    {
      "id": "289",
      "type": "Feature",
      "properties": {
        "SOURCE_FILE": "/Users/maples/GitHub/mortalitree_testing/labels/hcdemars_mortalitree_postfire_labels-1.geojson",
        "SUNETID": "hcdemars",
        "FIRENAME": "CREEK",
        "FIRE_SLUG": "CREEK",
        "PREFIRE": 0,
        "PREFIRE_STATUS": "postfire",
        "TILE_Z": 17,
        "TILE_X": 22171,
        "TILE_Y": 50850,
        "TILEXYZ": [
          17,
          22171,
          50850
        ],
        "OUTPUT_FILE": "/Users/maples/GitHub/mortalitree_testing/notebooks/single_tiles/postfire/17/22171/50850.geojson",
        "OUTPUT_STATUS_DIR": "postfire",
        "FEATURE_COUNT": 22
      },
      "geometry": {
        "type": "Polygon",
        "coordinates": [
          [
            [
              -119.10483557103056,
              37.36500731126128
            ],
            [
              -119.10470980217303,
              37.36500316302252
            ],
            [
              -119.10471395998616,
              37.36492285518241
            ],
            [
              -119.10483972871032,
              37.364927003409186
            ],
            [
              -119.10483557103056,
              37.36500731126128
            ]
          ]
        ]
      }
    },
    {
      "id": "290",
      "type": "Feature",
      "properties": {
        "SOURCE_FILE": "/Users/maples/GitHub/mortalitree_testing/labels/hcdemars_mortalitree_postfire_labels-1.geojson",
        "SUNETID": "hcdemars",
        "FIRENAME": "CREEK",
        "FIRE_SLUG": "CREEK",
        "PREFIRE": 0,
        "PREFIRE_STATUS": "postfire",
        "TILE_Z": 17,
        "TILE_X": 22171,
        "TILE_Y": 50850,
        "TILEXYZ": [
          17,
          22171,
          50850
        ],
        "OUTPUT_FILE": "/Users/maples/GitHub/mortalitree_testing/notebooks/single_tiles/postfire/17/22171/50850.geojson",
        "OUTPUT_STATUS_DIR": "postfire",
        "FEATURE_COUNT": 22
      },
      "geometry": {
        "type": "Polygon",
        "coordinates": [
          [
            [
              -119.10516773483216,
              37.36564841879491
            ],
            [
              -119.10505873418359,
              37.36564482391617
            ],
            [
              -119.1050615058772,
              37.365591285339825
            ],
            [
              -119.10517050644866,
              37.36559488021164
            ],
            [
              -119.10516773483216,
              37.36564841879491
            ]
          ]
        ]
      }
    },
    {
      "id": "291",
      "type": "Feature",
      "properties": {
        "SOURCE_FILE": "/Users/maples/GitHub/mortalitree_testing/labels/hcdemars_mortalitree_postfire_labels-1.geojson",
        "SUNETID": "hcdemars",
        "FIRENAME": "CREEK",
        "FIRE_SLUG": "CREEK",
        "PREFIRE": 0,
        "PREFIRE_STATUS": "postfire",
        "TILE_Z": 17,
        "TILE_X": 22171,
        "TILE_Y": 50850,
        "TILEXYZ": [
          17,
          22171,
          50850
        ],
        "OUTPUT_FILE": "/Users/maples/GitHub/mortalitree_testing/notebooks/single_tiles/postfire/17/22171/50850.geojson",
        "OUTPUT_STATUS_DIR": "postfire",
        "FEATURE_COUNT": 22
      },
      "geometry": {
        "type": "Polygon",
        "coordinates": [
          [
            [
              -119.10523844984688,
              37.36558036158193
            ],
            [
              -119.10509591065782,
              37.365575660658976
            ],
            [
              -119.10509937523203,
              37.36550873743469
            ],
            [
              -119.10524191429505,
              37.36551343834633
            ],
            [
              -119.10523844984688,
              37.36558036158193
            ]
          ]
        ]
      }
    },
    {
      "id": "292",
      "type": "Feature",
      "properties": {
        "SOURCE_FILE": "/Users/maples/GitHub/mortalitree_testing/labels/hcdemars_mortalitree_postfire_labels-1.geojson",
        "SUNETID": "hcdemars",
        "FIRENAME": "CREEK",
        "FIRE_SLUG": "CREEK",
        "PREFIRE": 0,
        "PREFIRE_STATUS": "postfire",
        "TILE_Z": 17,
        "TILE_X": 22171,
        "TILE_Y": 50850,
        "TILEXYZ": [
          17,
          22171,
          50850
        ],
        "OUTPUT_FILE": "/Users/maples/GitHub/mortalitree_testing/notebooks/single_tiles/postfire/17/22171/50850.geojson",
        "OUTPUT_STATUS_DIR": "postfire",
        "FEATURE_COUNT": 22
      },
      "geometry": {
        "type": "Polygon",
        "coordinates": [
          [
            [
              -119.10526374203037,
              37.365497398832936
            ],
            [
              -119.10509604904982,
              37.36549186836384
            ],
            [
              -119.10509882070157,
              37.365438329783714
            ],
            [
              -119.10526651356354,
              37.36544386024216
            ],
            [
              -119.10526374203037,
              37.365497398832936
            ]
          ]
        ]
      }
    },
    {
      "id": "293",
      "type": "Feature",
      "properties": {
        "SOURCE_FILE": "/Users/maples/GitHub/mortalitree_testing/labels/hcdemars_mortalitree_postfire_labels-1.geojson",
        "SUNETID": "hcdemars",
        "FIRENAME": "CREEK",
        "FIRE_SLUG": "CREEK",
        "PREFIRE": 0,
        "PREFIRE_STATUS": "postfire",
        "TILE_Z": 17,
        "TILE_X": 22171,
        "TILE_Y": 50850,
        "TILEXYZ": [
          17,
          22171,
          50850
        ],
        "OUTPUT_FILE": "/Users/maples/GitHub/mortalitree_testing/notebooks/single_tiles/postfire/17/22171/50850.geojson",
        "OUTPUT_STATUS_DIR": "postfire",
        "FEATURE_COUNT": 22
      },
      "geometry": {
        "type": "Polygon",
        "coordinates": [
          [
            [
              -119.1052205378759,
              37.365764123952545
            ],
            [
              -119.1050863830198,
              37.36575969952046
            ],
            [
              -119.10508950116544,
              37.36569946862119
            ],
            [
              -119.10522365591476,
              37.365703893043694
            ],
            [
              -119.1052205378759,
              37.365764123952545
            ]
          ]
        ]
      }
    },
    {
      "id": "294",
      "type": "Feature",
      "properties": {
        "SOURCE_FILE": "/Users/maples/GitHub/mortalitree_testing/labels/hcdemars_mortalitree_postfire_labels-1.geojson",
        "SUNETID": "hcdemars",
        "FIRENAME": "CREEK",
        "FIRE_SLUG": "CREEK",
        "PREFIRE": 0,
        "PREFIRE_STATUS": "postfire",
        "TILE_Z": 17,
        "TILE_X": 22171,
        "TILE_Y": 50850,
        "TILEXYZ": [
          17,
          22171,
          50850
        ],
        "OUTPUT_FILE": "/Users/maples/GitHub/mortalitree_testing/notebooks/single_tiles/postfire/17/22171/50850.geojson",
        "OUTPUT_STATUS_DIR": "postfire",
        "FEATURE_COUNT": 22
      },
      "geometry": {
        "type": "Polygon",
        "coordinates": [
          [
            [
              -119.10343011990159,
              37.36564641750068
            ],
            [
              -119.10333696039969,
              37.36564334369973
            ],
            [
              -119.10334013192525,
              37.365582109028736
            ],
            [
              -119.10343329135182,
              37.36558518282291
            ],
            [
              -119.10343011990159,
              37.36564641750068
            ]
          ]
        ]
      }
    },
    {
      "id": "295",
      "type": "Feature",
      "properties": {
        "SOURCE_FILE": "/Users/maples/GitHub/mortalitree_testing/labels/hcdemars_mortalitree_postfire_labels-1.geojson",
        "SUNETID": "hcdemars",
        "FIRENAME": "CREEK",
        "FIRE_SLUG": "CREEK",
        "PREFIRE": 0,
        "PREFIRE_STATUS": "postfire",
        "TILE_Z": 17,
        "TILE_X": 22171,
        "TILE_Y": 50850,
        "TILEXYZ": [
          17,
          22171,
          50850
        ],
        "OUTPUT_FILE": "/Users/maples/GitHub/mortalitree_testing/notebooks/single_tiles/postfire/17/22171/50850.geojson",
        "OUTPUT_STATUS_DIR": "postfire",
        "FEATURE_COUNT": 22
      },
      "geometry": {
        "type": "Polygon",
        "coordinates": [
          [
            [
              -119.10347310192847,
              37.36550544082031
            ],
            [
              -119.10340734239824,
              37.3655032711169
            ],
            [
              -119.1034116465098,
              37.36542016691141
            ],
            [
              -119.10347740596784,
              37.36542233660833
            ],
            [
              -119.10347310192847,
              37.36550544082031
            ]
          ]
        ]
      }
    },
    {
      "id": "296",
      "type": "Feature",
      "properties": {
        "SOURCE_FILE": "/Users/maples/GitHub/mortalitree_testing/labels/hcdemars_mortalitree_postfire_labels-1.geojson",
        "SUNETID": "hcdemars",
        "FIRENAME": "CREEK",
        "FIRE_SLUG": "CREEK",
        "PREFIRE": 0,
        "PREFIRE_STATUS": "postfire",
        "TILE_Z": 17,
        "TILE_X": 22171,
        "TILE_Y": 50850,
        "TILEXYZ": [
          17,
          22171,
          50850
        ],
        "OUTPUT_FILE": "/Users/maples/GitHub/mortalitree_testing/notebooks/single_tiles/postfire/17/22171/50850.geojson",
        "OUTPUT_STATUS_DIR": "postfire",
        "FEATURE_COUNT": 22
      },
      "geometry": {
        "type": "Polygon",
        "coordinates": [
          [
            [
              -119.10344919171574,
              37.365384163969146
            ],
            [
              -119.10332863277985,
              37.36538018613829
            ],
            [
              -119.10333248388844,
              37.36530582974938
            ],
            [
              -119.10345304270591,
              37.365309807569595
            ],
            [
              -119.10344919171574,
              37.365384163969146
            ]
          ]
        ]
      }
    },
    {
      "id": "297",
      "type": "Feature",
      "properties": {
        "SOURCE_FILE": "/Users/maples/GitHub/mortalitree_testing/labels/hcdemars_mortalitree_postfire_labels-1.geojson",
        "SUNETID": "hcdemars",
        "FIRENAME": "CREEK",
        "FIRE_SLUG": "CREEK",
        "PREFIRE": 0,
        "PREFIRE_STATUS": "postfire",
        "TILE_Z": 17,
        "TILE_X": 22171,
        "TILE_Y": 50850,
        "TILEXYZ": [
          17,
          22171,
          50850
        ],
        "OUTPUT_FILE": "/Users/maples/GitHub/mortalitree_testing/notebooks/single_tiles/postfire/17/22171/50850.geojson",
        "OUTPUT_STATUS_DIR": "postfire",
        "FEATURE_COUNT": 22
      },
      "geometry": {
        "type": "Polygon",
        "coordinates": [
          [
            [
              -119.10333481388292,
              37.36541982250484
            ],
            [
              -119.10321973485938,
              37.36541602537278
            ],
            [
              -119.10322290645418,
              37.36535479070799
            ],
            [
              -119.10333798538463,
              37.365358587831686
            ],
            [
              -119.10333481388292,
              37.36541982250484
            ]
          ]
        ]
      }
    },
    {
      "id": "298",
      "type": "Feature",
      "properties": {
        "SOURCE_FILE": "/Users/maples/GitHub/mortalitree_testing/labels/hcdemars_mortalitree_postfire_labels-1.geojson",
        "SUNETID": "hcdemars",
        "FIRENAME": "CREEK",
        "FIRE_SLUG": "CREEK",
        "PREFIRE": 0,
        "PREFIRE_STATUS": "postfire",
        "TILE_Z": 17,
        "TILE_X": 22171,
        "TILE_Y": 50850,
        "TILEXYZ": [
          17,
          22171,
          50850
        ],
        "OUTPUT_FILE": "/Users/maples/GitHub/mortalitree_testing/notebooks/single_tiles/postfire/17/22171/50850.geojson",
        "OUTPUT_STATUS_DIR": "postfire",
        "FEATURE_COUNT": 22
      },
      "geometry": {
        "type": "Polygon",
        "coordinates": [
          [
            [
              -119.10312623584328,
              37.36541951227836
            ],
            [
              -119.10307691627159,
              37.36541788486276
            ],
            [
              -119.10307827557753,
              37.36539164143957
            ],
            [
              -119.10312759513212,
              37.365393268853644
            ],
            [
              -119.10312623584328,
              37.36541951227836
            ]
          ]
        ]
      }
    },
    {
      "id": "299",
      "type": "Feature",
      "properties": {
        "SOURCE_FILE": "/Users/maples/GitHub/mortalitree_testing/labels/hcdemars_mortalitree_postfire_labels-1.geojson",
        "SUNETID": "hcdemars",
        "FIRENAME": "CREEK",
        "FIRE_SLUG": "CREEK",
        "PREFIRE": 0,
        "PREFIRE_STATUS": "postfire",
        "TILE_Z": 17,
        "TILE_X": 22171,
        "TILE_Y": 50850,
        "TILEXYZ": [
          17,
          22171,
          50850
        ],
        "OUTPUT_FILE": "/Users/maples/GitHub/mortalitree_testing/notebooks/single_tiles/postfire/17/22171/50850.geojson",
        "OUTPUT_STATUS_DIR": "postfire",
        "FEATURE_COUNT": 22
      },
      "geometry": {
        "type": "Polygon",
        "coordinates": [
          [
            [
              -119.10309252045107,
              37.3653285814814
            ],
            [
              -119.10302128115981,
              37.36532623074794
            ],
            [
              -119.10302332014035,
              37.365286865615104
            ],
            [
              -119.10309455939455,
              37.36528921634524
            ],
            [
              -119.10309252045107,
              37.3653285814814
            ]
          ]
        ]
      }
    },
    {
      "id": "300",
      "type": "Feature",
      "properties": {
        "SOURCE_FILE": "/Users/maples/GitHub/mortalitree_testing/labels/hcdemars_mortalitree_postfire_labels-1.geojson",
        "SUNETID": "hcdemars",
        "FIRENAME": "CREEK",
        "FIRE_SLUG": "CREEK",
        "PREFIRE": 0,
        "PREFIRE_STATUS": "postfire",
        "TILE_Z": 17,
        "TILE_X": 22171,
        "TILE_Y": 50850,
        "TILEXYZ": [
          17,
          22171,
          50850
        ],
        "OUTPUT_FILE": "/Users/maples/GitHub/mortalitree_testing/notebooks/single_tiles/postfire/17/22171/50850.geojson",
        "OUTPUT_STATUS_DIR": "postfire",
        "FEATURE_COUNT": 22
      },
      "geometry": {
        "type": "Polygon",
        "coordinates": [
          [
            [
              -119.10312628491151,
              37.36525959354257
            ],
            [
              -119.10303312592157,
              37.36525651952929
            ],
            [
              -119.10303584454631,
              37.36520403268406
            ],
            [
              -119.10312900347164,
              37.365207106691535
            ],
            [
              -119.10312628491151,
              37.36525959354257
            ]
          ]
        ]
      }
    },
    {
      "id": "301",
      "type": "Feature",
      "properties": {
        "SOURCE_FILE": "/Users/maples/GitHub/mortalitree_testing/labels/hcdemars_mortalitree_postfire_labels-1.geojson",
        "SUNETID": "hcdemars",
        "FIRENAME": "CREEK",
        "FIRE_SLUG": "CREEK",
        "PREFIRE": 0,
        "PREFIRE_STATUS": "postfire",
        "TILE_Z": 17,
        "TILE_X": 22171,
        "TILE_Y": 50850,
        "TILEXYZ": [
          17,
          22171,
          50850
        ],
        "OUTPUT_FILE": "/Users/maples/GitHub/mortalitree_testing/notebooks/single_tiles/postfire/17/22171/50850.geojson",
        "OUTPUT_STATUS_DIR": "postfire",
        "FEATURE_COUNT": 22
      },
      "geometry": {
        "type": "Polygon",
        "coordinates": [
          [
            [
              -119.10308149643114,
              37.365170488052605
            ],
            [
              -119.10300477735674,
              37.365167956493636
            ],
            [
              -119.10300704288703,
              37.365124217456824
            ],
            [
              -119.1030837619171,
              37.36512674901181
            ],
            [
              -119.10308149643114,
              37.365170488052605
            ]
          ]
        ]
      }
    },
    {
      "id": "302",
      "type": "Feature",
      "properties": {
        "SOURCE_FILE": "/Users/maples/GitHub/mortalitree_testing/labels/hcdemars_mortalitree_postfire_labels-1.geojson",
        "SUNETID": "hcdemars",
        "FIRENAME": "CREEK",
        "FIRE_SLUG": "CREEK",
        "PREFIRE": 0,
        "PREFIRE_STATUS": "postfire",
        "TILE_Z": 17,
        "TILE_X": 22171,
        "TILE_Y": 50850,
        "TILEXYZ": [
          17,
          22171,
          50850
        ],
        "OUTPUT_FILE": "/Users/maples/GitHub/mortalitree_testing/notebooks/single_tiles/postfire/17/22171/50850.geojson",
        "OUTPUT_STATUS_DIR": "postfire",
        "FEATURE_COUNT": 22
      },
      "geometry": {
        "type": "Polygon",
        "coordinates": [
          [
            [
              -119.10311766096291,
              37.36510815137948
            ],
            [
              -119.10301354230307,
              37.365104715716974
            ],
            [
              -119.10301626092654,
              37.36505222887164
            ],
            [
              -119.10312037951421,
              37.36505566452765
            ],
            [
              -119.10311766096291,
              37.36510815137948
            ]
          ]
        ]
      }
    },
    {
      "id": "303",
      "type": "Feature",
      "properties": {
        "SOURCE_FILE": "/Users/maples/GitHub/mortalitree_testing/labels/hcdemars_mortalitree_postfire_labels-1.geojson",
        "SUNETID": "hcdemars",
        "FIRENAME": "CREEK",
        "FIRE_SLUG": "CREEK",
        "PREFIRE": 0,
        "PREFIRE_STATUS": "postfire",
        "TILE_Z": 17,
        "TILE_X": 22171,
        "TILE_Y": 50850,
        "TILEXYZ": [
          17,
          22171,
          50850
        ],
        "OUTPUT_FILE": "/Users/maples/GitHub/mortalitree_testing/notebooks/single_tiles/postfire/17/22171/50850.geojson",
        "OUTPUT_STATUS_DIR": "postfire",
        "FEATURE_COUNT": 22
      },
      "geometry": {
        "type": "Polygon",
        "coordinates": [
          [
            [
              -119.10321075533875,
              37.36495349351583
            ],
            [
              -119.10309567704441,
              37.364949696303235
            ],
            [
              -119.1030979425041,
              37.36490595726005
            ],
            [
              -119.10321302073196,
              37.36490975446667
            ],
            [
              -119.10321075533875,
              37.36495349351583
            ]
          ]
        ]
      }
    },
    {
      "id": "304",
      "type": "Feature",
      "properties": {
        "SOURCE_FILE": "/Users/maples/GitHub/mortalitree_testing/labels/hcdemars_mortalitree_postfire_labels-1.geojson",
        "SUNETID": "hcdemars",
        "FIRENAME": "CREEK",
        "FIRE_SLUG": "CREEK",
        "PREFIRE": 0,
        "PREFIRE_STATUS": "postfire",
        "TILE_Z": 17,
        "TILE_X": 22171,
        "TILE_Y": 50850,
        "TILEXYZ": [
          17,
          22171,
          50850
        ],
        "OUTPUT_FILE": "/Users/maples/GitHub/mortalitree_testing/notebooks/single_tiles/postfire/17/22171/50850.geojson",
        "OUTPUT_STATUS_DIR": "postfire",
        "FEATURE_COUNT": 22
      },
      "geometry": {
        "type": "Polygon",
        "coordinates": [
          [
            [
              -119.10313390176871,
              37.36490057174106
            ],
            [
              -119.10304622313592,
              37.364897678583326
            ],
            [
              -119.1030489417163,
              37.36484519173409
            ],
            [
              -119.1031366202883,
              37.36484808488636
            ],
            [
              -119.10313390176871,
              37.36490057174106
            ]
          ]
        ]
      }
    },
    {
      "id": "305",
      "type": "Feature",
      "properties": {
        "SOURCE_FILE": "/Users/maples/GitHub/mortalitree_testing/labels/hcdemars_mortalitree_postfire_labels-1.geojson",
        "SUNETID": "hcdemars",
        "FIRENAME": "CREEK",
        "FIRE_SLUG": "CREEK",
        "PREFIRE": 0,
        "PREFIRE_STATUS": "postfire",
        "TILE_Z": 17,
        "TILE_X": 22171,
        "TILE_Y": 50850,
        "TILEXYZ": [
          17,
          22171,
          50850
        ],
        "OUTPUT_FILE": "/Users/maples/GitHub/mortalitree_testing/notebooks/single_tiles/postfire/17/22171/50850.geojson",
        "OUTPUT_STATUS_DIR": "postfire",
        "FEATURE_COUNT": 22
      },
      "geometry": {
        "type": "Polygon",
        "coordinates": [
          [
            [
              -119.10296630808567,
              37.36482835694914
            ],
            [
              -119.10284547611306,
              37.36482436963459
            ],
            [
              -119.10284947261873,
              37.364747213983506
            ],
            [
              -119.1029703044682,
              37.36475120128701
            ],
            [
              -119.10296630808567,
              37.36482835694914
            ]
          ]
        ]
      }
    },
    {
      "id": "306",
      "type": "Feature",
      "properties": {
        "SOURCE_FILE": "/Users/maples/GitHub/mortalitree_testing/labels/hcdemars_mortalitree_postfire_labels-1.geojson",
        "SUNETID": "hcdemars",
        "FIRENAME": "CREEK",
        "FIRE_SLUG": "CREEK",
        "PREFIRE": 0,
        "PREFIRE_STATUS": "postfire",
        "TILE_Z": 17,
        "TILE_X": 22171,
        "TILE_Y": 50850,
        "TILEXYZ": [
          17,
          22171,
          50850
        ],
        "OUTPUT_FILE": "/Users/maples/GitHub/mortalitree_testing/notebooks/single_tiles/postfire/17/22171/50850.geojson",
        "OUTPUT_STATUS_DIR": "postfire",
        "FEATURE_COUNT": 22
      },
      "geometry": {
        "type": "Polygon",
        "coordinates": [
          [
            [
              -119.10294484955112,
              37.36436633886658
            ],
            [
              -119.1028783923724,
              37.36436414586974
            ],
            [
              -119.10288138967799,
              37.36430627912478
            ],
            [
              -119.10294784680589,
              37.36430847211707
            ],
            [
              -119.10294484955112,
              37.36436633886658
            ]
          ]
        ]
      }
    },
    {
      "id": "307",
      "type": "Feature",
      "properties": {
        "SOURCE_FILE": "/Users/maples/GitHub/mortalitree_testing/labels/hcdemars_mortalitree_postfire_labels-1.geojson",
        "SUNETID": "hcdemars",
        "FIRENAME": "CREEK",
        "FIRE_SLUG": "CREEK",
        "PREFIRE": 0,
        "PREFIRE_STATUS": "postfire",
        "TILE_Z": 17,
        "TILE_X": 22171,
        "TILE_Y": 50850,
        "TILEXYZ": [
          17,
          22171,
          50850
        ],
        "OUTPUT_FILE": "/Users/maples/GitHub/mortalitree_testing/notebooks/single_tiles/postfire/17/22171/50850.geojson",
        "OUTPUT_STATUS_DIR": "postfire",
        "FEATURE_COUNT": 22
      },
      "geometry": {
        "type": "Polygon",
        "coordinates": [
          [
            [
              -119.10285382800788,
              37.36431261532376
            ],
            [
              -119.1027934124402,
              37.36431062164775
            ],
            [
              -119.10279940716168,
              37.364194888167745
            ],
            [
              -119.10285982263701,
              37.36419688183546
            ],
            [
              -119.10285382800788,
              37.36431261532376
            ]
          ]
        ]
      }
    },
    {
      "id": "308",
      "type": "Feature",
      "properties": {
        "SOURCE_FILE": "/Users/maples/GitHub/mortalitree_testing/labels/hcdemars_mortalitree_postfire_labels-1.geojson",
        "SUNETID": "hcdemars",
        "FIRENAME": "CREEK",
        "FIRE_SLUG": "CREEK",
        "PREFIRE": 0,
        "PREFIRE_STATUS": "postfire",
        "TILE_Z": 17,
        "TILE_X": 22171,
        "TILE_Y": 50850,
        "TILEXYZ": [
          17,
          22171,
          50850
        ],
        "OUTPUT_FILE": "/Users/maples/GitHub/mortalitree_testing/notebooks/single_tiles/postfire/17/22171/50850.geojson",
        "OUTPUT_STATUS_DIR": "postfire",
        "FEATURE_COUNT": 22
      },
      "geometry": {
        "type": "Polygon",
        "coordinates": [
          [
            [
              -119.10324008939932,
              37.364274641024664
            ],
            [
              -119.10313134138653,
              37.364271052743895
            ],
            [
              -119.10313583703517,
              37.36418425259864
            ],
            [
              -119.10324458492329,
              37.364187840868205
            ],
            [
              -119.10324008939932,
              37.364274641024664
            ]
          ]
        ]
      }
    },
    {
      "id": "309",
      "type": "Feature",
      "properties": {
        "SOURCE_FILE": "/Users/maples/GitHub/mortalitree_testing/labels/hcdemars_mortalitree_postfire_labels-1.geojson",
        "SUNETID": "hcdemars",
        "FIRENAME": "CREEK",
        "FIRE_SLUG": "CREEK",
        "PREFIRE": 0,
        "PREFIRE_STATUS": "postfire",
        "TILE_Z": 17,
        "TILE_X": 22171,
        "TILE_Y": 50850,
        "TILEXYZ": [
          17,
          22171,
          50850
        ],
        "OUTPUT_FILE": "/Users/maples/GitHub/mortalitree_testing/notebooks/single_tiles/postfire/17/22171/50850.geojson",
        "OUTPUT_STATUS_DIR": "postfire",
        "FEATURE_COUNT": 22
      },
      "geometry": {
        "type": "Polygon",
        "coordinates": [
          [
            [
              -119.10331328969217,
              37.364146633568204
            ],
            [
              -119.10322266649288,
              37.36414364340594
            ],
            [
              -119.10322741176633,
              37.364052021018374
            ],
            [
              -119.10331803485596,
              37.364055011170805
            ],
            [
              -119.10331328969217,
              37.364146633568204
            ]
          ]
        ]
      }
    },
    {
      "id": "310",
      "type": "Feature",
      "properties": {
        "SOURCE_FILE": "/Users/maples/GitHub/mortalitree_testing/labels/hcdemars_mortalitree_postfire_labels-1.geojson",
        "SUNETID": "hcdemars",
        "FIRENAME": "CREEK",
        "FIRE_SLUG": "CREEK",
        "PREFIRE": 0,
        "PREFIRE_STATUS": "postfire",
        "TILE_Z": 17,
        "TILE_X": 22171,
        "TILE_Y": 50850,
        "TILEXYZ": [
          17,
          22171,
          50850
        ],
        "OUTPUT_FILE": "/Users/maples/GitHub/mortalitree_testing/notebooks/single_tiles/postfire/17/22171/50850.geojson",
        "OUTPUT_STATUS_DIR": "postfire",
        "FEATURE_COUNT": 22
      },
      "geometry": {
        "type": "Polygon",
        "coordinates": [
          [
            [
              -119.10422326922053,
              37.364103713172874
            ],
            [
              -119.10413074059828,
              37.36410066085578
            ],
            [
              -119.10413615812655,
              37.3639960338265
            ],
            [
              -119.10422868662091,
              37.36399908613211
            ],
            [
              -119.10422326922053,
              37.364103713172874
            ]
          ]
        ]
      }
    }
  ],
  "properties": {
    "SOURCE_FILE": "/Users/maples/GitHub/mortalitree_testing/labels/hcdemars_mortalitree_postfire_labels-1.geojson",
    "SUNETID": "hcdemars",
    "FIRENAME": "CREEK",
    "FIRE_SLUG": "CREEK",
    "PREFIRE": 0,
    "PREFIRE_STATUS": "postfire",
    "TILE_Z": 17,
    "TILE_X": 22171,
    "TILE_Y": 50850,
    "TILEXYZ": [
      17,
      22171,
      50850
    ],
    "OUTPUT_FILE": "/Users/maples/GitHub/mortalitree_testing/notebooks/single_tiles/postfire/17/22171/50850.geojson",
    "OUTPUT_STATUS_DIR": "postfire",
    "FEATURE_COUNT": 22
  }
}