{
  "type": "FeatureCollection",
  "features": [
    {
      "id": "329",
      "type": "Feature",
      "properties": {
        "id": null,
        "SOURCE_FILE": "/Users/maples/GitHub/mortalitree_testing/labels/bashah_mortalitree_postfire_labels.geojson",
        "SUNETID": "bashah",
        "FIRENAME": "CASTLE",
        "FIRE_SLUG": "CASTLE",
        "PREFIRE": 0,
        "PREFIRE_STATUS": "postfire",
        "TILE_Z": 17,
        "TILE_X": 22320,
        "TILE_Y": 51313,
        "TILEXYZ": [
          17,
          22320,
          51313
        ],
        "OUTPUT_FILE": "/Users/maples/GitHub/mortalitree_testing/notebooks/single_tiles/postfire/17/22320/51313.geojson",
        "OUTPUT_STATUS_DIR": "postfire",
        "FEATURE_COUNT": 1
      },
      "geometry": {
        "type": "Polygon",
        "coordinates": [
          [
            [
              -118.69354248046875,
              36.346876179733904
            ],
            [
              -118.69354248046875,
              36.346870112221175
            ],
            [
              -118.69354281455247,
              36.3468701242834
            ],
            [
              -118.69354248046875,
              36.346876179733904
            ]
          ]
        ]
      }
    }
  ],
  "properties": {
    "SOURCE_FILE": "/Users/maples/GitHub/mortalitree_testing/labels/bashah_mortalitree_postfire_labels.geojson",
    "SUNETID": "bashah",
    "FIRENAME": "CASTLE",
    "FIRE_SLUG": "CASTLE",
    "PREFIRE": 0,
    "PREFIRE_STATUS": "postfire",
    "TILE_Z": 17,
    "TILE_X": 22320,
    "TILE_Y": 51313,
    "TILEXYZ": [
      17,
      22320,
      51313
    ],
    "OUTPUT_FILE": "/Users/maples/GitHub/mortalitree_testing/notebooks/single_tiles/postfire/17/22320/51313.geojson",
    "OUTPUT_STATUS_DIR": "postfire",
    "FEATURE_COUNT": 1
  }
}