{
  "type": "FeatureCollection",
  "features": [
    {
      "id": "11",
      "type": "Feature",
      "properties": {
        "id": null,
        "SOURCE_FILE": "/Users/maples/GitHub/mortalitree_testing/labels/izzyip_mortalitree_postfire_labels.geojson",
        "SUNETID": "izzyip",
        "FIRENAME": "CZU AUG LIGHTNING",
        "FIRE_SLUG": "CZU_AUG_LIGHTNING",
        "PREFIRE": 0,
        "PREFIRE_STATUS": "postfire",
        "TILE_Z": 17,
        "TILE_X": 21007,
        "TILE_Y": 50937,
        "TILEXYZ": [
          17,
          21007,
          50937
        ],
        "OUTPUT_FILE": "/Users/maples/GitHub/mortalitree_testing/notebooks/single_tiles/postfire/17/21007/50937.geojson",
        "OUTPUT_STATUS_DIR": "postfire",
        "FEATURE_COUNT": 3
      },
      "geometry": {
        "type": "Polygon",
        "coordinates": [
          [
            [
              -122.29982044049352,
              37.17557645636268
            ],
            [
              -122.2998046875,
              37.17557636327055
            ],
            [
              -122.2998046875,
              37.17552680236262
            ],
            [
              -122.29982089784527,
              37.17552689815735
            ],
            [
              -122.29982044049352,
              37.17557645636268
            ]
          ]
        ]
      }
    },
    {
      "id": "12",
      "type": "Feature",
      "properties": {
        "id": null,
        "SOURCE_FILE": "/Users/maples/GitHub/mortalitree_testing/labels/izzyip_mortalitree_postfire_labels.geojson",
        "SUNETID": "izzyip",
        "FIRENAME": "CZU AUG LIGHTNING",
        "FIRE_SLUG": "CZU_AUG_LIGHTNING",
        "PREFIRE": 0,
        "PREFIRE_STATUS": "postfire",
        "TILE_Z": 17,
        "TILE_X": 21007,
        "TILE_Y": 50937,
        "TILEXYZ": [
          17,
          21007,
          50937
        ],
        "OUTPUT_FILE": "/Users/maples/GitHub/mortalitree_testing/notebooks/single_tiles/postfire/17/21007/50937.geojson",
        "OUTPUT_STATUS_DIR": "postfire",
        "FEATURE_COUNT": 3
      },
      "geometry": {
        "type": "Polygon",
        "coordinates": [
          [
            [
              -122.29982688147538,
              37.17548863645011
            ],
            [
              -122.2998046875,
              37.175488505295874
            ],
            [
              -122.2998046875,
              37.17542993331288
            ],
            [
              -122.29982742197518,
              37.17543006766099
            ],
            [
              -122.29982688147538,
              37.17548863645011
            ]
          ]
        ]
      }
    },
    {
      "id": "39",
      "type": "Feature",
      "properties": {
        "id": null,
        "SOURCE_FILE": "/Users/maples/GitHub/mortalitree_testing/labels/izzyip_mortalitree_postfire_labels.geojson",
        "SUNETID": "izzyip",
        "FIRENAME": "CZU AUG LIGHTNING",
        "FIRE_SLUG": "CZU_AUG_LIGHTNING",
        "PREFIRE": 0,
        "PREFIRE_STATUS": "postfire",
        "TILE_Z": 17,
        "TILE_X": 21007,
        "TILE_Y": 50937,
        "TILEXYZ": [
          17,
          21007,
          50937
        ],
        "OUTPUT_FILE": "/Users/maples/GitHub/mortalitree_testing/notebooks/single_tiles/postfire/17/21007/50937.geojson",
        "OUTPUT_STATUS_DIR": "postfire",
        "FEATURE_COUNT": 3
      },
      "geometry": {
        "type": "Polygon",
        "coordinates": [
          [
            [
              -122.29986615947841,
              37.17519826139018
            ],
            [
              -122.2998046875,
              37.17519789812979
            ],
            [
              -122.2998046875,
              37.17510328184475
            ],
            [
              -122.29986703253451,
              37.17510365026356
            ],
            [
              -122.29986615947841,
              37.17519826139018
            ]
          ]
        ]
      }
    }
  ],
  "properties": {
    "SOURCE_FILE": "/Users/maples/GitHub/mortalitree_testing/labels/izzyip_mortalitree_postfire_labels.geojson",
    "SUNETID": "izzyip",
    "FIRENAME": "CZU AUG LIGHTNING",
    "FIRE_SLUG": "CZU_AUG_LIGHTNING",
    "PREFIRE": 0,
    "PREFIRE_STATUS": "postfire",
    "TILE_Z": 17,
    "TILE_X": 21007,
    "TILE_Y": 50937,
    "TILEXYZ": [
      17,
      21007,
      50937
    ],
    "OUTPUT_FILE": "/Users/maples/GitHub/mortalitree_testing/notebooks/single_tiles/postfire/17/21007/50937.geojson",
    "OUTPUT_STATUS_DIR": "postfire",
    "FEATURE_COUNT": 3
  }
}