{
  "type": "FeatureCollection",
  "features": [
    {
      "id": "0",
      "type": "Feature",
      "properties": {
        "id": null,
        "SOURCE_FILE": "/Users/maples/GitHub/mortalitree_testing/labels/izzyip_mortalitree_postfire_labels.geojson",
        "SUNETID": "izzyip",
        "FIRENAME": "CZU AUG LIGHTNING",
        "FIRE_SLUG": "CZU_AUG_LIGHTNING",
        "PREFIRE": 0,
        "PREFIRE_STATUS": "postfire",
        "TILE_Z": 17,
        "TILE_X": 20996,
        "TILE_Y": 50952,
        "TILEXYZ": [
          17,
          20996,
          50952
        ],
        "OUTPUT_FILE": "/Users/maples/GitHub/mortalitree_testing/notebooks/single_tiles/postfire/17/20996/50952.geojson",
        "OUTPUT_STATUS_DIR": "postfire",
        "FEATURE_COUNT": 4
      },
      "geometry": {
        "type": "Polygon",
        "coordinates": [
          [
            [
              -122.33084252552493,
              37.140953699320164
            ],
            [
              -122.33072781102938,
              37.1409530516472
            ],
            [
              -122.33072848526784,
              37.1408765211646
            ],
            [
              -122.33084319964782,
              37.14087716883577
            ],
            [
              -122.33084252552493,
              37.140953699320164
            ]
          ]
        ]
      }
    },
    {
      "id": "1",
      "type": "Feature",
      "properties": {
        "id": null,
        "SOURCE_FILE": "/Users/maples/GitHub/mortalitree_testing/labels/izzyip_mortalitree_postfire_labels.geojson",
        "SUNETID": "izzyip",
        "FIRENAME": "CZU AUG LIGHTNING",
        "FIRE_SLUG": "CZU_AUG_LIGHTNING",
        "PREFIRE": 0,
        "PREFIRE_STATUS": "postfire",
        "TILE_Z": 17,
        "TILE_X": 20996,
        "TILE_Y": 50952,
        "TILEXYZ": [
          17,
          20996,
          50952
        ],
        "OUTPUT_FILE": "/Users/maples/GitHub/mortalitree_testing/notebooks/single_tiles/postfire/17/20996/50952.geojson",
        "OUTPUT_STATUS_DIR": "postfire",
        "FEATURE_COUNT": 4
      },
      "geometry": {
        "type": "Polygon",
        "coordinates": [
          [
            [
              -122.33141996854555,
              37.14106027914519
            ],
            [
              -122.33130525387553,
              37.14105963202949
            ],
            [
              -122.33130612963221,
              37.140960142391954
            ],
            [
              -122.33142084415199,
              37.140960789505336
            ],
            [
              -122.33141996854555,
              37.14106027914519
            ]
          ]
        ]
      }
    },
    {
      "id": "2",
      "type": "Feature",
      "properties": {
        "id": null,
        "SOURCE_FILE": "/Users/maples/GitHub/mortalitree_testing/labels/izzyip_mortalitree_postfire_labels.geojson",
        "SUNETID": "izzyip",
        "FIRENAME": "CZU AUG LIGHTNING",
        "FIRE_SLUG": "CZU_AUG_LIGHTNING",
        "PREFIRE": 0,
        "PREFIRE_STATUS": "postfire",
        "TILE_Z": 17,
        "TILE_X": 20996,
        "TILE_Y": 50952,
        "TILEXYZ": [
          17,
          20996,
          50952
        ],
        "OUTPUT_FILE": "/Users/maples/GitHub/mortalitree_testing/notebooks/single_tiles/postfire/17/20996/50952.geojson",
        "OUTPUT_STATUS_DIR": "postfire",
        "FEATURE_COUNT": 4
      },
      "geometry": {
        "type": "Polygon",
        "coordinates": [
          [
            [
              -122.33143077180867,
              37.14146214509483
            ],
            [
              -122.33129693731911,
              37.14146139012098
            ],
            [
              -122.33129794783444,
              37.1413465943932
            ],
            [
              -122.33143178212181,
              37.14134734936394
            ],
            [
              -122.33143077180867,
              37.14146214509483
            ]
          ]
        ]
      }
    },
    {
      "id": "3",
      "type": "Feature",
      "properties": {
        "id": null,
        "SOURCE_FILE": "/Users/maples/GitHub/mortalitree_testing/labels/izzyip_mortalitree_postfire_labels.geojson",
        "SUNETID": "izzyip",
        "FIRENAME": "CZU AUG LIGHTNING",
        "FIRE_SLUG": "CZU_AUG_LIGHTNING",
        "PREFIRE": 0,
        "PREFIRE_STATUS": "postfire",
        "TILE_Z": 17,
        "TILE_X": 20996,
        "TILE_Y": 50952,
        "TILEXYZ": [
          17,
          20996,
          50952
        ],
        "OUTPUT_FILE": "/Users/maples/GitHub/mortalitree_testing/notebooks/single_tiles/postfire/17/20996/50952.geojson",
        "OUTPUT_STATUS_DIR": "postfire",
        "FEATURE_COUNT": 4
      },
      "geometry": {
        "type": "Polygon",
        "coordinates": [
          [
            [
              -122.33099408991251,
              37.14064100397762
            ],
            [
              -122.33090538135272,
              37.14064050325773
            ],
            [
              -122.33090561460169,
              37.14061402065651
            ],
            [
              -122.33099432754013,
              37.14061402065651
            ],
            [
              -122.33099408991251,
              37.14064100397762
            ]
          ]
        ]
      }
    }
  ],
  "properties": {
    "SOURCE_FILE": "/Users/maples/GitHub/mortalitree_testing/labels/izzyip_mortalitree_postfire_labels.geojson",
    "SUNETID": "izzyip",
    "FIRENAME": "CZU AUG LIGHTNING",
    "FIRE_SLUG": "CZU_AUG_LIGHTNING",
    "PREFIRE": 0,
    "PREFIRE_STATUS": "postfire",
    "TILE_Z": 17,
    "TILE_X": 20996,
    "TILE_Y": 50952,
    "TILEXYZ": [
      17,
      20996,
      50952
    ],
    "OUTPUT_FILE": "/Users/maples/GitHub/mortalitree_testing/notebooks/single_tiles/postfire/17/20996/50952.geojson",
    "OUTPUT_STATUS_DIR": "postfire",
    "FEATURE_COUNT": 4
  }
}