{
  "type": "FeatureCollection",
  "features": [
    {
      "id": "694",
      "type": "Feature",
      "properties": {
        "id": null,
        "SOURCE_FILE": "/Users/maples/GitHub/mortalitree_testing/labels/gwynethb_mortalitree_postfire_labels.geojson",
        "SUNETID": "gwynethb",
        "FIRENAME": "CREEK",
        "FIRE_SLUG": "CREEK",
        "PREFIRE": 0,
        "PREFIRE_STATUS": "postfire",
        "TILE_Z": 17,
        "TILE_X": 22076,
        "TILE_Y": 50782,
        "TILEXYZ": [
          17,
          22076,
          50782
        ],
        "OUTPUT_FILE": "/Users/maples/GitHub/mortalitree_testing/notebooks/single_tiles/postfire/17/22076/50782.geojson",
        "OUTPUT_STATUS_DIR": "postfire",
        "FEATURE_COUNT": 1
      },
      "geometry": {
        "type": "Polygon",
        "coordinates": [
          [
            [
              -119.36645470075612,
              37.51217901315402
            ],
            [
              -119.366455078125,
              37.51217123927881
            ],
            [
              -119.366455078125,
              37.51217902477812
            ],
            [
              -119.36645470075612,
              37.51217901315402
            ]
          ]
        ]
      }
    }
  ],
  "properties": {
    "SOURCE_FILE": "/Users/maples/GitHub/mortalitree_testing/labels/gwynethb_mortalitree_postfire_labels.geojson",
    "SUNETID": "gwynethb",
    "FIRENAME": "CREEK",
    "FIRE_SLUG": "CREEK",
    "PREFIRE": 0,
    "PREFIRE_STATUS": "postfire",
    "TILE_Z": 17,
    "TILE_X": 22076,
    "TILE_Y": 50782,
    "TILEXYZ": [
      17,
      22076,
      50782
    ],
    "OUTPUT_FILE": "/Users/maples/GitHub/mortalitree_testing/notebooks/single_tiles/postfire/17/22076/50782.geojson",
    "OUTPUT_STATUS_DIR": "postfire",
    "FEATURE_COUNT": 1
  }
}