{
  "type": "FeatureCollection",
  "features": [
    {
      "id": "150",
      "type": "Feature",
      "properties": {
        "id": null,
        "SOURCE_FILE": "/Users/maples/GitHub/mortalitree_testing/labels/jjackie_mortalitree_postfire_labels.geojson",
        "SUNETID": "jjackie",
        "FIRENAME": "CZU AUG LIGHTNING",
        "FIRE_SLUG": "CZU_AUG_LIGHTNING",
        "PREFIRE": 0,
        "PREFIRE_STATUS": "postfire",
        "TILE_Z": 17,
        "TILE_X": 21008,
        "TILE_Y": 50916,
        "TILEXYZ": [
          17,
          21008,
          50916
        ],
        "OUTPUT_FILE": "/Users/maples/GitHub/mortalitree_testing/notebooks/single_tiles/postfire/17/21008/50916.geojson",
        "OUTPUT_STATUS_DIR": "postfire",
        "FEATURE_COUNT": 1
      },
      "geometry": {
        "type": "Polygon",
        "coordinates": [
          [
            [
              -122.29873364004315,
              37.21939417689091
            ],
            [
              -122.29858851426016,
              37.21939331752985
            ],
            [
              -122.2987336479988,
              37.21939331752985
            ],
            [
              -122.29873364004315,
              37.21939417689091
            ]
          ]
        ]
      }
    }
  ],
  "properties": {
    "SOURCE_FILE": "/Users/maples/GitHub/mortalitree_testing/labels/jjackie_mortalitree_postfire_labels.geojson",
    "SUNETID": "jjackie",
    "FIRENAME": "CZU AUG LIGHTNING",
    "FIRE_SLUG": "CZU_AUG_LIGHTNING",
    "PREFIRE": 0,
    "PREFIRE_STATUS": "postfire",
    "TILE_Z": 17,
    "TILE_X": 21008,
    "TILE_Y": 50916,
    "TILEXYZ": [
      17,
      21008,
      50916
    ],
    "OUTPUT_FILE": "/Users/maples/GitHub/mortalitree_testing/notebooks/single_tiles/postfire/17/21008/50916.geojson",
    "OUTPUT_STATUS_DIR": "postfire",
    "FEATURE_COUNT": 1
  }
}