{
  "type": "FeatureCollection",
  "features": [
    {
      "id": "466",
      "type": "Feature",
      "properties": {
        "id": null,
        "SOURCE_FILE": "/Users/maples/GitHub/mortalitree_testing/labels/annayu_mortalitree_postfire_labels.geojson",
        "SUNETID": "annayu",
        "FIRENAME": "CASTLE",
        "FIRE_SLUG": "CASTLE",
        "PREFIRE": 0,
        "PREFIRE_STATUS": "postfire",
        "TILE_Z": 17,
        "TILE_X": 22369,
        "TILE_Y": 51425,
        "TILEXYZ": [
          17,
          22369,
          51425
        ],
        "OUTPUT_FILE": "/Users/maples/GitHub/mortalitree_testing/notebooks/single_tiles/postfire/17/22369/51425.geojson",
        "OUTPUT_STATUS_DIR": "postfire",
        "FEATURE_COUNT": 59
      },
      "geometry": {
        "type": "Polygon",
        "coordinates": [
          [
            [
              -118.56045708188181,
              36.09800870563901
            ],
            [
              -118.56035510814449,
              36.09800491990686
            ],
            [
              -118.56035887809652,
              36.09793803662806
            ],
            [
              -118.56046106512963,
              36.09793803662806
            ],
            [
              -118.56045708188181,
              36.09800870563901
            ]
          ]
        ]
      }
    },
    {
      "id": "467",
      "type": "Feature",
      "properties": {
        "id": null,
        "SOURCE_FILE": "/Users/maples/GitHub/mortalitree_testing/labels/annayu_mortalitree_postfire_labels.geojson",
        "SUNETID": "annayu",
        "FIRENAME": "CASTLE",
        "FIRE_SLUG": "CASTLE",
        "PREFIRE": 0,
        "PREFIRE_STATUS": "postfire",
        "TILE_Z": 17,
        "TILE_X": 22369,
        "TILE_Y": 51425,
        "TILEXYZ": [
          17,
          22369,
          51425
        ],
        "OUTPUT_FILE": "/Users/maples/GitHub/mortalitree_testing/notebooks/single_tiles/postfire/17/22369/51425.geojson",
        "OUTPUT_STATUS_DIR": "postfire",
        "FEATURE_COUNT": 59
      },
      "geometry": {
        "type": "Polygon",
        "coordinates": [
          [
            [
              -118.56099957579002,
              36.098254602230114
            ],
            [
              -118.56092026257599,
              36.09825165812112
            ],
            [
              -118.56092492679579,
              36.09816889967865
            ],
            [
              -118.56100423992716,
              36.09817184377875
            ],
            [
              -118.56099957579002,
              36.098254602230114
            ]
          ]
        ]
      }
    },
    {
      "id": "468",
      "type": "Feature",
      "properties": {
        "id": null,
        "SOURCE_FILE": "/Users/maples/GitHub/mortalitree_testing/labels/annayu_mortalitree_postfire_labels.geojson",
        "SUNETID": "annayu",
        "FIRENAME": "CASTLE",
        "FIRE_SLUG": "CASTLE",
        "PREFIRE": 0,
        "PREFIRE_STATUS": "postfire",
        "TILE_Z": 17,
        "TILE_X": 22369,
        "TILE_Y": 51425,
        "TILEXYZ": [
          17,
          22369,
          51425
        ],
        "OUTPUT_FILE": "/Users/maples/GitHub/mortalitree_testing/notebooks/single_tiles/postfire/17/22369/51425.geojson",
        "OUTPUT_STATUS_DIR": "postfire",
        "FEATURE_COUNT": 59
      },
      "geometry": {
        "type": "Polygon",
        "coordinates": [
          [
            [
              -118.55956305010768,
              36.09926555815289
            ],
            [
              -118.55948373603248,
              36.09926261302228
            ],
            [
              -118.55948788349907,
              36.09918905011841
            ],
            [
              -118.55956719750078,
              36.09919199524113
            ],
            [
              -118.55956305010768,
              36.09926555815289
            ]
          ]
        ]
      }
    },
    {
      "id": "469",
      "type": "Feature",
      "properties": {
        "id": null,
        "SOURCE_FILE": "/Users/maples/GitHub/mortalitree_testing/labels/annayu_mortalitree_postfire_labels.geojson",
        "SUNETID": "annayu",
        "FIRENAME": "CASTLE",
        "FIRE_SLUG": "CASTLE",
        "PREFIRE": 0,
        "PREFIRE_STATUS": "postfire",
        "TILE_Z": 17,
        "TILE_X": 22369,
        "TILE_Y": 51425,
        "TILEXYZ": [
          17,
          22369,
          51425
        ],
        "OUTPUT_FILE": "/Users/maples/GitHub/mortalitree_testing/notebooks/single_tiles/postfire/17/22369/51425.geojson",
        "OUTPUT_STATUS_DIR": "postfire",
        "FEATURE_COUNT": 59
      },
      "geometry": {
        "type": "Polygon",
        "coordinates": [
          [
            [
              -118.5596556565923,
              36.09953622061514
            ],
            [
              -118.55958767285682,
              36.09953369625697
            ],
            [
              -118.55959130184213,
              36.099469328709986
            ],
            [
              -118.5596592855225,
              36.09947185306223
            ],
            [
              -118.5596556565923,
              36.09953622061514
            ]
          ]
        ]
      }
    },
    {
      "id": "470",
      "type": "Feature",
      "properties": {
        "id": null,
        "SOURCE_FILE": "/Users/maples/GitHub/mortalitree_testing/labels/annayu_mortalitree_postfire_labels.geojson",
        "SUNETID": "annayu",
        "FIRENAME": "CASTLE",
        "FIRE_SLUG": "CASTLE",
        "PREFIRE": 0,
        "PREFIRE_STATUS": "postfire",
        "TILE_Z": 17,
        "TILE_X": 22369,
        "TILE_Y": 51425,
        "TILEXYZ": [
          17,
          22369,
          51425
        ],
        "OUTPUT_FILE": "/Users/maples/GitHub/mortalitree_testing/notebooks/single_tiles/postfire/17/22369/51425.geojson",
        "OUTPUT_STATUS_DIR": "postfire",
        "FEATURE_COUNT": 59
      },
      "geometry": {
        "type": "Polygon",
        "coordinates": [
          [
            [
              -118.55982406076767,
              36.09957011744259
            ],
            [
              -118.55972208510052,
              36.09956633103121
            ],
            [
              -118.5597272692113,
              36.09947437737604
            ],
            [
              -118.55982924476037,
              36.09947816377474
            ],
            [
              -118.55982406076767,
              36.09957011744259
            ]
          ]
        ]
      }
    },
    {
      "id": "471",
      "type": "Feature",
      "properties": {
        "id": null,
        "SOURCE_FILE": "/Users/maples/GitHub/mortalitree_testing/labels/annayu_mortalitree_postfire_labels.geojson",
        "SUNETID": "annayu",
        "FIRENAME": "CASTLE",
        "FIRE_SLUG": "CASTLE",
        "PREFIRE": 0,
        "PREFIRE_STATUS": "postfire",
        "TILE_Z": 17,
        "TILE_X": 22369,
        "TILE_Y": 51425,
        "TILEXYZ": [
          17,
          22369,
          51425
        ],
        "OUTPUT_FILE": "/Users/maples/GitHub/mortalitree_testing/notebooks/single_tiles/postfire/17/22369/51425.geojson",
        "OUTPUT_STATUS_DIR": "postfire",
        "FEATURE_COUNT": 59
      },
      "geometry": {
        "type": "Polygon",
        "coordinates": [
          [
            [
              -118.55960896328071,
              36.09976024485775
            ],
            [
              -118.55952964870339,
              36.0997572997229
            ],
            [
              -118.55953327776571,
              36.09969293218337
            ],
            [
              -118.55961259227877,
              36.09969587731132
            ],
            [
              -118.55960896328071,
              36.09976024485775
            ]
          ]
        ]
      }
    },
    {
      "id": "472",
      "type": "Feature",
      "properties": {
        "id": null,
        "SOURCE_FILE": "/Users/maples/GitHub/mortalitree_testing/labels/annayu_mortalitree_postfire_labels.geojson",
        "SUNETID": "annayu",
        "FIRENAME": "CASTLE",
        "FIRE_SLUG": "CASTLE",
        "PREFIRE": 0,
        "PREFIRE_STATUS": "postfire",
        "TILE_Z": 17,
        "TILE_X": 22369,
        "TILE_Y": 51425,
        "TILEXYZ": [
          17,
          22369,
          51425
        ],
        "OUTPUT_FILE": "/Users/maples/GitHub/mortalitree_testing/notebooks/single_tiles/postfire/17/22369/51425.geojson",
        "OUTPUT_STATUS_DIR": "postfire",
        "FEATURE_COUNT": 59
      },
      "geometry": {
        "type": "Polygon",
        "coordinates": [
          [
            [
              -118.56157290199512,
              36.099464568794275
            ],
            [
              -118.56149358750324,
              36.09946162498013
            ],
            [
              -118.56149773312653,
              36.099388061877775
            ],
            [
              -118.5615770475449,
              36.09939100568404
            ],
            [
              -118.56157290199512,
              36.099464568794275
            ]
          ]
        ]
      }
    },
    {
      "id": "473",
      "type": "Feature",
      "properties": {
        "id": null,
        "SOURCE_FILE": "/Users/maples/GitHub/mortalitree_testing/labels/annayu_mortalitree_postfire_labels.geojson",
        "SUNETID": "annayu",
        "FIRENAME": "CASTLE",
        "FIRE_SLUG": "CASTLE",
        "PREFIRE": 0,
        "PREFIRE_STATUS": "postfire",
        "TILE_Z": 17,
        "TILE_X": 22369,
        "TILE_Y": 51425,
        "TILEXYZ": [
          17,
          22369,
          51425
        ],
        "OUTPUT_FILE": "/Users/maples/GitHub/mortalitree_testing/notebooks/single_tiles/postfire/17/22369/51425.geojson",
        "OUTPUT_STATUS_DIR": "postfire",
        "FEATURE_COUNT": 59
      },
      "geometry": {
        "type": "Polygon",
        "coordinates": [
          [
            [
              -118.56166010948054,
              36.099730422227005
            ],
            [
              -118.56156946403183,
              36.099727057908424
            ],
            [
              -118.56157309142638,
              36.09966269019016
            ],
            [
              -118.5616637368016,
              36.09966605450085
            ],
            [
              -118.56166010948054,
              36.099730422227005
            ]
          ]
        ]
      }
    },
    {
      "id": "474",
      "type": "Feature",
      "properties": {
        "id": null,
        "SOURCE_FILE": "/Users/maples/GitHub/mortalitree_testing/labels/annayu_mortalitree_postfire_labels.geojson",
        "SUNETID": "annayu",
        "FIRENAME": "CASTLE",
        "FIRE_SLUG": "CASTLE",
        "PREFIRE": 0,
        "PREFIRE_STATUS": "postfire",
        "TILE_Z": 17,
        "TILE_X": 22369,
        "TILE_Y": 51425,
        "TILEXYZ": [
          17,
          22369,
          51425
        ],
        "OUTPUT_FILE": "/Users/maples/GitHub/mortalitree_testing/notebooks/single_tiles/postfire/17/22369/51425.geojson",
        "OUTPUT_STATUS_DIR": "postfire",
        "FEATURE_COUNT": 59
      },
      "geometry": {
        "type": "Polygon",
        "coordinates": [
          [
            [
              -118.55969446161694,
              36.099754204936566
            ],
            [
              -118.5596264776901,
              36.09975168058734
            ],
            [
              -118.55963010667271,
              36.09968731303929
            ],
            [
              -118.55969809054444,
              36.0996898373826
            ],
            [
              -118.55969446161694,
              36.099754204936566
            ]
          ]
        ]
      }
    },
    {
      "id": "475",
      "type": "Feature",
      "properties": {
        "id": null,
        "SOURCE_FILE": "/Users/maples/GitHub/mortalitree_testing/labels/annayu_mortalitree_postfire_labels.geojson",
        "SUNETID": "annayu",
        "FIRENAME": "CASTLE",
        "FIRE_SLUG": "CASTLE",
        "PREFIRE": 0,
        "PREFIRE_STATUS": "postfire",
        "TILE_Z": 17,
        "TILE_X": 22369,
        "TILE_Y": 51425,
        "TILEXYZ": [
          17,
          22369,
          51425
        ],
        "OUTPUT_FILE": "/Users/maples/GitHub/mortalitree_testing/notebooks/single_tiles/postfire/17/22369/51425.geojson",
        "OUTPUT_STATUS_DIR": "postfire",
        "FEATURE_COUNT": 59
      },
      "geometry": {
        "type": "Polygon",
        "coordinates": [
          [
            [
              -118.55950098775851,
              36.09996356426691
            ],
            [
              -118.55942167298848,
              36.099960619046364
            ],
            [
              -118.55942478371269,
              36.09990544687967
            ],
            [
              -118.55950409842761,
              36.0999083920943
            ],
            [
              -118.55950098775851,
              36.09996356426691
            ]
          ]
        ]
      }
    },
    {
      "id": "476",
      "type": "Feature",
      "properties": {
        "id": null,
        "SOURCE_FILE": "/Users/maples/GitHub/mortalitree_testing/labels/annayu_mortalitree_postfire_labels.geojson",
        "SUNETID": "annayu",
        "FIRENAME": "CASTLE",
        "FIRE_SLUG": "CASTLE",
        "PREFIRE": 0,
        "PREFIRE_STATUS": "postfire",
        "TILE_Z": 17,
        "TILE_X": 22369,
        "TILE_Y": 51425,
        "TILEXYZ": [
          17,
          22369,
          51425
        ],
        "OUTPUT_FILE": "/Users/maples/GitHub/mortalitree_testing/notebooks/single_tiles/postfire/17/22369/51425.geojson",
        "OUTPUT_STATUS_DIR": "postfire",
        "FEATURE_COUNT": 59
      },
      "geometry": {
        "type": "Polygon",
        "coordinates": [
          [
            [
              -118.55984705496091,
              36.10006856042096
            ],
            [
              -118.55976774004803,
              36.10006561542213
            ],
            [
              -118.55977240578618,
              36.09998285713434
            ],
            [
              -118.5598517206164,
              36.09998580212428
            ],
            [
              -118.55984705496091,
              36.10006856042096
            ]
          ]
        ]
      }
    },
    {
      "id": "477",
      "type": "Feature",
      "properties": {
        "id": null,
        "SOURCE_FILE": "/Users/maples/GitHub/mortalitree_testing/labels/annayu_mortalitree_postfire_labels.geojson",
        "SUNETID": "annayu",
        "FIRENAME": "CASTLE",
        "FIRE_SLUG": "CASTLE",
        "PREFIRE": 0,
        "PREFIRE_STATUS": "postfire",
        "TILE_Z": 17,
        "TILE_X": 22369,
        "TILE_Y": 51425,
        "TILEXYZ": [
          17,
          22369,
          51425
        ],
        "OUTPUT_FILE": "/Users/maples/GitHub/mortalitree_testing/notebooks/single_tiles/postfire/17/22369/51425.geojson",
        "OUTPUT_STATUS_DIR": "postfire",
        "FEATURE_COUNT": 59
      },
      "geometry": {
        "type": "Polygon",
        "coordinates": [
          [
            [
              -118.56001005420298,
              36.10009764902988
            ],
            [
              -118.5599420699511,
              36.1000951248391
            ],
            [
              -118.55994725390592,
              36.10000317116456
            ],
            [
              -118.56001523807906,
              36.10000569534687
            ],
            [
              -118.56001005420298,
              36.10009764902988
            ]
          ]
        ]
      }
    },
    {
      "id": "478",
      "type": "Feature",
      "properties": {
        "id": null,
        "SOURCE_FILE": "/Users/maples/GitHub/mortalitree_testing/labels/annayu_mortalitree_postfire_labels.geojson",
        "SUNETID": "annayu",
        "FIRENAME": "CASTLE",
        "FIRE_SLUG": "CASTLE",
        "PREFIRE": 0,
        "PREFIRE_STATUS": "postfire",
        "TILE_Z": 17,
        "TILE_X": 22369,
        "TILE_Y": 51425,
        "TILEXYZ": [
          17,
          22369,
          51425
        ],
        "OUTPUT_FILE": "/Users/maples/GitHub/mortalitree_testing/notebooks/single_tiles/postfire/17/22369/51425.geojson",
        "OUTPUT_STATUS_DIR": "postfire",
        "FEATURE_COUNT": 59
      },
      "geometry": {
        "type": "Polygon",
        "coordinates": [
          [
            [
              -118.56018901292522,
              36.100145759184244
            ],
            [
              -118.56008703646363,
              36.10014197303166
            ],
            [
              -118.56009118350131,
              36.100068410078265
            ],
            [
              -118.56019315986845,
              36.1000721962207
            ],
            [
              -118.56018901292522,
              36.100145759184244
            ]
          ]
        ]
      }
    },
    {
      "id": "479",
      "type": "Feature",
      "properties": {
        "id": null,
        "SOURCE_FILE": "/Users/maples/GitHub/mortalitree_testing/labels/annayu_mortalitree_postfire_labels.geojson",
        "SUNETID": "annayu",
        "FIRENAME": "CASTLE",
        "FIRE_SLUG": "CASTLE",
        "PREFIRE": 0,
        "PREFIRE_STATUS": "postfire",
        "TILE_Z": 17,
        "TILE_X": 22369,
        "TILE_Y": 51425,
        "TILEXYZ": [
          17,
          22369,
          51425
        ],
        "OUTPUT_FILE": "/Users/maples/GitHub/mortalitree_testing/notebooks/single_tiles/postfire/17/22369/51425.geojson",
        "OUTPUT_STATUS_DIR": "postfire",
        "FEATURE_COUNT": 59
      },
      "geometry": {
        "type": "Polygon",
        "coordinates": [
          [
            [
              -118.55991340916103,
              36.098891553378046
            ],
            [
              -118.559822764891,
              36.09888818780518
            ],
            [
              -118.5598269119847,
              36.098814624862825
            ],
            [
              -118.55991755617075,
              36.098817990426674
            ],
            [
              -118.55991340916103,
              36.098891553378046
            ]
          ]
        ]
      }
    },
    {
      "id": "480",
      "type": "Feature",
      "properties": {
        "id": null,
        "SOURCE_FILE": "/Users/maples/GitHub/mortalitree_testing/labels/annayu_mortalitree_postfire_labels.geojson",
        "SUNETID": "annayu",
        "FIRENAME": "CASTLE",
        "FIRE_SLUG": "CASTLE",
        "PREFIRE": 0,
        "PREFIRE_STATUS": "postfire",
        "TILE_Z": 17,
        "TILE_X": 22369,
        "TILE_Y": 51425,
        "TILEXYZ": [
          17,
          22369,
          51425
        ],
        "OUTPUT_FILE": "/Users/maples/GitHub/mortalitree_testing/notebooks/single_tiles/postfire/17/22369/51425.geojson",
        "OUTPUT_STATUS_DIR": "postfire",
        "FEATURE_COUNT": 59
      },
      "geometry": {
        "type": "Polygon",
        "coordinates": [
          [
            [
              -118.56060948837208,
              36.09812493892992
            ],
            [
              -118.5605415057642,
              36.09812241519759
            ],
            [
              -118.5605451337841,
              36.098058047552
            ],
            [
              -118.56061311633687,
              36.09806057127841
            ],
            [
              -118.56060948837208,
              36.09812493892992
            ]
          ]
        ]
      }
    },
    {
      "id": "481",
      "type": "Feature",
      "properties": {
        "id": null,
        "SOURCE_FILE": "/Users/maples/GitHub/mortalitree_testing/labels/annayu_mortalitree_postfire_labels.geojson",
        "SUNETID": "annayu",
        "FIRENAME": "CASTLE",
        "FIRE_SLUG": "CASTLE",
        "PREFIRE": 0,
        "PREFIRE_STATUS": "postfire",
        "TILE_Z": 17,
        "TILE_X": 22369,
        "TILE_Y": 51425,
        "TILEXYZ": [
          17,
          22369,
          51425
        ],
        "OUTPUT_FILE": "/Users/maples/GitHub/mortalitree_testing/notebooks/single_tiles/postfire/17/22369/51425.geojson",
        "OUTPUT_STATUS_DIR": "postfire",
        "FEATURE_COUNT": 59
      },
      "geometry": {
        "type": "Polygon",
        "coordinates": [
          [
            [
              -118.56050699617002,
              36.09813034869446
            ],
            [
              -118.56046167443371,
              36.09812866617152
            ],
            [
              -118.56046478422228,
              36.09807349390998
            ],
            [
              -118.56051010592708,
              36.09807517642953
            ],
            [
              -118.56050699617002,
              36.09813034869446
            ]
          ]
        ]
      }
    },
    {
      "id": "482",
      "type": "Feature",
      "properties": {
        "id": null,
        "SOURCE_FILE": "/Users/maples/GitHub/mortalitree_testing/labels/annayu_mortalitree_postfire_labels.geojson",
        "SUNETID": "annayu",
        "FIRENAME": "CASTLE",
        "FIRE_SLUG": "CASTLE",
        "PREFIRE": 0,
        "PREFIRE_STATUS": "postfire",
        "TILE_Z": 17,
        "TILE_X": 22369,
        "TILE_Y": 51425,
        "TILEXYZ": [
          17,
          22369,
          51425
        ],
        "OUTPUT_FILE": "/Users/maples/GitHub/mortalitree_testing/notebooks/single_tiles/postfire/17/22369/51425.geojson",
        "OUTPUT_STATUS_DIR": "postfire",
        "FEATURE_COUNT": 59
      },
      "geometry": {
        "type": "Polygon",
        "coordinates": [
          [
            [
              -118.56087186678099,
              36.09820378854291
            ],
            [
              -118.56079255363179,
              36.09820084435296
            ],
            [
              -118.5607977362362,
              36.09810889054306
            ],
            [
              -118.56087704929354,
              36.098111834723156
            ],
            [
              -118.56087186678099,
              36.09820378854291
            ]
          ]
        ]
      }
    },
    {
      "id": "483",
      "type": "Feature",
      "properties": {
        "id": null,
        "SOURCE_FILE": "/Users/maples/GitHub/mortalitree_testing/labels/annayu_mortalitree_postfire_labels.geojson",
        "SUNETID": "annayu",
        "FIRENAME": "CASTLE",
        "FIRE_SLUG": "CASTLE",
        "PREFIRE": 0,
        "PREFIRE_STATUS": "postfire",
        "TILE_Z": 17,
        "TILE_X": 22369,
        "TILE_Y": 51425,
        "TILEXYZ": [
          17,
          22369,
          51425
        ],
        "OUTPUT_FILE": "/Users/maples/GitHub/mortalitree_testing/notebooks/single_tiles/postfire/17/22369/51425.geojson",
        "OUTPUT_STATUS_DIR": "postfire",
        "FEATURE_COUNT": 59
      },
      "geometry": {
        "type": "Polygon",
        "coordinates": [
          [
            [
              -118.5607907753677,
              36.09813166869497
            ],
            [
              -118.56068880142527,
              36.098127883235755
            ],
            [
              -118.56069398413672,
              36.09803592943771
            ],
            [
              -118.56079595796108,
              36.09803971488424
            ],
            [
              -118.5607907753677,
              36.09813166869497
            ]
          ]
        ]
      }
    },
    {
      "id": "484",
      "type": "Feature",
      "properties": {
        "id": null,
        "SOURCE_FILE": "/Users/maples/GitHub/mortalitree_testing/labels/annayu_mortalitree_postfire_labels.geojson",
        "SUNETID": "annayu",
        "FIRENAME": "CASTLE",
        "FIRE_SLUG": "CASTLE",
        "PREFIRE": 0,
        "PREFIRE_STATUS": "postfire",
        "TILE_Z": 17,
        "TILE_X": 22369,
        "TILE_Y": 51425,
        "TILEXYZ": [
          17,
          22369,
          51425
        ],
        "OUTPUT_FILE": "/Users/maples/GitHub/mortalitree_testing/notebooks/single_tiles/postfire/17/22369/51425.geojson",
        "OUTPUT_STATUS_DIR": "postfire",
        "FEATURE_COUNT": 59
      },
      "geometry": {
        "type": "Polygon",
        "coordinates": [
          [
            [
              -118.5607078344061,
              36.09819309211575
            ],
            [
              -118.56061719084043,
              36.098189727199724
            ],
            [
              -118.56062237364705,
              36.09809777341157
            ],
            [
              -118.56071301710774,
              36.09810113831633
            ],
            [
              -118.5607078344061,
              36.09819309211575
            ]
          ]
        ]
      }
    },
    {
      "id": "485",
      "type": "Feature",
      "properties": {
        "id": null,
        "SOURCE_FILE": "/Users/maples/GitHub/mortalitree_testing/labels/annayu_mortalitree_postfire_labels.geojson",
        "SUNETID": "annayu",
        "FIRENAME": "CASTLE",
        "FIRE_SLUG": "CASTLE",
        "PREFIRE": 0,
        "PREFIRE_STATUS": "postfire",
        "TILE_Z": 17,
        "TILE_X": 22369,
        "TILE_Y": 51425,
        "TILEXYZ": [
          17,
          22369,
          51425
        ],
        "OUTPUT_FILE": "/Users/maples/GitHub/mortalitree_testing/notebooks/single_tiles/postfire/17/22369/51425.geojson",
        "OUTPUT_STATUS_DIR": "postfire",
        "FEATURE_COUNT": 59
      },
      "geometry": {
        "type": "Polygon",
        "coordinates": [
          [
            [
              -118.56081469627127,
              36.09821088093658
            ],
            [
              -118.5607353831211,
              36.09820793670826
            ],
            [
              -118.56073952926089,
              36.09813437366633
            ],
            [
              -118.56081884233757,
              36.098137317886746
            ],
            [
              -118.56081469627127,
              36.09821088093658
            ]
          ]
        ]
      }
    },
    {
      "id": "486",
      "type": "Feature",
      "properties": {
        "id": null,
        "SOURCE_FILE": "/Users/maples/GitHub/mortalitree_testing/labels/annayu_mortalitree_postfire_labels.geojson",
        "SUNETID": "annayu",
        "FIRENAME": "CASTLE",
        "FIRE_SLUG": "CASTLE",
        "PREFIRE": 0,
        "PREFIRE_STATUS": "postfire",
        "TILE_Z": 17,
        "TILE_X": 22369,
        "TILE_Y": 51425,
        "TILEXYZ": [
          17,
          22369,
          51425
        ],
        "OUTPUT_FILE": "/Users/maples/GitHub/mortalitree_testing/notebooks/single_tiles/postfire/17/22369/51425.geojson",
        "OUTPUT_STATUS_DIR": "postfire",
        "FEATURE_COUNT": 59
      },
      "geometry": {
        "type": "Polygon",
        "coordinates": [
          [
            [
              -118.56162675834375,
              36.09860960782032
            ],
            [
              -118.56154744470534,
              36.09860666410164
            ],
            [
              -118.5615515901487,
              36.09853310098341
            ],
            [
              -118.5616309037136,
              36.09853604469421
            ],
            [
              -118.56162675834375,
              36.09860960782032
            ]
          ]
        ]
      }
    },
    {
      "id": "487",
      "type": "Feature",
      "properties": {
        "id": null,
        "SOURCE_FILE": "/Users/maples/GitHub/mortalitree_testing/labels/annayu_mortalitree_postfire_labels.geojson",
        "SUNETID": "annayu",
        "FIRENAME": "CASTLE",
        "FIRE_SLUG": "CASTLE",
        "PREFIRE": 0,
        "PREFIRE_STATUS": "postfire",
        "TILE_Z": 17,
        "TILE_X": 22369,
        "TILE_Y": 51425,
        "TILEXYZ": [
          17,
          22369,
          51425
        ],
        "OUTPUT_FILE": "/Users/maples/GitHub/mortalitree_testing/notebooks/single_tiles/postfire/17/22369/51425.geojson",
        "OUTPUT_STATUS_DIR": "postfire",
        "FEATURE_COUNT": 59
      },
      "geometry": {
        "type": "Polygon",
        "coordinates": [
          [
            [
              -118.56169247881189,
              36.098450791092084
            ],
            [
              -118.56161316532601,
              36.09844784742803
            ],
            [
              -118.56161886518936,
              36.098346698128424
            ],
            [
              -118.5616981785742,
              36.098349641781645
            ],
            [
              -118.56169247881189,
              36.098450791092084
            ]
          ]
        ]
      }
    },
    {
      "id": "488",
      "type": "Feature",
      "properties": {
        "id": null,
        "SOURCE_FILE": "/Users/maples/GitHub/mortalitree_testing/labels/annayu_mortalitree_postfire_labels.geojson",
        "SUNETID": "annayu",
        "FIRENAME": "CASTLE",
        "FIRE_SLUG": "CASTLE",
        "PREFIRE": 0,
        "PREFIRE_STATUS": "postfire",
        "TILE_Z": 17,
        "TILE_X": 22369,
        "TILE_Y": 51425,
        "TILEXYZ": [
          17,
          22369,
          51425
        ],
        "OUTPUT_FILE": "/Users/maples/GitHub/mortalitree_testing/notebooks/single_tiles/postfire/17/22369/51425.geojson",
        "OUTPUT_STATUS_DIR": "postfire",
        "FEATURE_COUNT": 59
      },
      "geometry": {
        "type": "Polygon",
        "coordinates": [
          [
            [
              -118.56169980202236,
              36.09811933646072
            ],
            [
              -118.56162048886881,
              36.0981163928247
            ],
            [
              -118.56162463416966,
              36.09804282969315
            ],
            [
              -118.56170394724974,
              36.098045773321296
            ],
            [
              -118.56169980202236,
              36.09811933646072
            ]
          ]
        ]
      }
    },
    {
      "id": "489",
      "type": "Feature",
      "properties": {
        "id": null,
        "SOURCE_FILE": "/Users/maples/GitHub/mortalitree_testing/labels/annayu_mortalitree_postfire_labels.geojson",
        "SUNETID": "annayu",
        "FIRENAME": "CASTLE",
        "FIRE_SLUG": "CASTLE",
        "PREFIRE": 0,
        "PREFIRE_STATUS": "postfire",
        "TILE_Z": 17,
        "TILE_X": 22369,
        "TILE_Y": 51425,
        "TILEXYZ": [
          17,
          22369,
          51425
        ],
        "OUTPUT_FILE": "/Users/maples/GitHub/mortalitree_testing/notebooks/single_tiles/postfire/17/22369/51425.geojson",
        "OUTPUT_STATUS_DIR": "postfire",
        "FEATURE_COUNT": 59
      },
      "geometry": {
        "type": "Polygon",
        "coordinates": [
          [
            [
              -118.56163903902728,
              36.098089437433444
            ],
            [
              -118.56155972591031,
              36.09808649375928
            ],
            [
              -118.56156438943134,
              36.09800373524263
            ],
            [
              -118.56164370246563,
              36.09800667890791
            ],
            [
              -118.56163903902728,
              36.098089437433444
            ]
          ]
        ]
      }
    },
    {
      "id": "490",
      "type": "Feature",
      "properties": {
        "id": null,
        "SOURCE_FILE": "/Users/maples/GitHub/mortalitree_testing/labels/annayu_mortalitree_postfire_labels.geojson",
        "SUNETID": "annayu",
        "FIRENAME": "CASTLE",
        "FIRE_SLUG": "CASTLE",
        "PREFIRE": 0,
        "PREFIRE_STATUS": "postfire",
        "TILE_Z": 17,
        "TILE_X": 22369,
        "TILE_Y": 51425,
        "TILEXYZ": [
          17,
          22369,
          51425
        ],
        "OUTPUT_FILE": "/Users/maples/GitHub/mortalitree_testing/notebooks/single_tiles/postfire/17/22369/51425.geojson",
        "OUTPUT_STATUS_DIR": "postfire",
        "FEATURE_COUNT": 59
      },
      "geometry": {
        "type": "Polygon",
        "coordinates": [
          [
            [
              -118.56160509898635,
              36.09869173554126
            ],
            [
              -118.56161028073714,
              36.09859978163738
            ],
            [
              -118.56170654296875,
              36.0986033543414
            ],
            [
              -118.56170654296875,
              36.098695500570514
            ],
            [
              -118.56160509898635,
              36.09869173554126
            ]
          ]
        ]
      }
    },
    {
      "id": "491",
      "type": "Feature",
      "properties": {
        "id": null,
        "SOURCE_FILE": "/Users/maples/GitHub/mortalitree_testing/labels/annayu_mortalitree_postfire_labels.geojson",
        "SUNETID": "annayu",
        "FIRENAME": "CASTLE",
        "FIRE_SLUG": "CASTLE",
        "PREFIRE": 0,
        "PREFIRE_STATUS": "postfire",
        "TILE_Z": 17,
        "TILE_X": 22369,
        "TILE_Y": 51425,
        "TILEXYZ": [
          17,
          22369,
          51425
        ],
        "OUTPUT_FILE": "/Users/maples/GitHub/mortalitree_testing/notebooks/single_tiles/postfire/17/22369/51425.geojson",
        "OUTPUT_STATUS_DIR": "postfire",
        "FEATURE_COUNT": 59
      },
      "geometry": {
        "type": "Polygon",
        "coordinates": [
          [
            [
              -118.5613158193611,
              36.099694606933426
            ],
            [
              -118.56124783533582,
              36.0996920835077
            ],
            [
              -118.56125042651715,
              36.099646106586
            ],
            [
              -118.56131841050308,
              36.099648630007515
            ],
            [
              -118.5613158193611,
              36.099694606933426
            ]
          ]
        ]
      }
    },
    {
      "id": "492",
      "type": "Feature",
      "properties": {
        "id": null,
        "SOURCE_FILE": "/Users/maples/GitHub/mortalitree_testing/labels/annayu_mortalitree_postfire_labels.geojson",
        "SUNETID": "annayu",
        "FIRENAME": "CASTLE",
        "FIRE_SLUG": "CASTLE",
        "PREFIRE": 0,
        "PREFIRE_STATUS": "postfire",
        "TILE_Z": 17,
        "TILE_X": 22369,
        "TILE_Y": 51425,
        "TILEXYZ": [
          17,
          22369,
          51425
        ],
        "OUTPUT_FILE": "/Users/maples/GitHub/mortalitree_testing/notebooks/single_tiles/postfire/17/22369/51425.geojson",
        "OUTPUT_STATUS_DIR": "postfire",
        "FEATURE_COUNT": 59
      },
      "geometry": {
        "type": "Polygon",
        "coordinates": [
          [
            [
              -118.56130341702017,
              36.09981393665349
            ],
            [
              -118.56124676358046,
              36.09981183378955
            ],
            [
              -118.56125039124947,
              36.09974746610041
            ],
            [
              -118.56130704464326,
              36.09974956895941
            ],
            [
              -118.56130341702017,
              36.09981393665349
            ]
          ]
        ]
      }
    },
    {
      "id": "493",
      "type": "Feature",
      "properties": {
        "id": null,
        "SOURCE_FILE": "/Users/maples/GitHub/mortalitree_testing/labels/annayu_mortalitree_postfire_labels.geojson",
        "SUNETID": "annayu",
        "FIRENAME": "CASTLE",
        "FIRE_SLUG": "CASTLE",
        "PREFIRE": 0,
        "PREFIRE_STATUS": "postfire",
        "TILE_Z": 17,
        "TILE_X": 22369,
        "TILE_Y": 51425,
        "TILEXYZ": [
          17,
          22369,
          51425
        ],
        "OUTPUT_FILE": "/Users/maples/GitHub/mortalitree_testing/notebooks/single_tiles/postfire/17/22369/51425.geojson",
        "OUTPUT_STATUS_DIR": "postfire",
        "FEATURE_COUNT": 59
      },
      "geometry": {
        "type": "Polygon",
        "coordinates": [
          [
            [
              -118.56149733428431,
              36.09979809772325
            ],
            [
              -118.56139535809066,
              36.09979431271542
            ],
            [
              -118.56140002207562,
              36.09971155424083
            ],
            [
              -118.56150199816298,
              36.099715339237235
            ],
            [
              -118.56149733428431,
              36.09979809772325
            ]
          ]
        ]
      }
    },
    {
      "id": "494",
      "type": "Feature",
      "properties": {
        "id": null,
        "SOURCE_FILE": "/Users/maples/GitHub/mortalitree_testing/labels/annayu_mortalitree_postfire_labels.geojson",
        "SUNETID": "annayu",
        "FIRENAME": "CASTLE",
        "FIRE_SLUG": "CASTLE",
        "PREFIRE": 0,
        "PREFIRE_STATUS": "postfire",
        "TILE_Z": 17,
        "TILE_X": 22369,
        "TILE_Y": 51425,
        "TILEXYZ": [
          17,
          22369,
          51425
        ],
        "OUTPUT_FILE": "/Users/maples/GitHub/mortalitree_testing/notebooks/single_tiles/postfire/17/22369/51425.geojson",
        "OUTPUT_STATUS_DIR": "postfire",
        "FEATURE_COUNT": 59
      },
      "geometry": {
        "type": "Polygon",
        "coordinates": [
          [
            [
              -118.56136029443019,
              36.09991280132035
            ],
            [
              -118.56130364091514,
              36.09991069847837
            ],
            [
              -118.56130675031791,
              36.09985552617009
            ],
            [
              -118.5613634037936,
              36.09985762900785
            ],
            [
              -118.56136029443019,
              36.09991280132035
            ]
          ]
        ]
      }
    },
    {
      "id": "495",
      "type": "Feature",
      "properties": {
        "id": null,
        "SOURCE_FILE": "/Users/maples/GitHub/mortalitree_testing/labels/annayu_mortalitree_postfire_labels.geojson",
        "SUNETID": "annayu",
        "FIRENAME": "CASTLE",
        "FIRE_SLUG": "CASTLE",
        "PREFIRE": 0,
        "PREFIRE_STATUS": "postfire",
        "TILE_Z": 17,
        "TILE_X": 22369,
        "TILE_Y": 51425,
        "TILEXYZ": [
          17,
          22369,
          51425
        ],
        "OUTPUT_FILE": "/Users/maples/GitHub/mortalitree_testing/notebooks/single_tiles/postfire/17/22369/51425.geojson",
        "OUTPUT_STATUS_DIR": "postfire",
        "FEATURE_COUNT": 59
      },
      "geometry": {
        "type": "Polygon",
        "coordinates": [
          [
            [
              -118.56128531400793,
              36.100034415595765
            ],
            [
              -118.56122866041135,
              36.100032312712244
            ],
            [
              -118.56123125163613,
              36.09998633579435
            ],
            [
              -118.56128790519993,
              36.099988438674345
            ],
            [
              -118.56128531400793,
              36.100034415595765
            ]
          ]
        ]
      }
    },
    {
      "id": "496",
      "type": "Feature",
      "properties": {
        "id": null,
        "SOURCE_FILE": "/Users/maples/GitHub/mortalitree_testing/labels/annayu_mortalitree_postfire_labels.geojson",
        "SUNETID": "annayu",
        "FIRENAME": "CASTLE",
        "FIRE_SLUG": "CASTLE",
        "PREFIRE": 0,
        "PREFIRE_STATUS": "postfire",
        "TILE_Z": 17,
        "TILE_X": 22369,
        "TILE_Y": 51425,
        "TILEXYZ": [
          17,
          22369,
          51425
        ],
        "OUTPUT_FILE": "/Users/maples/GitHub/mortalitree_testing/notebooks/single_tiles/postfire/17/22369/51425.geojson",
        "OUTPUT_STATUS_DIR": "postfire",
        "FEATURE_COUNT": 59
      },
      "geometry": {
        "type": "Polygon",
        "coordinates": [
          [
            [
              -118.56124876594696,
              36.0999777712773
            ],
            [
              -118.56118078168392,
              36.09997524779655
            ],
            [
              -118.56118389117995,
              36.09992007549809
            ],
            [
              -118.56125187539573,
              36.09992259897377
            ],
            [
              -118.56124876594696,
              36.0999777712773
            ]
          ]
        ]
      }
    },
    {
      "id": "497",
      "type": "Feature",
      "properties": {
        "id": null,
        "SOURCE_FILE": "/Users/maples/GitHub/mortalitree_testing/labels/annayu_mortalitree_postfire_labels.geojson",
        "SUNETID": "annayu",
        "FIRENAME": "CASTLE",
        "FIRE_SLUG": "CASTLE",
        "PREFIRE": 0,
        "PREFIRE_STATUS": "postfire",
        "TILE_Z": 17,
        "TILE_X": 22369,
        "TILE_Y": 51425,
        "TILEXYZ": [
          17,
          22369,
          51425
        ],
        "OUTPUT_FILE": "/Users/maples/GitHub/mortalitree_testing/notebooks/single_tiles/postfire/17/22369/51425.geojson",
        "OUTPUT_STATUS_DIR": "postfire",
        "FEATURE_COUNT": 59
      },
      "geometry": {
        "type": "Polygon",
        "coordinates": [
          [
            [
              -118.5613351620608,
              36.100157274022266
            ],
            [
              -118.56127838985688,
              36.100157274022266
            ],
            [
              -118.56128013160637,
              36.10012636943702
            ],
            [
              -118.56133678527443,
              36.10012847230089
            ],
            [
              -118.5613351620608,
              36.100157274022266
            ]
          ]
        ]
      }
    },
    {
      "id": "498",
      "type": "Feature",
      "properties": {
        "id": null,
        "SOURCE_FILE": "/Users/maples/GitHub/mortalitree_testing/labels/annayu_mortalitree_postfire_labels.geojson",
        "SUNETID": "annayu",
        "FIRENAME": "CASTLE",
        "FIRE_SLUG": "CASTLE",
        "PREFIRE": 0,
        "PREFIRE_STATUS": "postfire",
        "TILE_Z": 17,
        "TILE_X": 22369,
        "TILE_Y": 51425,
        "TILEXYZ": [
          17,
          22369,
          51425
        ],
        "OUTPUT_FILE": "/Users/maples/GitHub/mortalitree_testing/notebooks/single_tiles/postfire/17/22369/51425.geojson",
        "OUTPUT_STATUS_DIR": "postfire",
        "FEATURE_COUNT": 59
      },
      "geometry": {
        "type": "Polygon",
        "coordinates": [
          [
            [
              -118.5614406107414,
              36.099998714010155
            ],
            [
              -118.5613839571585,
              36.09999661120185
            ],
            [
              -118.56138862118993,
              36.09991385273133
            ],
            [
              -118.56144527471379,
              36.099915955533305
            ],
            [
              -118.5614406107414,
              36.099998714010155
            ]
          ]
        ]
      }
    },
    {
      "id": "499",
      "type": "Feature",
      "properties": {
        "id": null,
        "SOURCE_FILE": "/Users/maples/GitHub/mortalitree_testing/labels/annayu_mortalitree_postfire_labels.geojson",
        "SUNETID": "annayu",
        "FIRENAME": "CASTLE",
        "FIRE_SLUG": "CASTLE",
        "PREFIRE": 0,
        "PREFIRE_STATUS": "postfire",
        "TILE_Z": 17,
        "TILE_X": 22369,
        "TILE_Y": 51425,
        "TILEXYZ": [
          17,
          22369,
          51425
        ],
        "OUTPUT_FILE": "/Users/maples/GitHub/mortalitree_testing/notebooks/single_tiles/postfire/17/22369/51425.geojson",
        "OUTPUT_STATUS_DIR": "postfire",
        "FEATURE_COUNT": 59
      },
      "geometry": {
        "type": "Polygon",
        "coordinates": [
          [
            [
              -118.56140995194112,
              36.10003904184556
            ],
            [
              -118.56131930616871,
              36.10003567731306
            ],
            [
              -118.56132345204159,
              36.099962114235176
            ],
            [
              -118.56141409773,
              36.09996547875866
            ],
            [
              -118.56140995194112,
              36.10003904184556
            ]
          ]
        ]
      }
    },
    {
      "id": "500",
      "type": "Feature",
      "properties": {
        "id": null,
        "SOURCE_FILE": "/Users/maples/GitHub/mortalitree_testing/labels/annayu_mortalitree_postfire_labels.geojson",
        "SUNETID": "annayu",
        "FIRENAME": "CASTLE",
        "FIRE_SLUG": "CASTLE",
        "PREFIRE": 0,
        "PREFIRE_STATUS": "postfire",
        "TILE_Z": 17,
        "TILE_X": 22369,
        "TILE_Y": 51425,
        "TILEXYZ": [
          17,
          22369,
          51425
        ],
        "OUTPUT_FILE": "/Users/maples/GitHub/mortalitree_testing/notebooks/single_tiles/postfire/17/22369/51425.geojson",
        "OUTPUT_STATUS_DIR": "postfire",
        "FEATURE_COUNT": 59
      },
      "geometry": {
        "type": "Polygon",
        "coordinates": [
          [
            [
              -118.56158891161265,
              36.100087149951605
            ],
            [
              -118.56148693503278,
              36.10008336499571
            ],
            [
              -118.56149211718524,
              36.09999141112795
            ],
            [
              -118.56159409364697,
              36.09999519607116
            ],
            [
              -118.56158891161265,
              36.100087149951605
            ]
          ]
        ]
      }
    },
    {
      "id": "501",
      "type": "Feature",
      "properties": {
        "id": null,
        "SOURCE_FILE": "/Users/maples/GitHub/mortalitree_testing/labels/annayu_mortalitree_postfire_labels.geojson",
        "SUNETID": "annayu",
        "FIRENAME": "CASTLE",
        "FIRE_SLUG": "CASTLE",
        "PREFIRE": 0,
        "PREFIRE_STATUS": "postfire",
        "TILE_Z": 17,
        "TILE_X": 22369,
        "TILE_Y": 51425,
        "TILEXYZ": [
          17,
          22369,
          51425
        ],
        "OUTPUT_FILE": "/Users/maples/GitHub/mortalitree_testing/notebooks/single_tiles/postfire/17/22369/51425.geojson",
        "OUTPUT_STATUS_DIR": "postfire",
        "FEATURE_COUNT": 59
      },
      "geometry": {
        "type": "Polygon",
        "coordinates": [
          [
            [
              -118.56164145450475,
              36.100061456231316
            ],
            [
              -118.56164456368852,
              36.100006283899106
            ],
            [
              -118.56170654296875,
              36.10000858423981
            ],
            [
              -118.56170654296875,
              36.10006387197153
            ],
            [
              -118.56164145450475,
              36.100061456231316
            ]
          ]
        ]
      }
    },
    {
      "id": "502",
      "type": "Feature",
      "properties": {
        "id": null,
        "SOURCE_FILE": "/Users/maples/GitHub/mortalitree_testing/labels/annayu_mortalitree_postfire_labels.geojson",
        "SUNETID": "annayu",
        "FIRENAME": "CASTLE",
        "FIRE_SLUG": "CASTLE",
        "PREFIRE": 0,
        "PREFIRE_STATUS": "postfire",
        "TILE_Z": 17,
        "TILE_X": 22369,
        "TILE_Y": 51425,
        "TILEXYZ": [
          17,
          22369,
          51425
        ],
        "OUTPUT_FILE": "/Users/maples/GitHub/mortalitree_testing/notebooks/single_tiles/postfire/17/22369/51425.geojson",
        "OUTPUT_STATUS_DIR": "postfire",
        "FEATURE_COUNT": 59
      },
      "geometry": {
        "type": "Polygon",
        "coordinates": [
          [
            [
              -118.56166059292096,
              36.09982258638811
            ],
            [
              -118.56166266568403,
              36.09978580483097
            ],
            [
              -118.56170654296875,
              36.099787433313466
            ],
            [
              -118.56170654296875,
              36.09982429180162
            ],
            [
              -118.56166059292096,
              36.09982258638811
            ]
          ]
        ]
      }
    },
    {
      "id": "503",
      "type": "Feature",
      "properties": {
        "id": null,
        "SOURCE_FILE": "/Users/maples/GitHub/mortalitree_testing/labels/annayu_mortalitree_postfire_labels.geojson",
        "SUNETID": "annayu",
        "FIRENAME": "CASTLE",
        "FIRE_SLUG": "CASTLE",
        "PREFIRE": 0,
        "PREFIRE_STATUS": "postfire",
        "TILE_Z": 17,
        "TILE_X": 22369,
        "TILE_Y": 51425,
        "TILEXYZ": [
          17,
          22369,
          51425
        ],
        "OUTPUT_FILE": "/Users/maples/GitHub/mortalitree_testing/notebooks/single_tiles/postfire/17/22369/51425.geojson",
        "OUTPUT_STATUS_DIR": "postfire",
        "FEATURE_COUNT": 59
      },
      "geometry": {
        "type": "Polygon",
        "coordinates": [
          [
            [
              -118.56123864814306,
              36.09945216236617
            ],
            [
              -118.56117066433377,
              36.09944963891119
            ],
            [
              -118.56117377377706,
              36.09939446660864
            ],
            [
              -118.56124175753912,
              36.099396990058544
            ],
            [
              -118.56123864814306,
              36.09945216236617
            ]
          ]
        ]
      }
    },
    {
      "id": "504",
      "type": "Feature",
      "properties": {
        "id": null,
        "SOURCE_FILE": "/Users/maples/GitHub/mortalitree_testing/labels/annayu_mortalitree_postfire_labels.geojson",
        "SUNETID": "annayu",
        "FIRENAME": "CASTLE",
        "FIRE_SLUG": "CASTLE",
        "PREFIRE": 0,
        "PREFIRE_STATUS": "postfire",
        "TILE_Z": 17,
        "TILE_X": 22369,
        "TILE_Y": 51425,
        "TILEXYZ": [
          17,
          22369,
          51425
        ],
        "OUTPUT_FILE": "/Users/maples/GitHub/mortalitree_testing/notebooks/single_tiles/postfire/17/22369/51425.geojson",
        "OUTPUT_STATUS_DIR": "postfire",
        "FEATURE_COUNT": 59
      },
      "geometry": {
        "type": "Polygon",
        "coordinates": [
          [
            [
              -118.56019356566593,
              36.09966216086696
            ],
            [
              -118.56012558177227,
              36.09965963680645
            ],
            [
              -118.56012869197008,
              36.099604464584196
            ],
            [
              -118.56019667581648,
              36.09960698863965
            ],
            [
              -118.56019356566593,
              36.09966216086696
            ]
          ]
        ]
      }
    },
    {
      "id": "505",
      "type": "Feature",
      "properties": {
        "id": null,
        "SOURCE_FILE": "/Users/maples/GitHub/mortalitree_testing/labels/annayu_mortalitree_postfire_labels.geojson",
        "SUNETID": "annayu",
        "FIRENAME": "CASTLE",
        "FIRE_SLUG": "CASTLE",
        "PREFIRE": 0,
        "PREFIRE_STATUS": "postfire",
        "TILE_Z": 17,
        "TILE_X": 22369,
        "TILE_Y": 51425,
        "TILEXYZ": [
          17,
          22369,
          51425
        ],
        "OUTPUT_FILE": "/Users/maples/GitHub/mortalitree_testing/notebooks/single_tiles/postfire/17/22369/51425.geojson",
        "OUTPUT_STATUS_DIR": "postfire",
        "FEATURE_COUNT": 59
      },
      "geometry": {
        "type": "Polygon",
        "coordinates": [
          [
            [
              -118.56012424912925,
              36.09978398464461
            ],
            [
              -118.56005626513704,
              36.09978146053744
            ],
            [
              -118.56005937539722,
              36.09972628832151
            ],
            [
              -118.56012735934216,
              36.0997288124236
            ],
            [
              -118.56012424912925,
              36.09978398464461
            ]
          ]
        ]
      }
    },
    {
      "id": "506",
      "type": "Feature",
      "properties": {
        "id": null,
        "SOURCE_FILE": "/Users/maples/GitHub/mortalitree_testing/labels/annayu_mortalitree_postfire_labels.geojson",
        "SUNETID": "annayu",
        "FIRENAME": "CASTLE",
        "FIRE_SLUG": "CASTLE",
        "PREFIRE": 0,
        "PREFIRE_STATUS": "postfire",
        "TILE_Z": 17,
        "TILE_X": 22369,
        "TILE_Y": 51425,
        "TILEXYZ": [
          17,
          22369,
          51425
        ],
        "OUTPUT_FILE": "/Users/maples/GitHub/mortalitree_testing/notebooks/single_tiles/postfire/17/22369/51425.geojson",
        "OUTPUT_STATUS_DIR": "postfire",
        "FEATURE_COUNT": 59
      },
      "geometry": {
        "type": "Polygon",
        "coordinates": [
          [
            [
              -118.560076593778,
              36.09982368107351
            ],
            [
              -118.56003127109572,
              36.09982199832006
            ],
            [
              -118.56003386299818,
              36.09977602147536
            ],
            [
              -118.5600791856542,
              36.09977770422599
            ],
            [
              -118.560076593778,
              36.09982368107351
            ]
          ]
        ]
      }
    },
    {
      "id": "507",
      "type": "Feature",
      "properties": {
        "id": null,
        "SOURCE_FILE": "/Users/maples/GitHub/mortalitree_testing/labels/annayu_mortalitree_postfire_labels.geojson",
        "SUNETID": "annayu",
        "FIRENAME": "CASTLE",
        "FIRE_SLUG": "CASTLE",
        "PREFIRE": 0,
        "PREFIRE_STATUS": "postfire",
        "TILE_Z": 17,
        "TILE_X": 22369,
        "TILE_Y": 51425,
        "TILEXYZ": [
          17,
          22369,
          51425
        ],
        "OUTPUT_FILE": "/Users/maples/GitHub/mortalitree_testing/notebooks/single_tiles/postfire/17/22369/51425.geojson",
        "OUTPUT_STATUS_DIR": "postfire",
        "FEATURE_COUNT": 59
      },
      "geometry": {
        "type": "Polygon",
        "coordinates": [
          [
            [
              -118.56000838744403,
              36.09972439521974
            ],
            [
              -118.55995173416831,
              36.09972229174797
            ],
            [
              -118.55995380772022,
              36.09968551027563
            ],
            [
              -118.56001046096972,
              36.09968761374457
            ],
            [
              -118.56000838744403,
              36.09972439521974
            ]
          ]
        ]
      }
    },
    {
      "id": "508",
      "type": "Feature",
      "properties": {
        "id": null,
        "SOURCE_FILE": "/Users/maples/GitHub/mortalitree_testing/labels/annayu_mortalitree_postfire_labels.geojson",
        "SUNETID": "annayu",
        "FIRENAME": "CASTLE",
        "FIRE_SLUG": "CASTLE",
        "PREFIRE": 0,
        "PREFIRE_STATUS": "postfire",
        "TILE_Z": 17,
        "TILE_X": 22369,
        "TILE_Y": 51425,
        "TILEXYZ": [
          17,
          22369,
          51425
        ],
        "OUTPUT_FILE": "/Users/maples/GitHub/mortalitree_testing/notebooks/single_tiles/postfire/17/22369/51425.geojson",
        "OUTPUT_STATUS_DIR": "postfire",
        "FEATURE_COUNT": 59
      },
      "geometry": {
        "type": "Polygon",
        "coordinates": [
          [
            [
              -118.55974511589856,
              36.099963414609405
            ],
            [
              -118.55967713178681,
              36.099960890276364
            ],
            [
              -118.55968024233248,
              36.09990571809051
            ],
            [
              -118.55974822639696,
              36.09990824241847
            ],
            [
              -118.55974511589856,
              36.099963414609405
            ]
          ]
        ]
      }
    },
    {
      "id": "509",
      "type": "Feature",
      "properties": {
        "id": null,
        "SOURCE_FILE": "/Users/maples/GitHub/mortalitree_testing/labels/annayu_mortalitree_postfire_labels.geojson",
        "SUNETID": "annayu",
        "FIRENAME": "CASTLE",
        "FIRE_SLUG": "CASTLE",
        "PREFIRE": 0,
        "PREFIRE_STATUS": "postfire",
        "TILE_Z": 17,
        "TILE_X": 22369,
        "TILE_Y": 51425,
        "TILEXYZ": [
          17,
          22369,
          51425
        ],
        "OUTPUT_FILE": "/Users/maples/GitHub/mortalitree_testing/notebooks/single_tiles/postfire/17/22369/51425.geojson",
        "OUTPUT_STATUS_DIR": "postfire",
        "FEATURE_COUNT": 59
      },
      "geometry": {
        "type": "Polygon",
        "coordinates": [
          [
            [
              -118.5597817372054,
              36.09981734055374
            ],
            [
              -118.55970242255205,
              36.09981439552925
            ],
            [
              -118.55970553306334,
              36.09975922334014
            ],
            [
              -118.55978484766158,
              36.09976216835871
            ],
            [
              -118.5597817372054,
              36.09981734055374
            ]
          ]
        ]
      }
    },
    {
      "id": "510",
      "type": "Feature",
      "properties": {
        "id": null,
        "SOURCE_FILE": "/Users/maples/GitHub/mortalitree_testing/labels/annayu_mortalitree_postfire_labels.geojson",
        "SUNETID": "annayu",
        "FIRENAME": "CASTLE",
        "FIRE_SLUG": "CASTLE",
        "PREFIRE": 0,
        "PREFIRE_STATUS": "postfire",
        "TILE_Z": 17,
        "TILE_X": 22369,
        "TILE_Y": 51425,
        "TILEXYZ": [
          17,
          22369,
          51425
        ],
        "OUTPUT_FILE": "/Users/maples/GitHub/mortalitree_testing/notebooks/single_tiles/postfire/17/22369/51425.geojson",
        "OUTPUT_STATUS_DIR": "postfire",
        "FEATURE_COUNT": 59
      },
      "geometry": {
        "type": "Polygon",
        "coordinates": [
          [
            [
              -118.55979565991196,
              36.09977178443741
            ],
            [
              -118.55969368398812,
              36.09976799798372
            ],
            [
              -118.5596983497531,
              36.09968523970013
            ],
            [
              -118.55980032557063,
              36.09968902614241
            ],
            [
              -118.55979565991196,
              36.09977178443741
            ]
          ]
        ]
      }
    },
    {
      "id": "511",
      "type": "Feature",
      "properties": {
        "id": null,
        "SOURCE_FILE": "/Users/maples/GitHub/mortalitree_testing/labels/annayu_mortalitree_postfire_labels.geojson",
        "SUNETID": "annayu",
        "FIRENAME": "CASTLE",
        "FIRE_SLUG": "CASTLE",
        "PREFIRE": 0,
        "PREFIRE_STATUS": "postfire",
        "TILE_Z": 17,
        "TILE_X": 22369,
        "TILE_Y": 51425,
        "TILEXYZ": [
          17,
          22369,
          51425
        ],
        "OUTPUT_FILE": "/Users/maples/GitHub/mortalitree_testing/notebooks/single_tiles/postfire/17/22369/51425.geojson",
        "OUTPUT_STATUS_DIR": "postfire",
        "FEATURE_COUNT": 59
      },
      "geometry": {
        "type": "Polygon",
        "coordinates": [
          [
            [
              -118.5596613944704,
              36.10003863014462
            ],
            [
              -118.55961607169024,
              36.10003694722552
            ],
            [
              -118.55961918228725,
              36.09998177504495
            ],
            [
              -118.5596645050359,
              36.09998345796066
            ],
            [
              -118.5596613944704,
              36.10003863014462
            ]
          ]
        ]
      }
    },
    {
      "id": "512",
      "type": "Feature",
      "properties": {
        "id": null,
        "SOURCE_FILE": "/Users/maples/GitHub/mortalitree_testing/labels/annayu_mortalitree_postfire_labels.geojson",
        "SUNETID": "annayu",
        "FIRENAME": "CASTLE",
        "FIRE_SLUG": "CASTLE",
        "PREFIRE": 0,
        "PREFIRE_STATUS": "postfire",
        "TILE_Z": 17,
        "TILE_X": 22369,
        "TILE_Y": 51425,
        "TILEXYZ": [
          17,
          22369,
          51425
        ],
        "OUTPUT_FILE": "/Users/maples/GitHub/mortalitree_testing/notebooks/single_tiles/postfire/17/22369/51425.geojson",
        "OUTPUT_STATUS_DIR": "postfire",
        "FEATURE_COUNT": 59
      },
      "geometry": {
        "type": "Polygon",
        "coordinates": [
          [
            [
              -118.55956871263743,
              36.09997068638149
            ],
            [
              -118.5595007285357,
              36.099968161947935
            ],
            [
              -118.55950332076112,
              36.09992218513752
            ],
            [
              -118.55957130482348,
              36.09992470956684
            ],
            [
              -118.55956871263743,
              36.09997068638149
            ]
          ]
        ]
      }
    },
    {
      "id": "513",
      "type": "Feature",
      "properties": {
        "id": null,
        "SOURCE_FILE": "/Users/maples/GitHub/mortalitree_testing/labels/annayu_mortalitree_postfire_labels.geojson",
        "SUNETID": "annayu",
        "FIRENAME": "CASTLE",
        "FIRE_SLUG": "CASTLE",
        "PREFIRE": 0,
        "PREFIRE_STATUS": "postfire",
        "TILE_Z": 17,
        "TILE_X": 22369,
        "TILE_Y": 51425,
        "TILEXYZ": [
          17,
          22369,
          51425
        ],
        "OUTPUT_FILE": "/Users/maples/GitHub/mortalitree_testing/notebooks/single_tiles/postfire/17/22369/51425.geojson",
        "OUTPUT_STATUS_DIR": "postfire",
        "FEATURE_COUNT": 59
      },
      "geometry": {
        "type": "Polygon",
        "coordinates": [
          [
            [
              -118.55953705357092,
              36.09992804503826
            ],
            [
              -118.55945773883269,
              36.099925099844064
            ],
            [
              -118.55946188642409,
              36.099851536950936
            ],
            [
              -118.55954120108883,
              36.09985448213723
            ],
            [
              -118.55953705357092,
              36.09992804503826
            ]
          ]
        ]
      }
    },
    {
      "id": "514",
      "type": "Feature",
      "properties": {
        "id": null,
        "SOURCE_FILE": "/Users/maples/GitHub/mortalitree_testing/labels/annayu_mortalitree_postfire_labels.geojson",
        "SUNETID": "annayu",
        "FIRENAME": "CASTLE",
        "FIRE_SLUG": "CASTLE",
        "PREFIRE": 0,
        "PREFIRE_STATUS": "postfire",
        "TILE_Z": 17,
        "TILE_X": 22369,
        "TILE_Y": 51425,
        "TILEXYZ": [
          17,
          22369,
          51425
        ],
        "OUTPUT_FILE": "/Users/maples/GitHub/mortalitree_testing/notebooks/single_tiles/postfire/17/22369/51425.geojson",
        "OUTPUT_STATUS_DIR": "postfire",
        "FEATURE_COUNT": 59
      },
      "geometry": {
        "type": "Polygon",
        "coordinates": [
          [
            [
              -118.56166482606808,
              36.09874002539722
            ],
            [
              -118.5615855122945,
              36.09873708169461
            ],
            [
              -118.56158913954452,
              36.09867271396431
            ],
            [
              -118.56166845325379,
              36.09867565766001
            ],
            [
              -118.56166482606808,
              36.09874002539722
            ]
          ]
        ]
      }
    },
    {
      "id": "515",
      "type": "Feature",
      "properties": {
        "id": null,
        "SOURCE_FILE": "/Users/maples/GitHub/mortalitree_testing/labels/annayu_mortalitree_postfire_labels.geojson",
        "SUNETID": "annayu",
        "FIRENAME": "CASTLE",
        "FIRE_SLUG": "CASTLE",
        "PREFIRE": 0,
        "PREFIRE_STATUS": "postfire",
        "TILE_Z": 17,
        "TILE_X": 22369,
        "TILE_Y": 51425,
        "TILEXYZ": [
          17,
          22369,
          51425
        ],
        "OUTPUT_FILE": "/Users/maples/GitHub/mortalitree_testing/notebooks/single_tiles/postfire/17/22369/51425.geojson",
        "OUTPUT_STATUS_DIR": "postfire",
        "FEATURE_COUNT": 59
      },
      "geometry": {
        "type": "Polygon",
        "coordinates": [
          [
            [
              -118.55912933247852,
              36.10011101872824
            ],
            [
              -118.55903868690439,
              36.100107652464686
            ],
            [
              -118.55904439041392,
              36.10000650354698
            ],
            [
              -118.55913503587256,
              36.10000986979814
            ],
            [
              -118.55912933247852,
              36.10011101872824
            ]
          ]
        ]
      }
    },
    {
      "id": "516",
      "type": "Feature",
      "properties": {
        "id": null,
        "SOURCE_FILE": "/Users/maples/GitHub/mortalitree_testing/labels/annayu_mortalitree_postfire_labels.geojson",
        "SUNETID": "annayu",
        "FIRENAME": "CASTLE",
        "FIRE_SLUG": "CASTLE",
        "PREFIRE": 0,
        "PREFIRE_STATUS": "postfire",
        "TILE_Z": 17,
        "TILE_X": 22369,
        "TILE_Y": 51425,
        "TILEXYZ": [
          17,
          22369,
          51425
        ],
        "OUTPUT_FILE": "/Users/maples/GitHub/mortalitree_testing/notebooks/single_tiles/postfire/17/22369/51425.geojson",
        "OUTPUT_STATUS_DIR": "postfire",
        "FEATURE_COUNT": 59
      },
      "geometry": {
        "type": "Polygon",
        "coordinates": [
          [
            [
              -118.5617056219052,
              36.099930225773484
            ],
            [
              -118.56163763764093,
              36.09992770255479
            ],
            [
              -118.56164074681213,
              36.09987253022163
            ],
            [
              -118.56170654296875,
              36.09987497222605
            ],
            [
              -118.56170654296875,
              36.09991388122426
            ],
            [
              -118.5617056219052,
              36.099930225773484
            ]
          ]
        ]
      }
    },
    {
      "id": "517",
      "type": "Feature",
      "properties": {
        "id": null,
        "SOURCE_FILE": "/Users/maples/GitHub/mortalitree_testing/labels/annayu_mortalitree_postfire_labels.geojson",
        "SUNETID": "annayu",
        "FIRENAME": "CASTLE",
        "FIRE_SLUG": "CASTLE",
        "PREFIRE": 0,
        "PREFIRE_STATUS": "postfire",
        "TILE_Z": 17,
        "TILE_X": 22369,
        "TILE_Y": 51425,
        "TILEXYZ": [
          17,
          22369,
          51425
        ],
        "OUTPUT_FILE": "/Users/maples/GitHub/mortalitree_testing/notebooks/single_tiles/postfire/17/22369/51425.geojson",
        "OUTPUT_STATUS_DIR": "postfire",
        "FEATURE_COUNT": 59
      },
      "geometry": {
        "type": "Polygon",
        "coordinates": [
          [
            [
              -118.56162974478413,
              36.09966479289234
            ],
            [
              -118.56153909941456,
              36.09966142855604
            ],
            [
              -118.56154376322607,
              36.099578670063444
            ],
            [
              -118.56163440850118,
              36.0995820343896
            ],
            [
              -118.56162974478413,
              36.09966479289234
            ]
          ]
        ]
      }
    },
    {
      "id": "518",
      "type": "Feature",
      "properties": {
        "id": null,
        "SOURCE_FILE": "/Users/maples/GitHub/mortalitree_testing/labels/annayu_mortalitree_postfire_labels.geojson",
        "SUNETID": "annayu",
        "FIRENAME": "CASTLE",
        "FIRE_SLUG": "CASTLE",
        "PREFIRE": 0,
        "PREFIRE_STATUS": "postfire",
        "TILE_Z": 17,
        "TILE_X": 22369,
        "TILE_Y": 51425,
        "TILEXYZ": [
          17,
          22369,
          51425
        ],
        "OUTPUT_FILE": "/Users/maples/GitHub/mortalitree_testing/notebooks/single_tiles/postfire/17/22369/51425.geojson",
        "OUTPUT_STATUS_DIR": "postfire",
        "FEATURE_COUNT": 59
      },
      "geometry": {
        "type": "Polygon",
        "coordinates": [
          [
            [
              -118.56129523094293,
              36.09965698425622
            ],
            [
              -118.56122724695197,
              36.099654460821064
            ],
            [
              -118.56122983814176,
              36.09960848390037
            ],
            [
              -118.56129782209335,
              36.0996110073313
            ],
            [
              -118.56129523094293,
              36.09965698425622
            ]
          ]
        ]
      }
    },
    {
      "id": "519",
      "type": "Feature",
      "properties": {
        "id": null,
        "SOURCE_FILE": "/Users/maples/GitHub/mortalitree_testing/labels/annayu_mortalitree_postfire_labels.geojson",
        "SUNETID": "annayu",
        "FIRENAME": "CASTLE",
        "FIRE_SLUG": "CASTLE",
        "PREFIRE": 0,
        "PREFIRE_STATUS": "postfire",
        "TILE_Z": 17,
        "TILE_X": 22369,
        "TILE_Y": 51425,
        "TILEXYZ": [
          17,
          22369,
          51425
        ],
        "OUTPUT_FILE": "/Users/maples/GitHub/mortalitree_testing/notebooks/single_tiles/postfire/17/22369/51425.geojson",
        "OUTPUT_STATUS_DIR": "postfire",
        "FEATURE_COUNT": 59
      },
      "geometry": {
        "type": "Polygon",
        "coordinates": [
          [
            [
              -118.56025594886859,
              36.09805191897337
            ],
            [
              -118.56018796635631,
              36.098049395044825
            ],
            [
              -118.56019159465484,
              36.09798502742939
            ],
            [
              -118.56025957711203,
              36.097987551352
            ],
            [
              -118.56025594886859,
              36.09805191897337
            ]
          ]
        ]
      }
    },
    {
      "id": "520",
      "type": "Feature",
      "properties": {
        "id": null,
        "SOURCE_FILE": "/Users/maples/GitHub/mortalitree_testing/labels/annayu_mortalitree_postfire_labels.geojson",
        "SUNETID": "annayu",
        "FIRENAME": "CASTLE",
        "FIRE_SLUG": "CASTLE",
        "PREFIRE": 0,
        "PREFIRE_STATUS": "postfire",
        "TILE_Z": 17,
        "TILE_X": 22369,
        "TILE_Y": 51425,
        "TILEXYZ": [
          17,
          22369,
          51425
        ],
        "OUTPUT_FILE": "/Users/maples/GitHub/mortalitree_testing/notebooks/single_tiles/postfire/17/22369/51425.geojson",
        "OUTPUT_STATUS_DIR": "postfire",
        "FEATURE_COUNT": 59
      },
      "geometry": {
        "type": "Polygon",
        "coordinates": [
          [
            [
              -118.56168069920963,
              36.09825684682525
            ],
            [
              -118.56163537732839,
              36.09825516474121
            ],
            [
              -118.56163848631084,
              36.09819999239284
            ],
            [
              -118.5616838081606,
              36.098201674473515
            ],
            [
              -118.56168069920963,
              36.09825684682525
            ]
          ]
        ]
      }
    },
    {
      "id": "521",
      "type": "Feature",
      "properties": {
        "id": null,
        "SOURCE_FILE": "/Users/maples/GitHub/mortalitree_testing/labels/annayu_mortalitree_postfire_labels.geojson",
        "SUNETID": "annayu",
        "FIRENAME": "CASTLE",
        "FIRE_SLUG": "CASTLE",
        "PREFIRE": 0,
        "PREFIRE_STATUS": "postfire",
        "TILE_Z": 17,
        "TILE_X": 22369,
        "TILE_Y": 51425,
        "TILEXYZ": [
          17,
          22369,
          51425
        ],
        "OUTPUT_FILE": "/Users/maples/GitHub/mortalitree_testing/notebooks/single_tiles/postfire/17/22369/51425.geojson",
        "OUTPUT_STATUS_DIR": "postfire",
        "FEATURE_COUNT": 59
      },
      "geometry": {
        "type": "Polygon",
        "coordinates": [
          [
            [
              -118.5616616308572,
              36.09829299761232
            ],
            [
              -118.56166577614651,
              36.09821943447883
            ],
            [
              -118.56170654296875,
              36.098220947490766
            ],
            [
              -118.56170654296875,
              36.09829466447464
            ],
            [
              -118.5616616308572,
              36.09829299761232
            ]
          ]
        ]
      }
    },
    {
      "id": "522",
      "type": "Feature",
      "properties": {
        "id": null,
        "SOURCE_FILE": "/Users/maples/GitHub/mortalitree_testing/labels/annayu_mortalitree_postfire_labels.geojson",
        "SUNETID": "annayu",
        "FIRENAME": "CASTLE",
        "FIRE_SLUG": "CASTLE",
        "PREFIRE": 0,
        "PREFIRE_STATUS": "postfire",
        "TILE_Z": 17,
        "TILE_X": 22369,
        "TILE_Y": 51425,
        "TILEXYZ": [
          17,
          22369,
          51425
        ],
        "OUTPUT_FILE": "/Users/maples/GitHub/mortalitree_testing/notebooks/single_tiles/postfire/17/22369/51425.geojson",
        "OUTPUT_STATUS_DIR": "postfire",
        "FEATURE_COUNT": 59
      },
      "geometry": {
        "type": "Polygon",
        "coordinates": [
          [
            [
              -118.56168187323438,
              36.09934421585494
            ],
            [
              -118.56168601866433,
              36.099270652732336
            ],
            [
              -118.56170654296875,
              36.09927141447376
            ],
            [
              -118.56170654296875,
              36.09934513145194
            ],
            [
              -118.56168187323438,
              36.09934421585494
            ]
          ]
        ]
      }
    },
    {
      "id": "523",
      "type": "Feature",
      "properties": {
        "id": null,
        "SOURCE_FILE": "/Users/maples/GitHub/mortalitree_testing/labels/annayu_mortalitree_postfire_labels.geojson",
        "SUNETID": "annayu",
        "FIRENAME": "CASTLE",
        "FIRE_SLUG": "CASTLE",
        "PREFIRE": 0,
        "PREFIRE_STATUS": "postfire",
        "TILE_Z": 17,
        "TILE_X": 22369,
        "TILE_Y": 51425,
        "TILEXYZ": [
          17,
          22369,
          51425
        ],
        "OUTPUT_FILE": "/Users/maples/GitHub/mortalitree_testing/notebooks/single_tiles/postfire/17/22369/51425.geojson",
        "OUTPUT_STATUS_DIR": "postfire",
        "FEATURE_COUNT": 59
      },
      "geometry": {
        "type": "Polygon",
        "coordinates": [
          [
            [
              -118.56167546531645,
              36.099256439117866
            ],
            [
              -118.56167961073906,
              36.09918287599482
            ],
            [
              -118.56170654296875,
              36.09918387555609
            ],
            [
              -118.56170654296875,
              36.099257592534144
            ],
            [
              -118.56167546531645,
              36.099256439117866
            ]
          ]
        ]
      }
    },
    {
      "id": "524",
      "type": "Feature",
      "properties": {
        "id": null,
        "SOURCE_FILE": "/Users/maples/GitHub/mortalitree_testing/labels/annayu_mortalitree_postfire_labels.geojson",
        "SUNETID": "annayu",
        "FIRENAME": "CASTLE",
        "FIRE_SLUG": "CASTLE",
        "PREFIRE": 0,
        "PREFIRE_STATUS": "postfire",
        "TILE_Z": 17,
        "TILE_X": 22369,
        "TILE_Y": 51425,
        "TILEXYZ": [
          17,
          22369,
          51425
        ],
        "OUTPUT_FILE": "/Users/maples/GitHub/mortalitree_testing/notebooks/single_tiles/postfire/17/22369/51425.geojson",
        "OUTPUT_STATUS_DIR": "postfire",
        "FEATURE_COUNT": 59
      },
      "geometry": {
        "type": "Polygon",
        "coordinates": [
          [
            [
              -118.56166403061812,
              36.09956009725336
            ],
            [
              -118.56166817609747,
              36.09948653413519
            ],
            [
              -118.56170654296875,
              36.09948795809688
            ],
            [
              -118.56170654296875,
              36.09956167507462
            ],
            [
              -118.56166403061812,
              36.09956009725336
            ]
          ]
        ]
      }
    }
  ],
  "properties": {
    "SOURCE_FILE": "/Users/maples/GitHub/mortalitree_testing/labels/annayu_mortalitree_postfire_labels.geojson",
    "SUNETID": "annayu",
    "FIRENAME": "CASTLE",
    "FIRE_SLUG": "CASTLE",
    "PREFIRE": 0,
    "PREFIRE_STATUS": "postfire",
    "TILE_Z": 17,
    "TILE_X": 22369,
    "TILE_Y": 51425,
    "TILEXYZ": [
      17,
      22369,
      51425
    ],
    "OUTPUT_FILE": "/Users/maples/GitHub/mortalitree_testing/notebooks/single_tiles/postfire/17/22369/51425.geojson",
    "OUTPUT_STATUS_DIR": "postfire",
    "FEATURE_COUNT": 59
  }
}