{
  "type": "FeatureCollection",
  "features": [
    {
      "id": "808",
      "type": "Feature",
      "properties": {
        "id": null,
        "SOURCE_FILE": "/Users/maples/GitHub/mortalitree_testing/labels/agaleana_mortalitree_postfire_labels.geojson",
        "SUNETID": "agaleana",
        "FIRENAME": "CASTLE",
        "FIRE_SLUG": "CASTLE",
        "PREFIRE": 0,
        "PREFIRE_STATUS": "postfire",
        "TILE_Z": 17,
        "TILE_X": 22442,
        "TILE_Y": 51367,
        "TILEXYZ": [
          17,
          22442,
          51367
        ],
        "OUTPUT_FILE": "/Users/maples/GitHub/mortalitree_testing/notebooks/single_tiles/postfire/17/22442/51367.geojson",
        "OUTPUT_STATUS_DIR": "postfire",
        "FEATURE_COUNT": 1
      },
      "geometry": {
        "type": "Polygon",
        "coordinates": [
          [
            [
              -118.35931715864525,
              36.22876574685928
            ],
            [
              -118.35920009603866,
              36.22876574685928
            ],
            [
              -118.35920197956774,
              36.22873393857657
            ],
            [
              -118.35931877331245,
              36.22873847832342
            ],
            [
              -118.35931715864525,
              36.22876574685928
            ]
          ]
        ]
      }
    }
  ],
  "properties": {
    "SOURCE_FILE": "/Users/maples/GitHub/mortalitree_testing/labels/agaleana_mortalitree_postfire_labels.geojson",
    "SUNETID": "agaleana",
    "FIRENAME": "CASTLE",
    "FIRE_SLUG": "CASTLE",
    "PREFIRE": 0,
    "PREFIRE_STATUS": "postfire",
    "TILE_Z": 17,
    "TILE_X": 22442,
    "TILE_Y": 51367,
    "TILEXYZ": [
      17,
      22442,
      51367
    ],
    "OUTPUT_FILE": "/Users/maples/GitHub/mortalitree_testing/notebooks/single_tiles/postfire/17/22442/51367.geojson",
    "OUTPUT_STATUS_DIR": "postfire",
    "FEATURE_COUNT": 1
  }
}