{
  "type": "FeatureCollection",
  "features": [
    {
      "id": "693",
      "type": "Feature",
      "properties": {
        "id": null,
        "SOURCE_FILE": "/Users/maples/GitHub/mortalitree_testing/labels/luwajobi_mortalitree_postfire_labels.geojson",
        "SUNETID": "luwajobi",
        "FIRENAME": "NORTH COMPLEX",
        "FIRE_SLUG": "NORTH_COMPLEX",
        "PREFIRE": 0,
        "PREFIRE_STATUS": "postfire",
        "TILE_Z": 17,
        "TILE_X": 21380,
        "TILE_Y": 49720,
        "TILEXYZ": [
          17,
          21380,
          49720
        ],
        "OUTPUT_FILE": "/Users/maples/GitHub/mortalitree_testing/notebooks/single_tiles/postfire/17/21380/49720.geojson",
        "OUTPUT_STATUS_DIR": "postfire",
        "FEATURE_COUNT": 1
      },
      "geometry": {
        "type": "Polygon",
        "coordinates": [
          [
            [
              -121.27629453418562,
              39.79165483525342
            ],
            [
              -121.27612267878784,
              39.79165483525342
            ],
            [
              -121.2761249286154,
              39.79156472908462
            ],
            [
              -121.27629672006204,
              39.79156728162208
            ],
            [
              -121.27629453418562,
              39.79165483525342
            ]
          ]
        ]
      }
    }
  ],
  "properties": {
    "SOURCE_FILE": "/Users/maples/GitHub/mortalitree_testing/labels/luwajobi_mortalitree_postfire_labels.geojson",
    "SUNETID": "luwajobi",
    "FIRENAME": "NORTH COMPLEX",
    "FIRE_SLUG": "NORTH_COMPLEX",
    "PREFIRE": 0,
    "PREFIRE_STATUS": "postfire",
    "TILE_Z": 17,
    "TILE_X": 21380,
    "TILE_Y": 49720,
    "TILEXYZ": [
      17,
      21380,
      49720
    ],
    "OUTPUT_FILE": "/Users/maples/GitHub/mortalitree_testing/notebooks/single_tiles/postfire/17/21380/49720.geojson",
    "OUTPUT_STATUS_DIR": "postfire",
    "FEATURE_COUNT": 1
  }
}