{
  "type": "FeatureCollection",
  "features": [
    {
      "id": "342",
      "type": "Feature",
      "properties": {
        "zxy_val": null,
        "z_val": null,
        "x_val": null,
        "y_val": null,
        "url_suffix": null,
        "upper_left": null,
        "lower_righ": null,
        "centroid": null,
        "FID": 289.0,
        "layer": "hcdemars_mortalitree_prefire_labels2",
        "path": "C:\\ESS144\\Lab 7\\hcdemars_mortalitree_prefire_labels2.shp",
        "SOURCE_FILE": "/Users/maples/GitHub/mortalitree_testing/labels/hcdemars_mortalitree_prefire_labels-1.geojson",
        "SUNETID": "hcdemars",
        "FIRENAME": "CREEK",
        "FIRE_SLUG": "CREEK",
        "PREFIRE": 1,
        "PREFIRE_STATUS": "prefire",
        "TILE_Z": 17,
        "TILE_X": 22171,
        "TILE_Y": 50850,
        "TILEXYZ": [
          17,
          22171,
          50850
        ],
        "OUTPUT_FILE": "/Users/maples/GitHub/mortalitree_testing/notebooks/single_tiles/prefire/17/22171/50850.geojson",
        "OUTPUT_STATUS_DIR": "prefire",
        "FEATURE_COUNT": 37
      },
      "geometry": {
        "type": "Polygon",
        "coordinates": [
          [
            [
              -119.10483557103056,
              37.36500731126128
            ],
            [
              -119.10470980217303,
              37.36500316302252
            ],
            [
              -119.10471395998616,
              37.36492285518241
            ],
            [
              -119.10483972871032,
              37.364927003409186
            ],
            [
              -119.10483557103056,
              37.36500731126128
            ]
          ]
        ]
      }
    },
    {
      "id": "343",
      "type": "Feature",
      "properties": {
        "zxy_val": null,
        "z_val": null,
        "x_val": null,
        "y_val": null,
        "url_suffix": null,
        "upper_left": null,
        "lower_righ": null,
        "centroid": null,
        "FID": 290.0,
        "layer": "hcdemars_mortalitree_prefire_labels2",
        "path": "C:\\ESS144\\Lab 7\\hcdemars_mortalitree_prefire_labels2.shp",
        "SOURCE_FILE": "/Users/maples/GitHub/mortalitree_testing/labels/hcdemars_mortalitree_prefire_labels-1.geojson",
        "SUNETID": "hcdemars",
        "FIRENAME": "CREEK",
        "FIRE_SLUG": "CREEK",
        "PREFIRE": 1,
        "PREFIRE_STATUS": "prefire",
        "TILE_Z": 17,
        "TILE_X": 22171,
        "TILE_Y": 50850,
        "TILEXYZ": [
          17,
          22171,
          50850
        ],
        "OUTPUT_FILE": "/Users/maples/GitHub/mortalitree_testing/notebooks/single_tiles/prefire/17/22171/50850.geojson",
        "OUTPUT_STATUS_DIR": "prefire",
        "FEATURE_COUNT": 37
      },
      "geometry": {
        "type": "Polygon",
        "coordinates": [
          [
            [
              -119.10516773483216,
              37.36564841879491
            ],
            [
              -119.10505873418359,
              37.36564482391617
            ],
            [
              -119.1050615058772,
              37.365591285339825
            ],
            [
              -119.10517050644866,
              37.36559488021164
            ],
            [
              -119.10516773483216,
              37.36564841879491
            ]
          ]
        ]
      }
    },
    {
      "id": "344",
      "type": "Feature",
      "properties": {
        "zxy_val": null,
        "z_val": null,
        "x_val": null,
        "y_val": null,
        "url_suffix": null,
        "upper_left": null,
        "lower_righ": null,
        "centroid": null,
        "FID": 291.0,
        "layer": "hcdemars_mortalitree_prefire_labels2",
        "path": "C:\\ESS144\\Lab 7\\hcdemars_mortalitree_prefire_labels2.shp",
        "SOURCE_FILE": "/Users/maples/GitHub/mortalitree_testing/labels/hcdemars_mortalitree_prefire_labels-1.geojson",
        "SUNETID": "hcdemars",
        "FIRENAME": "CREEK",
        "FIRE_SLUG": "CREEK",
        "PREFIRE": 1,
        "PREFIRE_STATUS": "prefire",
        "TILE_Z": 17,
        "TILE_X": 22171,
        "TILE_Y": 50850,
        "TILEXYZ": [
          17,
          22171,
          50850
        ],
        "OUTPUT_FILE": "/Users/maples/GitHub/mortalitree_testing/notebooks/single_tiles/prefire/17/22171/50850.geojson",
        "OUTPUT_STATUS_DIR": "prefire",
        "FEATURE_COUNT": 37
      },
      "geometry": {
        "type": "Polygon",
        "coordinates": [
          [
            [
              -119.10523844984688,
              37.36558036158193
            ],
            [
              -119.10509591065782,
              37.365575660658976
            ],
            [
              -119.10509937523203,
              37.36550873743469
            ],
            [
              -119.10524191429505,
              37.36551343834633
            ],
            [
              -119.10523844984688,
              37.36558036158193
            ]
          ]
        ]
      }
    },
    {
      "id": "345",
      "type": "Feature",
      "properties": {
        "zxy_val": null,
        "z_val": null,
        "x_val": null,
        "y_val": null,
        "url_suffix": null,
        "upper_left": null,
        "lower_righ": null,
        "centroid": null,
        "FID": 292.0,
        "layer": "hcdemars_mortalitree_prefire_labels2",
        "path": "C:\\ESS144\\Lab 7\\hcdemars_mortalitree_prefire_labels2.shp",
        "SOURCE_FILE": "/Users/maples/GitHub/mortalitree_testing/labels/hcdemars_mortalitree_prefire_labels-1.geojson",
        "SUNETID": "hcdemars",
        "FIRENAME": "CREEK",
        "FIRE_SLUG": "CREEK",
        "PREFIRE": 1,
        "PREFIRE_STATUS": "prefire",
        "TILE_Z": 17,
        "TILE_X": 22171,
        "TILE_Y": 50850,
        "TILEXYZ": [
          17,
          22171,
          50850
        ],
        "OUTPUT_FILE": "/Users/maples/GitHub/mortalitree_testing/notebooks/single_tiles/prefire/17/22171/50850.geojson",
        "OUTPUT_STATUS_DIR": "prefire",
        "FEATURE_COUNT": 37
      },
      "geometry": {
        "type": "Polygon",
        "coordinates": [
          [
            [
              -119.10526374203037,
              37.365497398832936
            ],
            [
              -119.10509604904982,
              37.36549186836384
            ],
            [
              -119.10509882070157,
              37.365438329783714
            ],
            [
              -119.10526651356354,
              37.36544386024216
            ],
            [
              -119.10526374203037,
              37.365497398832936
            ]
          ]
        ]
      }
    },
    {
      "id": "346",
      "type": "Feature",
      "properties": {
        "zxy_val": null,
        "z_val": null,
        "x_val": null,
        "y_val": null,
        "url_suffix": null,
        "upper_left": null,
        "lower_righ": null,
        "centroid": null,
        "FID": 293.0,
        "layer": "hcdemars_mortalitree_prefire_labels2",
        "path": "C:\\ESS144\\Lab 7\\hcdemars_mortalitree_prefire_labels2.shp",
        "SOURCE_FILE": "/Users/maples/GitHub/mortalitree_testing/labels/hcdemars_mortalitree_prefire_labels-1.geojson",
        "SUNETID": "hcdemars",
        "FIRENAME": "CREEK",
        "FIRE_SLUG": "CREEK",
        "PREFIRE": 1,
        "PREFIRE_STATUS": "prefire",
        "TILE_Z": 17,
        "TILE_X": 22171,
        "TILE_Y": 50850,
        "TILEXYZ": [
          17,
          22171,
          50850
        ],
        "OUTPUT_FILE": "/Users/maples/GitHub/mortalitree_testing/notebooks/single_tiles/prefire/17/22171/50850.geojson",
        "OUTPUT_STATUS_DIR": "prefire",
        "FEATURE_COUNT": 37
      },
      "geometry": {
        "type": "Polygon",
        "coordinates": [
          [
            [
              -119.1052205378759,
              37.365764123952545
            ],
            [
              -119.1050863830198,
              37.36575969952046
            ],
            [
              -119.10508950116544,
              37.36569946862119
            ],
            [
              -119.10522365591476,
              37.365703893043694
            ],
            [
              -119.1052205378759,
              37.365764123952545
            ]
          ]
        ]
      }
    },
    {
      "id": "347",
      "type": "Feature",
      "properties": {
        "zxy_val": null,
        "z_val": null,
        "x_val": null,
        "y_val": null,
        "url_suffix": null,
        "upper_left": null,
        "lower_righ": null,
        "centroid": null,
        "FID": 294.0,
        "layer": "hcdemars_mortalitree_prefire_labels2",
        "path": "C:\\ESS144\\Lab 7\\hcdemars_mortalitree_prefire_labels2.shp",
        "SOURCE_FILE": "/Users/maples/GitHub/mortalitree_testing/labels/hcdemars_mortalitree_prefire_labels-1.geojson",
        "SUNETID": "hcdemars",
        "FIRENAME": "CREEK",
        "FIRE_SLUG": "CREEK",
        "PREFIRE": 1,
        "PREFIRE_STATUS": "prefire",
        "TILE_Z": 17,
        "TILE_X": 22171,
        "TILE_Y": 50850,
        "TILEXYZ": [
          17,
          22171,
          50850
        ],
        "OUTPUT_FILE": "/Users/maples/GitHub/mortalitree_testing/notebooks/single_tiles/prefire/17/22171/50850.geojson",
        "OUTPUT_STATUS_DIR": "prefire",
        "FEATURE_COUNT": 37
      },
      "geometry": {
        "type": "Polygon",
        "coordinates": [
          [
            [
              -119.10343011990159,
              37.36564641750068
            ],
            [
              -119.10333696039969,
              37.36564334369973
            ],
            [
              -119.10334013192525,
              37.365582109028736
            ],
            [
              -119.10343329135182,
              37.36558518282291
            ],
            [
              -119.10343011990159,
              37.36564641750068
            ]
          ]
        ]
      }
    },
    {
      "id": "348",
      "type": "Feature",
      "properties": {
        "zxy_val": null,
        "z_val": null,
        "x_val": null,
        "y_val": null,
        "url_suffix": null,
        "upper_left": null,
        "lower_righ": null,
        "centroid": null,
        "FID": 295.0,
        "layer": "hcdemars_mortalitree_prefire_labels2",
        "path": "C:\\ESS144\\Lab 7\\hcdemars_mortalitree_prefire_labels2.shp",
        "SOURCE_FILE": "/Users/maples/GitHub/mortalitree_testing/labels/hcdemars_mortalitree_prefire_labels-1.geojson",
        "SUNETID": "hcdemars",
        "FIRENAME": "CREEK",
        "FIRE_SLUG": "CREEK",
        "PREFIRE": 1,
        "PREFIRE_STATUS": "prefire",
        "TILE_Z": 17,
        "TILE_X": 22171,
        "TILE_Y": 50850,
        "TILEXYZ": [
          17,
          22171,
          50850
        ],
        "OUTPUT_FILE": "/Users/maples/GitHub/mortalitree_testing/notebooks/single_tiles/prefire/17/22171/50850.geojson",
        "OUTPUT_STATUS_DIR": "prefire",
        "FEATURE_COUNT": 37
      },
      "geometry": {
        "type": "Polygon",
        "coordinates": [
          [
            [
              -119.10347310192847,
              37.36550544082031
            ],
            [
              -119.10340734239824,
              37.3655032711169
            ],
            [
              -119.1034116465098,
              37.36542016691141
            ],
            [
              -119.10347740596784,
              37.36542233660833
            ],
            [
              -119.10347310192847,
              37.36550544082031
            ]
          ]
        ]
      }
    },
    {
      "id": "349",
      "type": "Feature",
      "properties": {
        "zxy_val": null,
        "z_val": null,
        "x_val": null,
        "y_val": null,
        "url_suffix": null,
        "upper_left": null,
        "lower_righ": null,
        "centroid": null,
        "FID": 296.0,
        "layer": "hcdemars_mortalitree_prefire_labels2",
        "path": "C:\\ESS144\\Lab 7\\hcdemars_mortalitree_prefire_labels2.shp",
        "SOURCE_FILE": "/Users/maples/GitHub/mortalitree_testing/labels/hcdemars_mortalitree_prefire_labels-1.geojson",
        "SUNETID": "hcdemars",
        "FIRENAME": "CREEK",
        "FIRE_SLUG": "CREEK",
        "PREFIRE": 1,
        "PREFIRE_STATUS": "prefire",
        "TILE_Z": 17,
        "TILE_X": 22171,
        "TILE_Y": 50850,
        "TILEXYZ": [
          17,
          22171,
          50850
        ],
        "OUTPUT_FILE": "/Users/maples/GitHub/mortalitree_testing/notebooks/single_tiles/prefire/17/22171/50850.geojson",
        "OUTPUT_STATUS_DIR": "prefire",
        "FEATURE_COUNT": 37
      },
      "geometry": {
        "type": "Polygon",
        "coordinates": [
          [
            [
              -119.10344919171574,
              37.365384163969146
            ],
            [
              -119.10332863277985,
              37.36538018613829
            ],
            [
              -119.10333248388844,
              37.36530582974938
            ],
            [
              -119.10345304270591,
              37.365309807569595
            ],
            [
              -119.10344919171574,
              37.365384163969146
            ]
          ]
        ]
      }
    },
    {
      "id": "350",
      "type": "Feature",
      "properties": {
        "zxy_val": null,
        "z_val": null,
        "x_val": null,
        "y_val": null,
        "url_suffix": null,
        "upper_left": null,
        "lower_righ": null,
        "centroid": null,
        "FID": 297.0,
        "layer": "hcdemars_mortalitree_prefire_labels2",
        "path": "C:\\ESS144\\Lab 7\\hcdemars_mortalitree_prefire_labels2.shp",
        "SOURCE_FILE": "/Users/maples/GitHub/mortalitree_testing/labels/hcdemars_mortalitree_prefire_labels-1.geojson",
        "SUNETID": "hcdemars",
        "FIRENAME": "CREEK",
        "FIRE_SLUG": "CREEK",
        "PREFIRE": 1,
        "PREFIRE_STATUS": "prefire",
        "TILE_Z": 17,
        "TILE_X": 22171,
        "TILE_Y": 50850,
        "TILEXYZ": [
          17,
          22171,
          50850
        ],
        "OUTPUT_FILE": "/Users/maples/GitHub/mortalitree_testing/notebooks/single_tiles/prefire/17/22171/50850.geojson",
        "OUTPUT_STATUS_DIR": "prefire",
        "FEATURE_COUNT": 37
      },
      "geometry": {
        "type": "Polygon",
        "coordinates": [
          [
            [
              -119.10333481388292,
              37.36541982250484
            ],
            [
              -119.10321973485938,
              37.36541602537278
            ],
            [
              -119.10322290645418,
              37.36535479070799
            ],
            [
              -119.10333798538463,
              37.365358587831686
            ],
            [
              -119.10333481388292,
              37.36541982250484
            ]
          ]
        ]
      }
    },
    {
      "id": "351",
      "type": "Feature",
      "properties": {
        "zxy_val": null,
        "z_val": null,
        "x_val": null,
        "y_val": null,
        "url_suffix": null,
        "upper_left": null,
        "lower_righ": null,
        "centroid": null,
        "FID": 298.0,
        "layer": "hcdemars_mortalitree_prefire_labels2",
        "path": "C:\\ESS144\\Lab 7\\hcdemars_mortalitree_prefire_labels2.shp",
        "SOURCE_FILE": "/Users/maples/GitHub/mortalitree_testing/labels/hcdemars_mortalitree_prefire_labels-1.geojson",
        "SUNETID": "hcdemars",
        "FIRENAME": "CREEK",
        "FIRE_SLUG": "CREEK",
        "PREFIRE": 1,
        "PREFIRE_STATUS": "prefire",
        "TILE_Z": 17,
        "TILE_X": 22171,
        "TILE_Y": 50850,
        "TILEXYZ": [
          17,
          22171,
          50850
        ],
        "OUTPUT_FILE": "/Users/maples/GitHub/mortalitree_testing/notebooks/single_tiles/prefire/17/22171/50850.geojson",
        "OUTPUT_STATUS_DIR": "prefire",
        "FEATURE_COUNT": 37
      },
      "geometry": {
        "type": "Polygon",
        "coordinates": [
          [
            [
              -119.10312623584328,
              37.36541951227836
            ],
            [
              -119.10307691627159,
              37.36541788486276
            ],
            [
              -119.10307827557753,
              37.36539164143957
            ],
            [
              -119.10312759513212,
              37.365393268853644
            ],
            [
              -119.10312623584328,
              37.36541951227836
            ]
          ]
        ]
      }
    },
    {
      "id": "352",
      "type": "Feature",
      "properties": {
        "zxy_val": null,
        "z_val": null,
        "x_val": null,
        "y_val": null,
        "url_suffix": null,
        "upper_left": null,
        "lower_righ": null,
        "centroid": null,
        "FID": 299.0,
        "layer": "hcdemars_mortalitree_prefire_labels2",
        "path": "C:\\ESS144\\Lab 7\\hcdemars_mortalitree_prefire_labels2.shp",
        "SOURCE_FILE": "/Users/maples/GitHub/mortalitree_testing/labels/hcdemars_mortalitree_prefire_labels-1.geojson",
        "SUNETID": "hcdemars",
        "FIRENAME": "CREEK",
        "FIRE_SLUG": "CREEK",
        "PREFIRE": 1,
        "PREFIRE_STATUS": "prefire",
        "TILE_Z": 17,
        "TILE_X": 22171,
        "TILE_Y": 50850,
        "TILEXYZ": [
          17,
          22171,
          50850
        ],
        "OUTPUT_FILE": "/Users/maples/GitHub/mortalitree_testing/notebooks/single_tiles/prefire/17/22171/50850.geojson",
        "OUTPUT_STATUS_DIR": "prefire",
        "FEATURE_COUNT": 37
      },
      "geometry": {
        "type": "Polygon",
        "coordinates": [
          [
            [
              -119.10309252045107,
              37.3653285814814
            ],
            [
              -119.10302128115981,
              37.36532623074794
            ],
            [
              -119.10302332014035,
              37.365286865615104
            ],
            [
              -119.10309455939455,
              37.36528921634524
            ],
            [
              -119.10309252045107,
              37.3653285814814
            ]
          ]
        ]
      }
    },
    {
      "id": "353",
      "type": "Feature",
      "properties": {
        "zxy_val": null,
        "z_val": null,
        "x_val": null,
        "y_val": null,
        "url_suffix": null,
        "upper_left": null,
        "lower_righ": null,
        "centroid": null,
        "FID": 300.0,
        "layer": "hcdemars_mortalitree_prefire_labels2",
        "path": "C:\\ESS144\\Lab 7\\hcdemars_mortalitree_prefire_labels2.shp",
        "SOURCE_FILE": "/Users/maples/GitHub/mortalitree_testing/labels/hcdemars_mortalitree_prefire_labels-1.geojson",
        "SUNETID": "hcdemars",
        "FIRENAME": "CREEK",
        "FIRE_SLUG": "CREEK",
        "PREFIRE": 1,
        "PREFIRE_STATUS": "prefire",
        "TILE_Z": 17,
        "TILE_X": 22171,
        "TILE_Y": 50850,
        "TILEXYZ": [
          17,
          22171,
          50850
        ],
        "OUTPUT_FILE": "/Users/maples/GitHub/mortalitree_testing/notebooks/single_tiles/prefire/17/22171/50850.geojson",
        "OUTPUT_STATUS_DIR": "prefire",
        "FEATURE_COUNT": 37
      },
      "geometry": {
        "type": "Polygon",
        "coordinates": [
          [
            [
              -119.10312628491151,
              37.36525959354257
            ],
            [
              -119.10303312592157,
              37.36525651952929
            ],
            [
              -119.10303584454631,
              37.36520403268406
            ],
            [
              -119.10312900347164,
              37.365207106691535
            ],
            [
              -119.10312628491151,
              37.36525959354257
            ]
          ]
        ]
      }
    },
    {
      "id": "354",
      "type": "Feature",
      "properties": {
        "zxy_val": null,
        "z_val": null,
        "x_val": null,
        "y_val": null,
        "url_suffix": null,
        "upper_left": null,
        "lower_righ": null,
        "centroid": null,
        "FID": 301.0,
        "layer": "hcdemars_mortalitree_prefire_labels2",
        "path": "C:\\ESS144\\Lab 7\\hcdemars_mortalitree_prefire_labels2.shp",
        "SOURCE_FILE": "/Users/maples/GitHub/mortalitree_testing/labels/hcdemars_mortalitree_prefire_labels-1.geojson",
        "SUNETID": "hcdemars",
        "FIRENAME": "CREEK",
        "FIRE_SLUG": "CREEK",
        "PREFIRE": 1,
        "PREFIRE_STATUS": "prefire",
        "TILE_Z": 17,
        "TILE_X": 22171,
        "TILE_Y": 50850,
        "TILEXYZ": [
          17,
          22171,
          50850
        ],
        "OUTPUT_FILE": "/Users/maples/GitHub/mortalitree_testing/notebooks/single_tiles/prefire/17/22171/50850.geojson",
        "OUTPUT_STATUS_DIR": "prefire",
        "FEATURE_COUNT": 37
      },
      "geometry": {
        "type": "Polygon",
        "coordinates": [
          [
            [
              -119.10308149643114,
              37.365170488052605
            ],
            [
              -119.10300477735674,
              37.365167956493636
            ],
            [
              -119.10300704288703,
              37.365124217456824
            ],
            [
              -119.1030837619171,
              37.36512674901181
            ],
            [
              -119.10308149643114,
              37.365170488052605
            ]
          ]
        ]
      }
    },
    {
      "id": "355",
      "type": "Feature",
      "properties": {
        "zxy_val": null,
        "z_val": null,
        "x_val": null,
        "y_val": null,
        "url_suffix": null,
        "upper_left": null,
        "lower_righ": null,
        "centroid": null,
        "FID": 302.0,
        "layer": "hcdemars_mortalitree_prefire_labels2",
        "path": "C:\\ESS144\\Lab 7\\hcdemars_mortalitree_prefire_labels2.shp",
        "SOURCE_FILE": "/Users/maples/GitHub/mortalitree_testing/labels/hcdemars_mortalitree_prefire_labels-1.geojson",
        "SUNETID": "hcdemars",
        "FIRENAME": "CREEK",
        "FIRE_SLUG": "CREEK",
        "PREFIRE": 1,
        "PREFIRE_STATUS": "prefire",
        "TILE_Z": 17,
        "TILE_X": 22171,
        "TILE_Y": 50850,
        "TILEXYZ": [
          17,
          22171,
          50850
        ],
        "OUTPUT_FILE": "/Users/maples/GitHub/mortalitree_testing/notebooks/single_tiles/prefire/17/22171/50850.geojson",
        "OUTPUT_STATUS_DIR": "prefire",
        "FEATURE_COUNT": 37
      },
      "geometry": {
        "type": "Polygon",
        "coordinates": [
          [
            [
              -119.10311766096291,
              37.36510815137948
            ],
            [
              -119.10301354230307,
              37.365104715716974
            ],
            [
              -119.10301626092654,
              37.36505222887164
            ],
            [
              -119.10312037951421,
              37.36505566452765
            ],
            [
              -119.10311766096291,
              37.36510815137948
            ]
          ]
        ]
      }
    },
    {
      "id": "356",
      "type": "Feature",
      "properties": {
        "zxy_val": null,
        "z_val": null,
        "x_val": null,
        "y_val": null,
        "url_suffix": null,
        "upper_left": null,
        "lower_righ": null,
        "centroid": null,
        "FID": 303.0,
        "layer": "hcdemars_mortalitree_prefire_labels2",
        "path": "C:\\ESS144\\Lab 7\\hcdemars_mortalitree_prefire_labels2.shp",
        "SOURCE_FILE": "/Users/maples/GitHub/mortalitree_testing/labels/hcdemars_mortalitree_prefire_labels-1.geojson",
        "SUNETID": "hcdemars",
        "FIRENAME": "CREEK",
        "FIRE_SLUG": "CREEK",
        "PREFIRE": 1,
        "PREFIRE_STATUS": "prefire",
        "TILE_Z": 17,
        "TILE_X": 22171,
        "TILE_Y": 50850,
        "TILEXYZ": [
          17,
          22171,
          50850
        ],
        "OUTPUT_FILE": "/Users/maples/GitHub/mortalitree_testing/notebooks/single_tiles/prefire/17/22171/50850.geojson",
        "OUTPUT_STATUS_DIR": "prefire",
        "FEATURE_COUNT": 37
      },
      "geometry": {
        "type": "Polygon",
        "coordinates": [
          [
            [
              -119.10321075533875,
              37.36495349351583
            ],
            [
              -119.10309567704441,
              37.364949696303235
            ],
            [
              -119.1030979425041,
              37.36490595726005
            ],
            [
              -119.10321302073196,
              37.36490975446667
            ],
            [
              -119.10321075533875,
              37.36495349351583
            ]
          ]
        ]
      }
    },
    {
      "id": "357",
      "type": "Feature",
      "properties": {
        "zxy_val": null,
        "z_val": null,
        "x_val": null,
        "y_val": null,
        "url_suffix": null,
        "upper_left": null,
        "lower_righ": null,
        "centroid": null,
        "FID": 304.0,
        "layer": "hcdemars_mortalitree_prefire_labels2",
        "path": "C:\\ESS144\\Lab 7\\hcdemars_mortalitree_prefire_labels2.shp",
        "SOURCE_FILE": "/Users/maples/GitHub/mortalitree_testing/labels/hcdemars_mortalitree_prefire_labels-1.geojson",
        "SUNETID": "hcdemars",
        "FIRENAME": "CREEK",
        "FIRE_SLUG": "CREEK",
        "PREFIRE": 1,
        "PREFIRE_STATUS": "prefire",
        "TILE_Z": 17,
        "TILE_X": 22171,
        "TILE_Y": 50850,
        "TILEXYZ": [
          17,
          22171,
          50850
        ],
        "OUTPUT_FILE": "/Users/maples/GitHub/mortalitree_testing/notebooks/single_tiles/prefire/17/22171/50850.geojson",
        "OUTPUT_STATUS_DIR": "prefire",
        "FEATURE_COUNT": 37
      },
      "geometry": {
        "type": "Polygon",
        "coordinates": [
          [
            [
              -119.10313390176871,
              37.36490057174106
            ],
            [
              -119.10304622313592,
              37.364897678583326
            ],
            [
              -119.1030489417163,
              37.36484519173409
            ],
            [
              -119.1031366202883,
              37.36484808488636
            ],
            [
              -119.10313390176871,
              37.36490057174106
            ]
          ]
        ]
      }
    },
    {
      "id": "358",
      "type": "Feature",
      "properties": {
        "zxy_val": null,
        "z_val": null,
        "x_val": null,
        "y_val": null,
        "url_suffix": null,
        "upper_left": null,
        "lower_righ": null,
        "centroid": null,
        "FID": 305.0,
        "layer": "hcdemars_mortalitree_prefire_labels2",
        "path": "C:\\ESS144\\Lab 7\\hcdemars_mortalitree_prefire_labels2.shp",
        "SOURCE_FILE": "/Users/maples/GitHub/mortalitree_testing/labels/hcdemars_mortalitree_prefire_labels-1.geojson",
        "SUNETID": "hcdemars",
        "FIRENAME": "CREEK",
        "FIRE_SLUG": "CREEK",
        "PREFIRE": 1,
        "PREFIRE_STATUS": "prefire",
        "TILE_Z": 17,
        "TILE_X": 22171,
        "TILE_Y": 50850,
        "TILEXYZ": [
          17,
          22171,
          50850
        ],
        "OUTPUT_FILE": "/Users/maples/GitHub/mortalitree_testing/notebooks/single_tiles/prefire/17/22171/50850.geojson",
        "OUTPUT_STATUS_DIR": "prefire",
        "FEATURE_COUNT": 37
      },
      "geometry": {
        "type": "Polygon",
        "coordinates": [
          [
            [
              -119.10296630808567,
              37.36482835694914
            ],
            [
              -119.10284547611306,
              37.36482436963459
            ],
            [
              -119.10284947261873,
              37.364747213983506
            ],
            [
              -119.1029703044682,
              37.36475120128701
            ],
            [
              -119.10296630808567,
              37.36482835694914
            ]
          ]
        ]
      }
    },
    {
      "id": "359",
      "type": "Feature",
      "properties": {
        "zxy_val": null,
        "z_val": null,
        "x_val": null,
        "y_val": null,
        "url_suffix": null,
        "upper_left": null,
        "lower_righ": null,
        "centroid": null,
        "FID": 306.0,
        "layer": "hcdemars_mortalitree_prefire_labels2",
        "path": "C:\\ESS144\\Lab 7\\hcdemars_mortalitree_prefire_labels2.shp",
        "SOURCE_FILE": "/Users/maples/GitHub/mortalitree_testing/labels/hcdemars_mortalitree_prefire_labels-1.geojson",
        "SUNETID": "hcdemars",
        "FIRENAME": "CREEK",
        "FIRE_SLUG": "CREEK",
        "PREFIRE": 1,
        "PREFIRE_STATUS": "prefire",
        "TILE_Z": 17,
        "TILE_X": 22171,
        "TILE_Y": 50850,
        "TILEXYZ": [
          17,
          22171,
          50850
        ],
        "OUTPUT_FILE": "/Users/maples/GitHub/mortalitree_testing/notebooks/single_tiles/prefire/17/22171/50850.geojson",
        "OUTPUT_STATUS_DIR": "prefire",
        "FEATURE_COUNT": 37
      },
      "geometry": {
        "type": "Polygon",
        "coordinates": [
          [
            [
              -119.10294484955112,
              37.36436633886658
            ],
            [
              -119.1028783923724,
              37.36436414586974
            ],
            [
              -119.10288138967799,
              37.36430627912478
            ],
            [
              -119.10294784680589,
              37.36430847211707
            ],
            [
              -119.10294484955112,
              37.36436633886658
            ]
          ]
        ]
      }
    },
    {
      "id": "360",
      "type": "Feature",
      "properties": {
        "zxy_val": null,
        "z_val": null,
        "x_val": null,
        "y_val": null,
        "url_suffix": null,
        "upper_left": null,
        "lower_righ": null,
        "centroid": null,
        "FID": 307.0,
        "layer": "hcdemars_mortalitree_prefire_labels2",
        "path": "C:\\ESS144\\Lab 7\\hcdemars_mortalitree_prefire_labels2.shp",
        "SOURCE_FILE": "/Users/maples/GitHub/mortalitree_testing/labels/hcdemars_mortalitree_prefire_labels-1.geojson",
        "SUNETID": "hcdemars",
        "FIRENAME": "CREEK",
        "FIRE_SLUG": "CREEK",
        "PREFIRE": 1,
        "PREFIRE_STATUS": "prefire",
        "TILE_Z": 17,
        "TILE_X": 22171,
        "TILE_Y": 50850,
        "TILEXYZ": [
          17,
          22171,
          50850
        ],
        "OUTPUT_FILE": "/Users/maples/GitHub/mortalitree_testing/notebooks/single_tiles/prefire/17/22171/50850.geojson",
        "OUTPUT_STATUS_DIR": "prefire",
        "FEATURE_COUNT": 37
      },
      "geometry": {
        "type": "Polygon",
        "coordinates": [
          [
            [
              -119.10285382800788,
              37.36431261532376
            ],
            [
              -119.1027934124402,
              37.36431062164775
            ],
            [
              -119.10279940716168,
              37.364194888167745
            ],
            [
              -119.10285982263701,
              37.36419688183546
            ],
            [
              -119.10285382800788,
              37.36431261532376
            ]
          ]
        ]
      }
    },
    {
      "id": "361",
      "type": "Feature",
      "properties": {
        "zxy_val": null,
        "z_val": null,
        "x_val": null,
        "y_val": null,
        "url_suffix": null,
        "upper_left": null,
        "lower_righ": null,
        "centroid": null,
        "FID": 308.0,
        "layer": "hcdemars_mortalitree_prefire_labels2",
        "path": "C:\\ESS144\\Lab 7\\hcdemars_mortalitree_prefire_labels2.shp",
        "SOURCE_FILE": "/Users/maples/GitHub/mortalitree_testing/labels/hcdemars_mortalitree_prefire_labels-1.geojson",
        "SUNETID": "hcdemars",
        "FIRENAME": "CREEK",
        "FIRE_SLUG": "CREEK",
        "PREFIRE": 1,
        "PREFIRE_STATUS": "prefire",
        "TILE_Z": 17,
        "TILE_X": 22171,
        "TILE_Y": 50850,
        "TILEXYZ": [
          17,
          22171,
          50850
        ],
        "OUTPUT_FILE": "/Users/maples/GitHub/mortalitree_testing/notebooks/single_tiles/prefire/17/22171/50850.geojson",
        "OUTPUT_STATUS_DIR": "prefire",
        "FEATURE_COUNT": 37
      },
      "geometry": {
        "type": "Polygon",
        "coordinates": [
          [
            [
              -119.10324008939932,
              37.364274641024664
            ],
            [
              -119.10313134138653,
              37.364271052743895
            ],
            [
              -119.10313583703517,
              37.36418425259864
            ],
            [
              -119.10324458492329,
              37.364187840868205
            ],
            [
              -119.10324008939932,
              37.364274641024664
            ]
          ]
        ]
      }
    },
    {
      "id": "362",
      "type": "Feature",
      "properties": {
        "zxy_val": null,
        "z_val": null,
        "x_val": null,
        "y_val": null,
        "url_suffix": null,
        "upper_left": null,
        "lower_righ": null,
        "centroid": null,
        "FID": 309.0,
        "layer": "hcdemars_mortalitree_prefire_labels2",
        "path": "C:\\ESS144\\Lab 7\\hcdemars_mortalitree_prefire_labels2.shp",
        "SOURCE_FILE": "/Users/maples/GitHub/mortalitree_testing/labels/hcdemars_mortalitree_prefire_labels-1.geojson",
        "SUNETID": "hcdemars",
        "FIRENAME": "CREEK",
        "FIRE_SLUG": "CREEK",
        "PREFIRE": 1,
        "PREFIRE_STATUS": "prefire",
        "TILE_Z": 17,
        "TILE_X": 22171,
        "TILE_Y": 50850,
        "TILEXYZ": [
          17,
          22171,
          50850
        ],
        "OUTPUT_FILE": "/Users/maples/GitHub/mortalitree_testing/notebooks/single_tiles/prefire/17/22171/50850.geojson",
        "OUTPUT_STATUS_DIR": "prefire",
        "FEATURE_COUNT": 37
      },
      "geometry": {
        "type": "Polygon",
        "coordinates": [
          [
            [
              -119.10331328969217,
              37.364146633568204
            ],
            [
              -119.10322266649288,
              37.36414364340594
            ],
            [
              -119.10322741176633,
              37.364052021018374
            ],
            [
              -119.10331803485596,
              37.364055011170805
            ],
            [
              -119.10331328969217,
              37.364146633568204
            ]
          ]
        ]
      }
    },
    {
      "id": "363",
      "type": "Feature",
      "properties": {
        "zxy_val": null,
        "z_val": null,
        "x_val": null,
        "y_val": null,
        "url_suffix": null,
        "upper_left": null,
        "lower_righ": null,
        "centroid": null,
        "FID": 310.0,
        "layer": "hcdemars_mortalitree_prefire_labels2",
        "path": "C:\\ESS144\\Lab 7\\hcdemars_mortalitree_prefire_labels2.shp",
        "SOURCE_FILE": "/Users/maples/GitHub/mortalitree_testing/labels/hcdemars_mortalitree_prefire_labels-1.geojson",
        "SUNETID": "hcdemars",
        "FIRENAME": "CREEK",
        "FIRE_SLUG": "CREEK",
        "PREFIRE": 1,
        "PREFIRE_STATUS": "prefire",
        "TILE_Z": 17,
        "TILE_X": 22171,
        "TILE_Y": 50850,
        "TILEXYZ": [
          17,
          22171,
          50850
        ],
        "OUTPUT_FILE": "/Users/maples/GitHub/mortalitree_testing/notebooks/single_tiles/prefire/17/22171/50850.geojson",
        "OUTPUT_STATUS_DIR": "prefire",
        "FEATURE_COUNT": 37
      },
      "geometry": {
        "type": "Polygon",
        "coordinates": [
          [
            [
              -119.10422326922053,
              37.364103713172874
            ],
            [
              -119.10413074059828,
              37.36410066085578
            ],
            [
              -119.10413615812655,
              37.3639960338265
            ],
            [
              -119.10422868662091,
              37.36399908613211
            ],
            [
              -119.10422326922053,
              37.364103713172874
            ]
          ]
        ]
      }
    },
    {
      "id": "456",
      "type": "Feature",
      "properties": {
        "zxy_val": null,
        "z_val": null,
        "x_val": null,
        "y_val": null,
        "url_suffix": null,
        "upper_left": null,
        "lower_righ": null,
        "centroid": null,
        "FID": null,
        "layer": null,
        "path": null,
        "SOURCE_FILE": "/Users/maples/GitHub/mortalitree_testing/labels/hcdemars_mortalitree_prefire_labels-1.geojson",
        "SUNETID": "hcdemars",
        "FIRENAME": "CREEK",
        "FIRE_SLUG": "CREEK",
        "PREFIRE": 1,
        "PREFIRE_STATUS": "prefire",
        "TILE_Z": 17,
        "TILE_X": 22171,
        "TILE_Y": 50850,
        "TILEXYZ": [
          17,
          22171,
          50850
        ],
        "OUTPUT_FILE": "/Users/maples/GitHub/mortalitree_testing/notebooks/single_tiles/prefire/17/22171/50850.geojson",
        "OUTPUT_STATUS_DIR": "prefire",
        "FEATURE_COUNT": 37
      },
      "geometry": {
        "type": "Polygon",
        "coordinates": [
          [
            [
              -119.10517966393022,
              37.36507988799496
            ],
            [
              -119.10505597086726,
              37.36507580858203
            ],
            [
              -119.10506005969876,
              37.36499682628678
            ],
            [
              -119.10518375263267,
              37.365000905688134
            ],
            [
              -119.10517966393022,
              37.36507988799496
            ]
          ]
        ]
      }
    },
    {
      "id": "457",
      "type": "Feature",
      "properties": {
        "zxy_val": null,
        "z_val": null,
        "x_val": null,
        "y_val": null,
        "url_suffix": null,
        "upper_left": null,
        "lower_righ": null,
        "centroid": null,
        "FID": null,
        "layer": null,
        "path": null,
        "SOURCE_FILE": "/Users/maples/GitHub/mortalitree_testing/labels/hcdemars_mortalitree_prefire_labels-1.geojson",
        "SUNETID": "hcdemars",
        "FIRENAME": "CREEK",
        "FIRE_SLUG": "CREEK",
        "PREFIRE": 1,
        "PREFIRE_STATUS": "prefire",
        "TILE_Z": 17,
        "TILE_X": 22171,
        "TILE_Y": 50850,
        "TILEXYZ": [
          17,
          22171,
          50850
        ],
        "OUTPUT_FILE": "/Users/maples/GitHub/mortalitree_testing/notebooks/single_tiles/prefire/17/22171/50850.geojson",
        "OUTPUT_STATUS_DIR": "prefire",
        "FEATURE_COUNT": 37
      },
      "geometry": {
        "type": "Polygon",
        "coordinates": [
          [
            [
              -119.10508800205302,
              37.3652548785684
            ],
            [
              -119.10499729360365,
              37.36525188692935
            ],
            [
              -119.10500104178004,
              37.365179486499315
            ],
            [
              -119.10509175014265,
              37.36518247813057
            ],
            [
              -119.10508800205302,
              37.3652548785684
            ]
          ]
        ]
      }
    },
    {
      "id": "458",
      "type": "Feature",
      "properties": {
        "zxy_val": null,
        "z_val": null,
        "x_val": null,
        "y_val": null,
        "url_suffix": null,
        "upper_left": null,
        "lower_righ": null,
        "centroid": null,
        "FID": null,
        "layer": null,
        "path": null,
        "SOURCE_FILE": "/Users/maples/GitHub/mortalitree_testing/labels/hcdemars_mortalitree_prefire_labels-1.geojson",
        "SUNETID": "hcdemars",
        "FIRENAME": "CREEK",
        "FIRE_SLUG": "CREEK",
        "PREFIRE": 1,
        "PREFIRE_STATUS": "prefire",
        "TILE_Z": 17,
        "TILE_X": 22171,
        "TILE_Y": 50850,
        "TILEXYZ": [
          17,
          22171,
          50850
        ],
        "OUTPUT_FILE": "/Users/maples/GitHub/mortalitree_testing/notebooks/single_tiles/prefire/17/22171/50850.geojson",
        "OUTPUT_STATUS_DIR": "prefire",
        "FEATURE_COUNT": 37
      },
      "geometry": {
        "type": "Polygon",
        "coordinates": [
          [
            [
              -119.10489407953176,
              37.36533089644883
            ],
            [
              -119.10482810969776,
              37.365328720606314
            ],
            [
              -119.10483322107991,
              37.365229992768064
            ],
            [
              -119.10489919082787,
              37.36523216860286
            ],
            [
              -119.10489407953176,
              37.36533089644883
            ]
          ]
        ]
      }
    },
    {
      "id": "459",
      "type": "Feature",
      "properties": {
        "zxy_val": null,
        "z_val": null,
        "x_val": null,
        "y_val": null,
        "url_suffix": null,
        "upper_left": null,
        "lower_righ": null,
        "centroid": null,
        "FID": null,
        "layer": null,
        "path": null,
        "SOURCE_FILE": "/Users/maples/GitHub/mortalitree_testing/labels/hcdemars_mortalitree_prefire_labels-1.geojson",
        "SUNETID": "hcdemars",
        "FIRENAME": "CREEK",
        "FIRE_SLUG": "CREEK",
        "PREFIRE": 1,
        "PREFIRE_STATUS": "prefire",
        "TILE_Z": 17,
        "TILE_X": 22171,
        "TILE_Y": 50850,
        "TILEXYZ": [
          17,
          22171,
          50850
        ],
        "OUTPUT_FILE": "/Users/maples/GitHub/mortalitree_testing/notebooks/single_tiles/prefire/17/22171/50850.geojson",
        "OUTPUT_STATUS_DIR": "prefire",
        "FEATURE_COUNT": 37
      },
      "geometry": {
        "type": "Polygon",
        "coordinates": [
          [
            [
              -119.1047899461644,
              37.364470359495584
            ],
            [
              -119.10471573095842,
              37.36446791165261
            ],
            [
              -119.10471982005677,
              37.364388929381256
            ],
            [
              -119.10479403518532,
              37.364391377217274
            ],
            [
              -119.1047899461644,
              37.364470359495584
            ]
          ]
        ]
      }
    },
    {
      "id": "460",
      "type": "Feature",
      "properties": {
        "zxy_val": null,
        "z_val": null,
        "x_val": null,
        "y_val": null,
        "url_suffix": null,
        "upper_left": null,
        "lower_righ": null,
        "centroid": null,
        "FID": null,
        "layer": null,
        "path": null,
        "SOURCE_FILE": "/Users/maples/GitHub/mortalitree_testing/labels/hcdemars_mortalitree_prefire_labels-1.geojson",
        "SUNETID": "hcdemars",
        "FIRENAME": "CREEK",
        "FIRE_SLUG": "CREEK",
        "PREFIRE": 1,
        "PREFIRE_STATUS": "prefire",
        "TILE_Z": 17,
        "TILE_X": 22171,
        "TILE_Y": 50850,
        "TILEXYZ": [
          17,
          22171,
          50850
        ],
        "OUTPUT_FILE": "/Users/maples/GitHub/mortalitree_testing/notebooks/single_tiles/prefire/17/22171/50850.geojson",
        "OUTPUT_STATUS_DIR": "prefire",
        "FEATURE_COUNT": 37
      },
      "geometry": {
        "type": "Polygon",
        "coordinates": [
          [
            [
              -119.10482013648945,
              37.364764747995316
            ],
            [
              -119.1047789056558,
              37.364763388089735
            ],
            [
              -119.10478129095192,
              37.364717315097124
            ],
            [
              -119.10482252176051,
              37.36471867500046
            ],
            [
              -119.10482013648945,
              37.364764747995316
            ]
          ]
        ]
      }
    },
    {
      "id": "461",
      "type": "Feature",
      "properties": {
        "zxy_val": null,
        "z_val": null,
        "x_val": null,
        "y_val": null,
        "url_suffix": null,
        "upper_left": null,
        "lower_righ": null,
        "centroid": null,
        "FID": null,
        "layer": null,
        "path": null,
        "SOURCE_FILE": "/Users/maples/GitHub/mortalitree_testing/labels/hcdemars_mortalitree_prefire_labels-1.geojson",
        "SUNETID": "hcdemars",
        "FIRENAME": "CREEK",
        "FIRE_SLUG": "CREEK",
        "PREFIRE": 1,
        "PREFIRE_STATUS": "prefire",
        "TILE_Z": 17,
        "TILE_X": 22171,
        "TILE_Y": 50850,
        "TILEXYZ": [
          17,
          22171,
          50850
        ],
        "OUTPUT_FILE": "/Users/maples/GitHub/mortalitree_testing/notebooks/single_tiles/prefire/17/22171/50850.geojson",
        "OUTPUT_STATUS_DIR": "prefire",
        "FEATURE_COUNT": 37
      },
      "geometry": {
        "type": "Polygon",
        "coordinates": [
          [
            [
              -119.10478510728274,
              37.36480315120853
            ],
            [
              -119.10472738408936,
              37.36480124731793
            ],
            [
              -119.10472976942029,
              37.36475517432844
            ],
            [
              -119.1047874925785,
              37.364757078215874
            ],
            [
              -119.10478510728274,
              37.36480315120853
            ]
          ]
        ]
      }
    },
    {
      "id": "462",
      "type": "Feature",
      "properties": {
        "zxy_val": null,
        "z_val": null,
        "x_val": null,
        "y_val": null,
        "url_suffix": null,
        "upper_left": null,
        "lower_righ": null,
        "centroid": null,
        "FID": null,
        "layer": null,
        "path": null,
        "SOURCE_FILE": "/Users/maples/GitHub/mortalitree_testing/labels/hcdemars_mortalitree_prefire_labels-1.geojson",
        "SUNETID": "hcdemars",
        "FIRENAME": "CREEK",
        "FIRE_SLUG": "CREEK",
        "PREFIRE": 1,
        "PREFIRE_STATUS": "prefire",
        "TILE_Z": 17,
        "TILE_X": 22171,
        "TILE_Y": 50850,
        "TILEXYZ": [
          17,
          22171,
          50850
        ],
        "OUTPUT_FILE": "/Users/maples/GitHub/mortalitree_testing/notebooks/single_tiles/prefire/17/22171/50850.geojson",
        "OUTPUT_STATUS_DIR": "prefire",
        "FEATURE_COUNT": 37
      },
      "geometry": {
        "type": "Polygon",
        "coordinates": [
          [
            [
              -119.10503354892569,
              37.364870683125766
            ],
            [
              -119.1049428409447,
              37.36486769147103
            ],
            [
              -119.10494488540638,
              37.36482820032752
            ],
            [
              -119.10503559334003,
              37.364831191978
            ],
            [
              -119.10503354892569,
              37.364870683125766
            ]
          ]
        ]
      }
    },
    {
      "id": "463",
      "type": "Feature",
      "properties": {
        "zxy_val": null,
        "z_val": null,
        "x_val": null,
        "y_val": null,
        "url_suffix": null,
        "upper_left": null,
        "lower_righ": null,
        "centroid": null,
        "FID": null,
        "layer": null,
        "path": null,
        "SOURCE_FILE": "/Users/maples/GitHub/mortalitree_testing/labels/hcdemars_mortalitree_prefire_labels-1.geojson",
        "SUNETID": "hcdemars",
        "FIRENAME": "CREEK",
        "FIRE_SLUG": "CREEK",
        "PREFIRE": 1,
        "PREFIRE_STATUS": "prefire",
        "TILE_Z": 17,
        "TILE_X": 22171,
        "TILE_Y": 50850,
        "TILEXYZ": [
          17,
          22171,
          50850
        ],
        "OUTPUT_FILE": "/Users/maples/GitHub/mortalitree_testing/notebooks/single_tiles/prefire/17/22171/50850.geojson",
        "OUTPUT_STATUS_DIR": "prefire",
        "FEATURE_COUNT": 37
      },
      "geometry": {
        "type": "Polygon",
        "coordinates": [
          [
            [
              -119.10513420673793,
              37.36484103737637
            ],
            [
              -119.10510122202504,
              37.36483994953875
            ],
            [
              -119.1051029256725,
              37.36480704024615
            ],
            [
              -119.10513591037105,
              37.36480812808249
            ],
            [
              -119.10513420673793,
              37.36484103737637
            ]
          ]
        ]
      }
    },
    {
      "id": "464",
      "type": "Feature",
      "properties": {
        "zxy_val": null,
        "z_val": null,
        "x_val": null,
        "y_val": null,
        "url_suffix": null,
        "upper_left": null,
        "lower_righ": null,
        "centroid": null,
        "FID": null,
        "layer": null,
        "path": null,
        "SOURCE_FILE": "/Users/maples/GitHub/mortalitree_testing/labels/hcdemars_mortalitree_prefire_labels-1.geojson",
        "SUNETID": "hcdemars",
        "FIRENAME": "CREEK",
        "FIRE_SLUG": "CREEK",
        "PREFIRE": 1,
        "PREFIRE_STATUS": "prefire",
        "TILE_Z": 17,
        "TILE_X": 22171,
        "TILE_Y": 50850,
        "TILEXYZ": [
          17,
          22171,
          50850
        ],
        "OUTPUT_FILE": "/Users/maples/GitHub/mortalitree_testing/notebooks/single_tiles/prefire/17/22171/50850.geojson",
        "OUTPUT_STATUS_DIR": "prefire",
        "FEATURE_COUNT": 37
      },
      "geometry": {
        "type": "Polygon",
        "coordinates": [
          [
            [
              -119.10512391619186,
              37.36488025656977
            ],
            [
              -119.10507443909802,
              37.36487862480415
            ],
            [
              -119.1050768242234,
              37.364832551796205
            ],
            [
              -119.10512630128711,
              37.36483418355913
            ],
            [
              -119.10512391619186,
              37.36488025656977
            ]
          ]
        ]
      }
    },
    {
      "id": "465",
      "type": "Feature",
      "properties": {
        "zxy_val": null,
        "z_val": null,
        "x_val": null,
        "y_val": null,
        "url_suffix": null,
        "upper_left": null,
        "lower_righ": null,
        "centroid": null,
        "FID": null,
        "layer": null,
        "path": null,
        "SOURCE_FILE": "/Users/maples/GitHub/mortalitree_testing/labels/hcdemars_mortalitree_prefire_labels-1.geojson",
        "SUNETID": "hcdemars",
        "FIRENAME": "CREEK",
        "FIRE_SLUG": "CREEK",
        "PREFIRE": 1,
        "PREFIRE_STATUS": "prefire",
        "TILE_Z": 17,
        "TILE_X": 22171,
        "TILE_Y": 50850,
        "TILEXYZ": [
          17,
          22171,
          50850
        ],
        "OUTPUT_FILE": "/Users/maples/GitHub/mortalitree_testing/notebooks/single_tiles/prefire/17/22171/50850.geojson",
        "OUTPUT_STATUS_DIR": "prefire",
        "FEATURE_COUNT": 37
      },
      "geometry": {
        "type": "Polygon",
        "coordinates": [
          [
            [
              -119.1052362273474,
              37.364785064098065
            ],
            [
              -119.10514551944759,
              37.364782072604584
            ],
            [
              -119.10514892669391,
              37.364716254015015
            ],
            [
              -119.10523963451487,
              37.36471924550143
            ],
            [
              -119.1052362273474,
              37.364785064098065
            ]
          ]
        ]
      }
    },
    {
      "id": "466",
      "type": "Feature",
      "properties": {
        "zxy_val": null,
        "z_val": null,
        "x_val": null,
        "y_val": null,
        "url_suffix": null,
        "upper_left": null,
        "lower_righ": null,
        "centroid": null,
        "FID": null,
        "layer": null,
        "path": null,
        "SOURCE_FILE": "/Users/maples/GitHub/mortalitree_testing/labels/hcdemars_mortalitree_prefire_labels-1.geojson",
        "SUNETID": "hcdemars",
        "FIRENAME": "CREEK",
        "FIRE_SLUG": "CREEK",
        "PREFIRE": 1,
        "PREFIRE_STATUS": "prefire",
        "TILE_Z": 17,
        "TILE_X": 22171,
        "TILE_Y": 50850,
        "TILEXYZ": [
          17,
          22171,
          50850
        ],
        "OUTPUT_FILE": "/Users/maples/GitHub/mortalitree_testing/notebooks/single_tiles/prefire/17/22171/50850.geojson",
        "OUTPUT_STATUS_DIR": "prefire",
        "FEATURE_COUNT": 37
      },
      "geometry": {
        "type": "Polygon",
        "coordinates": [
          [
            [
              -119.10525050285284,
              37.36442950769056
            ],
            [
              -119.10519277991368,
              37.364427604043236
            ],
            [
              -119.10519516492785,
              37.364381531025295
            ],
            [
              -119.10525288783187,
              37.36438343466946
            ],
            [
              -119.10525050285284,
              37.36442950769056
            ]
          ]
        ]
      }
    },
    {
      "id": "467",
      "type": "Feature",
      "properties": {
        "zxy_val": null,
        "z_val": null,
        "x_val": null,
        "y_val": null,
        "url_suffix": null,
        "upper_left": null,
        "lower_righ": null,
        "centroid": null,
        "FID": null,
        "layer": null,
        "path": null,
        "SOURCE_FILE": "/Users/maples/GitHub/mortalitree_testing/labels/hcdemars_mortalitree_prefire_labels-1.geojson",
        "SUNETID": "hcdemars",
        "FIRENAME": "CREEK",
        "FIRE_SLUG": "CREEK",
        "PREFIRE": 1,
        "PREFIRE_STATUS": "prefire",
        "TILE_Z": 17,
        "TILE_X": 22171,
        "TILE_Y": 50850,
        "TILEXYZ": [
          17,
          22171,
          50850
        ],
        "OUTPUT_FILE": "/Users/maples/GitHub/mortalitree_testing/notebooks/single_tiles/prefire/17/22171/50850.geojson",
        "OUTPUT_STATUS_DIR": "prefire",
        "FEATURE_COUNT": 37
      },
      "geometry": {
        "type": "Polygon",
        "coordinates": [
          [
            [
              -119.10429453554099,
              37.363748557340216
            ],
            [
              -119.10420382899063,
              37.363745565194904
            ],
            [
              -119.10420723693187,
              37.36367974666765
            ],
            [
              -119.10429794340337,
              37.36368273880588
            ],
            [
              -119.10429453554099,
              37.363748557340216
            ]
          ]
        ]
      }
    },
    {
      "id": "468",
      "type": "Feature",
      "properties": {
        "zxy_val": null,
        "z_val": null,
        "x_val": null,
        "y_val": null,
        "url_suffix": null,
        "upper_left": null,
        "lower_righ": null,
        "centroid": null,
        "FID": null,
        "layer": null,
        "path": null,
        "SOURCE_FILE": "/Users/maples/GitHub/mortalitree_testing/labels/hcdemars_mortalitree_prefire_labels-1.geojson",
        "SUNETID": "hcdemars",
        "FIRENAME": "CREEK",
        "FIRE_SLUG": "CREEK",
        "PREFIRE": 1,
        "PREFIRE_STATUS": "prefire",
        "TILE_Z": 17,
        "TILE_X": 22171,
        "TILE_Y": 50850,
        "TILEXYZ": [
          17,
          22171,
          50850
        ],
        "OUTPUT_FILE": "/Users/maples/GitHub/mortalitree_testing/notebooks/single_tiles/prefire/17/22171/50850.geojson",
        "OUTPUT_STATUS_DIR": "prefire",
        "FEATURE_COUNT": 37
      },
      "geometry": {
        "type": "Polygon",
        "coordinates": [
          [
            [
              -119.10326868233729,
              37.36393887850718
            ],
            [
              -119.10320271384975,
              37.36393670182682
            ],
            [
              -119.10320646357225,
              37.36386430153553
            ],
            [
              -119.10327243199671,
              37.36386647821021
            ],
            [
              -119.10326868233729,
              37.36393887850718
            ]
          ]
        ]
      }
    },
    {
      "id": "469",
      "type": "Feature",
      "properties": {
        "zxy_val": null,
        "z_val": null,
        "x_val": null,
        "y_val": null,
        "url_suffix": null,
        "upper_left": null,
        "lower_righ": null,
        "centroid": null,
        "FID": null,
        "layer": null,
        "path": null,
        "SOURCE_FILE": "/Users/maples/GitHub/mortalitree_testing/labels/hcdemars_mortalitree_prefire_labels-1.geojson",
        "SUNETID": "hcdemars",
        "FIRENAME": "CREEK",
        "FIRE_SLUG": "CREEK",
        "PREFIRE": 1,
        "PREFIRE_STATUS": "prefire",
        "TILE_Z": 17,
        "TILE_X": 22171,
        "TILE_Y": 50850,
        "TILEXYZ": [
          17,
          22171,
          50850
        ],
        "OUTPUT_FILE": "/Users/maples/GitHub/mortalitree_testing/notebooks/single_tiles/prefire/17/22171/50850.geojson",
        "OUTPUT_STATUS_DIR": "prefire",
        "FEATURE_COUNT": 37
      },
      "geometry": {
        "type": "Polygon",
        "coordinates": [
          [
            [
              -119.10314454478895,
              37.36410290631691
            ],
            [
              -119.10304559185954,
              37.364099641166625
            ],
            [
              -119.10304695545949,
              37.36407331379375
            ],
            [
              -119.10314590835448,
              37.36407657894095
            ],
            [
              -119.10314454478895,
              37.36410290631691
            ]
          ]
        ]
      }
    },
    {
      "id": "470",
      "type": "Feature",
      "properties": {
        "zxy_val": null,
        "z_val": null,
        "x_val": null,
        "y_val": null,
        "url_suffix": null,
        "upper_left": null,
        "lower_righ": null,
        "centroid": null,
        "FID": null,
        "layer": null,
        "path": null,
        "SOURCE_FILE": "/Users/maples/GitHub/mortalitree_testing/labels/hcdemars_mortalitree_prefire_labels-1.geojson",
        "SUNETID": "hcdemars",
        "FIRENAME": "CREEK",
        "FIRE_SLUG": "CREEK",
        "PREFIRE": 1,
        "PREFIRE_STATUS": "prefire",
        "TILE_Z": 17,
        "TILE_X": 22171,
        "TILE_Y": 50850,
        "TILEXYZ": [
          17,
          22171,
          50850
        ],
        "OUTPUT_FILE": "/Users/maples/GitHub/mortalitree_testing/notebooks/single_tiles/prefire/17/22171/50850.geojson",
        "OUTPUT_STATUS_DIR": "prefire",
        "FEATURE_COUNT": 37
      },
      "geometry": {
        "type": "Polygon",
        "coordinates": [
          [
            [
              -119.10297726906074,
              37.364222655415475
            ],
            [
              -119.10286182381756,
              37.36421884589185
            ],
            [
              -119.10286591482226,
              37.36413986379169
            ],
            [
              -119.102981359945,
              37.36414367330451
            ],
            [
              -119.10297726906074,
              37.364222655415475
            ]
          ]
        ]
      }
    }
  ],
  "properties": {
    "SOURCE_FILE": "/Users/maples/GitHub/mortalitree_testing/labels/hcdemars_mortalitree_prefire_labels-1.geojson",
    "SUNETID": "hcdemars",
    "FIRENAME": "CREEK",
    "FIRE_SLUG": "CREEK",
    "PREFIRE": 1,
    "PREFIRE_STATUS": "prefire",
    "TILE_Z": 17,
    "TILE_X": 22171,
    "TILE_Y": 50850,
    "TILEXYZ": [
      17,
      22171,
      50850
    ],
    "OUTPUT_FILE": "/Users/maples/GitHub/mortalitree_testing/notebooks/single_tiles/prefire/17/22171/50850.geojson",
    "OUTPUT_STATUS_DIR": "prefire",
    "FEATURE_COUNT": 37
  }
}